OBJECTID,Boro,Type,Provider,Name,Location,Lat,Lon,X,Y,Location_T,Remarks,City,SSID,SourceID,"Location (Lat, Long)"
1059,BX,Limited Free,Cablevision,BRONX PARK E,BRONX PARK E-BRONX PARK 3/P/N/O BURKE AV,40.87304,-73.871276,1019850.041,257375.9095,Outdoor,3 free 10 min sessions,Bronx,GuestWiFi,,"(40.87304, -73.871276)"
1060,BX,Limited Free,Cablevision,GUN HILL PARK,Gun Hill Playground/Park Cruger Av 1/P/S/O Magenta St,40.87455,-73.86554,1021435.549,257928.4445,Outdoor,3 free 10 min sessions,Bronx,GuestWiFi,,"(40.87455, -73.86554)"
1061,BX,Limited Free,Cablevision,GUN HILL PARK,Gun Hill Playground/Park  HOLLAND AV 1 P/S/O MAGENTA AV,40.874779,-73.865005,1021583.377,258012.1057,Outdoor,3 free 10 min sessions,Bronx,GuestWiFi,,"(40.874779, -73.865005)"
1062,BX,Limited Free,Cablevision,Kilmer Park,Kilmer Park-Top center,40.828468,-73.9227,1005642.502,241119.9154,Outdoor,3 free 10 min sessions,Bronx,GuestWiFi,,"(40.828468, -73.9227)"
1063,BX,Limited Free,Cablevision,Kilmer Park,Kilmer Park-Left center,40.828057,-73.923075,1005538.854,240970.0821,Outdoor,3 free 10 min sessions,Bronx,GuestWiFi,,"(40.828057, -73.923075)"
1064,BX,Limited Free,Cablevision,Kilmer Park,Kilmer Park-right center,40.827831,-73.922677,1005649.072,240887.8388,Outdoor,3 free 10 min sessions,Bronx,GuestWiFi,,"(40.827831, -73.922677)"
1065,BX,Limited Free,Cablevision,Kilmer Park,Kilmer Park-bottom right of fountain,40.827441,-73.923008,1005557.593,240745.6669,Outdoor,3 free 10 min sessions,Bronx,GuestWiFi,,"(40.827441, -73.923008)"
1066,BX,Limited Free,Cablevision,Kilmer Park,Kilmer Park-bottom left  of fountain,40.827563,-73.923631,1005385.139,240789.965,Outdoor,3 free 10 min sessions,Bronx,GuestWiFi,,"(40.827563, -73.923631)"
1067,BX,Limited Free,Cablevision,OWEN F. DOLEN PK,OWEN DOLEN- BA ON WEST SIDE OF BLDG,40.840657,-73.842668,1027783.082,245590.4754,Outdoor,3 free 10 min sessions,Bronx,GuestWiFi,,"(40.840657, -73.842668)"
1068,BX,Limited Free,Cablevision,OWEN F. DOLEN PK,OWEN DOLEN- BA ON EAST SIDE OF BLDG,40.840657,-73.842668,1027783.082,245590.4754,Outdoor,3 free 10 min sessions,Bronx,GuestWiFi,,"(40.840657, -73.842668)"
1069,BX,Limited Free,Cablevision,OWEN F. DOLEN PK,OWEN DOLEN- LOBBY REC ROOM CEILING MOUNT,40.840672,-73.842602,1027801.334,245595.9731,Outdoor,3 free 10 min sessions,Bronx,GuestWiFi,,"(40.840672, -73.842602)"
1070,BX,Limited Free,Cablevision,PELHAM BAY,Pelham Bay Park C/O MIDDLETOWN RD /MCDONOUGH PL,40.846052,-73.82495,1032681.641,247565.3737,Outdoor,3 free 10 min sessions,Bronx,GuestWiFi,,"(40.846052, -73.82495)"
16,SI,Free,AT&T,Clove Lakes Park,Near Baseball Field,40.6182,-74.1072,954489.0316,164521.523,Outdoor,,Staten Island,attwifi,,"(40.6182, -74.1072)"
1071,BX,Limited Free,Cablevision,PELHAM BAY,Pelham Bay Park  MIDDLETOWN RD 1/P/W/O DWIGHT PL,40.846314,-73.824472,1032813.699,247661.0946,Outdoor,3 free 10 min sessions,Bronx,GuestWiFi,,"(40.846314, -73.824472)"
1072,BX,Limited Free,Cablevision,PELHAM BAY,Pelham Bay Park  C/O MIDDLETOWN RD /DWIGHT PL,40.846606,-73.823952,1032957.355,247767.7699,Outdoor,3 free 10 min sessions,Bronx,GuestWiFi,,"(40.846606, -73.823952)"
1073,BX,Limited Free,Cablevision,PELHAM BAY,Pelham Bay Park  C/O MIDDLETOWN RD /ROBERTSON PL,40.8471,-73.822992,1033222.595,247948.2876,Outdoor,3 free 10 min sessions,Bronx,GuestWiFi,,"(40.8471, -73.822992)"
1074,BX,Limited Free,Cablevision,PELHAM BAY,Pelham Bay Park MIDDLETOWN RD 1/P/W/O KENNELLWORTH PL,40.847596,-73.82223,1033433.05,248129.4257,Outdoor,3 free 10 min sessions,Bronx,GuestWiFi,,"(40.847596, -73.82223)"
1075,BX,Limited Free,Cablevision,PELHAM BAY,Pelham Bay Park C/O MIDDLETOWN RD  /OHM AV,40.848159,-73.821071,1033753.287,248335.2002,Outdoor,3 free 10 min sessions,Bronx,GuestWiFi,,"(40.848159, -73.821071)"
1076,BX,Limited Free,Cablevision,PELHAM BAY,Pelham Bay Park  MIDDLETOWN RD   1/P/W/O STADIUM AV,40.848322,-73.82075,1033841.975,248394.769,Outdoor,3 free 10 min sessions,Bronx,GuestWiFi,,"(40.848322, -73.82075)"
1077,BX,Limited Free,Cablevision,PELHAM BAY,Pelham Bay Park -IN PARK POLE 4/P/N/O  STADIUM AV,40.849233,-73.82105,1033758.298,248726.5101,Outdoor,3 free 10 min sessions,Bronx,GuestWiFi,,"(40.849233, -73.82105)"
1078,BX,Limited Free,Cablevision,PELHAM BAY,Pelham Bay Park -IN PARK POLE 4/P/N/O  STADIUM AV,40.849196,-73.821055,1033756.942,248713.0269,Outdoor,3 free 10 min sessions,Bronx,GuestWiFi,,"(40.849196, -73.821055)"
1079,BX,Limited Free,Cablevision,PELHAM BAY,Pelham Bay Park -IN PARK POLE 6/P/N/O  STADIUM AV,40.850208,-73.821752,1033563.36,249081.3431,Outdoor,3 free 10 min sessions,Bronx,GuestWiFi,,"(40.850208, -73.821752)"
1080,BX,Limited Free,Cablevision,PELHAM BAY,Pelham Bay Park -IN PARK POLE 6/P/N/O  STADIUM AV,40.850232,-73.821777,1033556.425,249090.0731,Outdoor,3 free 10 min sessions,Bronx,GuestWiFi,,"(40.850232, -73.821777)"
50,MN,Free,AT&T,Battery Park,"Kiosk near center of Park, Near Battery Garden",40.7016,-74.0153,980007.7053,194888.6372,Outdoor,,New York,attwifi,,"(40.7016, -74.0153)"
1081,BX,Limited Free,Cablevision,Poe Park,Poe Park-right side of bandshell,40.864437,-73.894553,1013416.306,254232.8971,Outdoor,3 free 10 min sessions,Bronx,GuestWiFi,,"(40.864437, -73.894553)"
1082,BX,Limited Free,Cablevision,Poe Park,Poe Park-left side of bandshell,40.864458,-73.895115,1013260.85,254240.3616,Outdoor,3 free 10 min sessions,Bronx,GuestWiFi,,"(40.864458, -73.895115)"
1083,BX,Limited Free,Cablevision,Poe Park,Poe Park-Playground area,40.864781,-73.894626,1013395.964,254358.2052,Outdoor,3 free 10 min sessions,Bronx,GuestWiFi,,"(40.864781, -73.894626)"
1084,BX,Limited Free,Cablevision,Poe Park,Poe Park-North area facing Poe cottage,40.865167,-73.894227,1013506.156,254498.973,Outdoor,3 free 10 min sessions,Bronx,GuestWiFi,,"(40.865167, -73.894227)"
1085,BX,Limited Free,Cablevision,RANAQUA PARK,RANAQUA PARK-BIRCHAll AV INDOOR LOBBY,40.84459,-73.8598,1023040.442,247015.3626,Outdoor,3 free 10 min sessions,Bronx,GuestWiFi,,"(40.84459, -73.8598)"
1086,BX,Limited Free,Cablevision,RANAQUA PARK,RANAQUA PARK-BIRCHAll AV 6/P/E/O SAGAMORE ST,40.84459,-73.8598,1023040.442,247015.3626,Outdoor,3 free 10 min sessions,Bronx,GuestWiFi,,"(40.84459, -73.8598)"
1087,BX,Limited Free,Cablevision,SETON FALLS,SETON FALLS PARK- SETON AV 5/P/S/O E 233RD ST,40.887637,-73.835951,1029609.589,262710.4969,Outdoor,3 free 10 min sessions,Bronx,GuestWiFi,,"(40.887637, -73.835951)"
1088,BX,Limited Free,Cablevision,SETON FALLS,SETON FALLS PARK-C/O  E 233RD ST  & WILDER AV,40.888783,-73.840133,1028452.504,263125.8924,Outdoor,3 free 10 min sessions,Bronx,GuestWiFi,,"(40.888783, -73.840133)"
1089,BX,Limited Free,Cablevision,SETON FALLS,SETON FALLS PARK-C/O EDEN TERR/CRAWFORD AV,40.885284,-73.838521,1028900.564,261851.8851,Outdoor,3 free 10 min sessions,Bronx,GuestWiFi,,"(40.885284, -73.838521)"
1090,BX,Limited Free,Cablevision,SETON FALLS,SETON FALLS PARK- PRATT AV 2/P/S/O SETON AV,40.886622,-73.83497,1029881.532,262341.2014,Outdoor,3 free 10 min sessions,Bronx,GuestWiFi,,"(40.886622, -73.83497)"
1091,BX,Limited Free,Cablevision,ST JAMES PARK,ST JAMES- ON MAST ON ROOF,40.86473,-73.899037,1012175.924,254338.1869,Outdoor,3 free 10 min sessions,Bronx,GuestWiFi,,"(40.86473, -73.899037)"
58,MN,Free,AT&T,The High Line,Near Chelsea Market,40.7436,-74.0069,982338.0137,210190.2368,Outdoor,,New York,attwifi,,"(40.7436, -74.0069)"
1092,BX,Limited Free,Cablevision,ST JAMES PARK,ST JAMES- E WING CORRIDOR DROP CEILING,40.86473,-73.899037,1012175.924,254338.1869,Outdoor,3 free 10 min sessions,Bronx,GuestWiFi,,"(40.86473, -73.899037)"
1093,BX,Limited Free,Cablevision,ST JAMES PARK,ST JAMES- W WING CORRIDOR DROP CEILING,40.86473,-73.899037,1012175.924,254338.1869,Outdoor,3 free 10 min sessions,Bronx,GuestWiFi,,"(40.86473, -73.899037)"
1094,BX,Limited Free,Cablevision,ST MARY'S PARK,ST MARY'S-Lobby  Drop ceiling,40.811544,-73.914138,1008018.049,234956.1003,Outdoor,3 free 10 min sessions,Bronx,GuestWiFi,,"(40.811544, -73.914138)"
1095,BX,Limited Free,Cablevision,ST MARY'S PARK,ST MARY'S-MULTIPURPOSE RM DROP CEILING-2ND FL,40.811544,-73.914138,1008018.049,234956.1003,Outdoor,3 free 10 min sessions,Bronx,GuestWiFi,,"(40.811544, -73.914138)"
1096,BX,Limited Free,Cablevision,ST MARY'S PARK,ST MARY'S-HALL CEILING-2ND FL,40.811544,-73.914138,1008018.049,234956.1003,Outdoor,3 free 10 min sessions,Bronx,GuestWiFi,,"(40.811544, -73.914138)"
1097,BX,Limited Free,Cablevision,ST MARY'S PARK,ST MARY'S-FAN ROOM -3RD FLOOR,40.811544,-73.914138,1008018.049,234956.1003,Outdoor,3 free 10 min sessions,Bronx,GuestWiFi,,"(40.811544, -73.914138)"
1098,BX,Limited Free,Cablevision,ST MARY'S PARK,ST MARY'S-FAN ROOM -3RD FLOOR,40.811544,-73.914138,1008018.049,234956.1003,Outdoor,3 free 10 min sessions,Bronx,GuestWiFi,,"(40.811544, -73.914138)"
1099,BX,Limited Free,Cablevision,ST MARY'S PARK,ST MARY'S-ROOF OF RESTROOM BLDG RIGHT,40.811544,-73.914138,1008018.049,234956.1003,Outdoor,3 free 10 min sessions,Bronx,GuestWiFi,,"(40.811544, -73.914138)"
1100,BX,Limited Free,Cablevision,ST MARY'S PARK,ST MARY'S-ROOF OF RESTROOM BLDG LEFT,40.811544,-73.914138,1008018.049,234956.1003,Outdoor,3 free 10 min sessions,Bronx,GuestWiFi,,"(40.811544, -73.914138)"
1101,BX,Limited Free,Cablevision,Van Cortlandt,Van Cortlandt Parade grounds-N/O /Tortoise & Hare statue,40.894246,-73.896288,1012923.553,265092.9246,Outdoor,3 free 10 min sessions,Bronx,GuestWiFi,,"(40.894246, -73.896288)"
1102,BX,Limited Free,Cablevision,Van Cortlandt,Van Cortlandt Parade grounds-S/O /Tortoise & Hare statue,40.893739,-73.89622,1012942.572,264908.2265,Outdoor,3 free 10 min sessions,Bronx,GuestWiFi,,"(40.893739, -73.89622)"
68,MN,Free,AT&T,Thomas Paine Park,Near Story Corps Building,40.7145,-74.0029,983446.0607,199588.1383,Outdoor,,New York,attwifi,,"(40.7145, -74.0029)"
74,BK,Free,AT&T,Brooklyn Bridge Park,"Pier 1, Pier 5, Pier 6",40.7024,-73.9964,985248.1752,195179.7511,Outdoor,,Brooklyn,attwifi,,"(40.7024, -73.9964)"
77,MN,Partner Site,Partner,Union Square Park,Entire park,40.736,-73.9904,986910.4586,207421.3864,Outdoor,,New York,unionsquarewifi,,"(40.736, -73.9904)"
1103,BX,Limited Free,Cablevision,Williamsbridge Oval,Williamsbridge Oval-1ST FL RECEPTION,40.876541,-73.87845,1017864.223,258648.6268,Outdoor,3 free 10 min sessions,Bronx,GuestWiFi,,"(40.876541, -73.87845)"
1104,BX,Limited Free,Cablevision,Williamsbridge Oval,Williamsbridge Oval-1ST FL SENIOR GAME ROOM,40.876827,-73.878725,1017788.029,258752.7227,Outdoor,3 free 10 min sessions,Bronx,GuestWiFi,,"(40.876827, -73.878725)"
1105,BX,Limited Free,Cablevision,Williamsbridge Oval,Williamsbridge Oval-1ST FL SENIOR LOUNGE,40.876855,-73.878874,1017746.81,258762.867,Outdoor,3 free 10 min sessions,Bronx,GuestWiFi,,"(40.876855, -73.878874)"
1106,BX,Limited Free,Cablevision,Williamsbridge Oval,Williamsbridge Oval-2ND FL COMMUNITY ROOM,40.876643,-73.878542,1017838.73,258685.7543,Outdoor,3 free 10 min sessions,Bronx,GuestWiFi,,"(40.876643, -73.878542)"
1107,BX,Limited Free,Cablevision,Williamsbridge Oval,Williamsbridge Oval- RESERVOIR OVAL E  2/P/S/O RESERVOIR PL,40.878445,-73.87548,1018684.58,259343.4827,Outdoor,3 free 10 min sessions,Bronx,GuestWiFi,,"(40.878445, -73.87548)"
1108,BX,Limited Free,Cablevision,Williamsbridge Oval,Williamsbridge Oval- RESERVOIR OVAL E  1/p/n/o holt pl,40.876788,-73.876273,1018466.138,258739.4616,Outdoor,3 free 10 min sessions,Bronx,GuestWiFi,,"(40.876788, -73.876273)"
1109,BX,Limited Free,Cablevision,Williamsbridge Oval,Williamsbridge Oval- RESERVOIR OVAL E  1/p/E O BAINBRIDGE AV,40.877001,-73.879322,1017622.844,258815.8896,Outdoor,3 free 10 min sessions,Bronx,GuestWiFi,,"(40.877001, -73.879322)"
1110,BX,Limited Free,Cablevision,Williamsbridge Oval,Williamsbridge Oval- RESERVOIR OVAL E  3/p/S/o holt pl,40.876099,-73.877384,1018159.247,258487.9998,Outdoor,3 free 10 min sessions,Bronx,GuestWiFi,,"(40.876099, -73.877384)"
99,MN,Partner Site,Partner,Bryant Park,Entire park,40.7538,-73.9833,988876.8529,213906.7904,Outdoor,,New York,BryantPark.org,,"(40.7538, -73.9833)"
1111,BX,Limited Free,Cablevision,Williamsbridge Oval,Williamsbridge Oval- RESERVOIR OVAL E  8/p/S/o holt pl,40.8762,-73.878749,1017781.708,258524.2727,Outdoor,3 free 10 min sessions,Bronx,GuestWiFi,,"(40.8762, -73.878749)"
1112,BX,Limited Free,Cablevision,Crotona Park,CROTONA PARK-C/O PROSPECT AVE AND CROTONA PARK N,40.841084,-73.892028,1014125.2,245725.3649,Outdoor,3 free 10 min sessions,Bronx,GuestWiFi,,"(40.841084, -73.892028)"
1113,BX,Limited Free,Cablevision,Crotona Park,CROTONA PARK C/O EAST 173RD ST AND FULTON AVE,40.840664,-73.898372,1012370.032,245570.2432,Outdoor,3 free 10 min sessions,Bronx,GuestWiFi,,"(40.840664, -73.898372)"
1114,BX,Limited Free,Cablevision,Crotona Park,Crotona Park-e 175th st 1/P/E/O CROTONA PARK NORTH,40.83971,-73.887757,1015307.601,245226.2511,Outdoor,3 free 10 min sessions,Bronx,GuestWiFi,,"(40.83971, -73.887757)"
1115,BX,Limited Free,Cablevision,Crotona Park,Crotona Park-CROTONA AV 3 P/S/O CRONTA PARK NORTH,40.84182,-73.894281,1013501.486,245992.7568,Outdoor,3 free 10 min sessions,Bronx,GuestWiFi,,"(40.84182, -73.894281)"
1116,BX,Limited Free,Cablevision,Crotona Park,Crotona Park-CROTONA AV 2 P/S/O CRONTA PARK NORTH,40.841693,-73.894399,1013468.892,245946.4465,Outdoor,3 free 10 min sessions,Bronx,GuestWiFi,,"(40.841693, -73.894399)"
1117,BX,Limited Free,Cablevision,Crotona Park,Crotona Park-CROTONA AV 4 P/S/O CRONTA PARK NORTH,40.84071,-73.896045,1013013.883,245587.7582,Outdoor,3 free 10 min sessions,Bronx,GuestWiFi,,"(40.84071, -73.896045)"
1118,BX,Limited Free,Cablevision,Crotona Park,Crotona Park-ON SPAN BETWEEN PS 4 & PS 171,40.881477,-73.897951,1012469.198,260440.1245,Outdoor,3 free 10 min sessions,Bronx,GuestWiFi,,"(40.881477, -73.897951)"
902,MN,Free,Manhattan Down Alliance,10,"5 Hanover Square, New York, NY 10004, USA",40.7048988,-74.0093002,981671.4225,196090.2549,Outdoor,,New York,#DwtwnAllianceFreeWiFi,,"(40.7048988, -74.0093002)"
1119,BX,Limited Free,Cablevision,Crotona Park,Crotona Park-CROTONA PARK SOUTH 1/P/E/O CROTONA AV,40.83448,-73.897582,1012591.256,243317.438,Outdoor,3 free 10 min sessions,Bronx,GuestWiFi,,"(40.83448, -73.897582)"
1120,BX,Limited Free,Cablevision,Crotona Park,Crotona Park- CROTONA PARK NORTH  1/P/E/O CROTONA AV,40.841626,-73.892961,1013866.804,245922.5187,Outdoor,3 free 10 min sessions,Bronx,GuestWiFi,,"(40.841626, -73.892961)"
111,MN,Free,AT&T,Tompkin Square Park,Around the Field House,40.7268,-73.9814,989405.3502,204069.9403,Outdoor,,New York,attwifi,,"(40.7268, -73.9814)"
1121,BX,Limited Free,Cablevision,Crotona Park,Crotona Park- CROTONA PARK NORTH  2/P/E/O PROSPECT AV,40.840706,-73.891398,1014299.688,245587.8609,Outdoor,3 free 10 min sessions,Bronx,GuestWiFi,,"(40.840706, -73.891398)"
1122,BX,Limited Free,Cablevision,Crotona Park,Crotona Park-C/O CROTONA PARK SOUTH  /CROTONA AV,40.834623,-73.898171,1012428.207,243369.3483,Outdoor,3 free 10 min sessions,Bronx,GuestWiFi,,"(40.834623, -73.898171)"
1123,BX,Limited Free,Cablevision,Crotona Park,CROTONA PARK-CROTONA AV 1/P/S/O CROTONA PARK NORTH,40.842046,-73.894094,1013553.127,246075.1595,Outdoor,3 free 10 min sessions,Bronx,GuestWiFi,,"(40.842046, -73.894094)"
1124,BX,Limited Free,Cablevision,Crotona Park,CROTONA PARK-CROTONA AV 5/P/S/O CROTONA PARK NORTH,40.840526,-73.895168,1013256.625,245521.0093,Outdoor,3 free 10 min sessions,Bronx,GuestWiFi,,"(40.840526, -73.895168)"
1125,BX,Limited Free,Cablevision,Crotona Park,CROTONA PARK-TRAFALGAR PL 1/P/N/O E 175TH ST,40.839709,-73.887464,1015388.675,245225.9909,Outdoor,3 free 10 min sessions,Bronx,GuestWiFi,,"(40.839709, -73.887464)"
1126,BX,Limited Free,Cablevision,Ferry Point,FERRY POINT PARK -ON SCHLEY AVENUE 2/P/E O BRUSH,40.816436,-73.838292,1029010.191,236768.0971,Outdoor,3 free 10 min sessions,Bronx,GuestWiFi,,"(40.816436, -73.838292)"
1127,BX,Limited Free,Cablevision,Ferry Point,FERRY POINT PARK-BALCOM AV 1/P/E/O SCHLEY AV,40.821599,-73.826654,1032227.821,238655.3213,Outdoor,3 free 10 min sessions,Bronx,GuestWiFi,,"(40.821599, -73.826654)"
1128,BX,Limited Free,Cablevision,Ferry Point,FERRY POINT PARK-BALCOM AV 3/P/E/O SCHLEY AV,40.821068,-73.82621,1032351.093,238462.1025,Outdoor,3 free 10 min sessions,Bronx,GuestWiFi,,"(40.821068, -73.82621)"
1129,BX,Limited Free,Cablevision,Ferry Point,FERRY POINT PARK-BALCOM AV 5/P/E/O SCHLEY AV,40.820619,-73.825839,1032454.102,238298.72,Outdoor,3 free 10 min sessions,Bronx,GuestWiFi,,"(40.820619, -73.825839)"
1130,BX,Limited Free,Cablevision,Ferry Point,FERRY POINT PARK-BALCOM AV 1/P/E/O SAMPSON AV,40.818063,-73.82387,1033000.952,237368.5683,Outdoor,3 free 10 min sessions,Bronx,GuestWiFi,,"(40.818063, -73.82387)"
124,MN,Free,AT&T,Central Park,Tavern on the Green,40.773,-73.9781,990315.8008,220902.2997,Outdoor,,New York,attwifi,,"(40.773, -73.9781)"
133,BK,Free,AT&T,Fort Green Park,Near Visitors Center,40.6921,-73.9757,990988.7224,191428.0703,Outdoor,,Brooklyn,attwifi,,"(40.6921, -73.9757)"
135,MN,Free,AT&T,Central Park,Mineral Springs (around the restaurant),40.773,-73.9744,991340.6164,220902.5776,Outdoor,,New York,attwifi,,"(40.773, -73.9744)"
136,MN,Free,AT&T,Central Park,Around the Zoo,40.7677,-73.9719,992033.679,218971.8236,Outdoor,,New York,attwifi,,"(40.7677, -73.9719)"
137,BK,Free,AT&T,Prospect Park,Picnic House,40.6655,-73.9713,992212.0779,181737.2944,Outdoor,,Brooklyn,attwifi,,"(40.6655, -73.9713)"
139,BK,Free,AT&T,McCarren Park,Field House and Restrooms,40.722,-73.9519,997582.806,202324.2653,Outdoor,,Brooklyn,attwifi,,"(40.722, -73.9519)"
1131,BX,Limited Free,Cablevision,Ferry Point,FERRY POINT PARK-BALCOM AV 2/P/W/O SAMPSON AV,40.817732,-73.82368,1033053.784,237248.079,Outdoor,3 free 10 min sessions,Bronx,GuestWiFi,,"(40.817732, -73.82368)"
1132,BX,Limited Free,Cablevision,Ferry Point,FERRY POINT-SCHLEY AV  2/P/W/O HUTCHINSON RVR PK,40.816357,-73.837449,1029243.584,236739.7464,Outdoor,3 free 10 min sessions,Bronx,GuestWiFi,,"(40.816357, -73.837449)"
1133,BX,Limited Free,Cablevision,Ferry Point,FERRY POINT- HUTCHINSON RVR PK 2 P/S/O SCHLEY AV,40.815346,-73.837671,1029182.817,236371.2894,Outdoor,3 free 10 min sessions,Bronx,GuestWiFi,,"(40.815346, -73.837671)"
1134,BX,Limited Free,Cablevision,Ferry Point,FERRY POINT-C/O SCHLEY AV /BRUSH AV,40.816412,-73.833998,1030198.77,236761.5761,Outdoor,3 free 10 min sessions,Bronx,GuestWiFi,,"(40.816412, -73.833998)"
1135,BX,Limited Free,Cablevision,Ferry Point,FERRY POINT- BALCOM AV 2/P/N/O SAMPSON AV,40.818752,-73.82456,1032809.464,237619.2121,Outdoor,3 free 10 min sessions,Bronx,GuestWiFi,,"(40.818752, -73.82456)"
1136,BX,Limited Free,Cablevision,VIDALIA,VIDALIA PARK-C/O E 180TH /DALY AV,40.844468,-73.88169,1016983.996,246961.9766,Outdoor,3 free 10 min sessions,Bronx,GuestWiFi,,"(40.844468, -73.88169)"
1137,BX,Limited Free,Cablevision,VIDALIA,VIDALIA PARK- DALY AV 1 P/S/O E 180TH ST,40.844141,-73.881968,1016907.239,246842.7344,Outdoor,3 free 10 min sessions,Bronx,GuestWiFi,,"(40.844141, -73.881968)"
143,BK,Free,AT&T,Herbert Von King Park,Near Ampitheater Stage,40.6896,-73.9465,999086.8374,190520.8431,Outdoor,,Brooklyn,attwifi,,"(40.6896, -73.9465)"
149,MN,Free,AT&T,Marcus Gravey Park,"Park Office Rooftop, Ampitheater",40.8048,-73.9443,999670.2625,232492.2762,Outdoor,,New York,attwifi,,"(40.8048, -73.9443)"
1138,BX,Limited Free,Cablevision,Haffen,HAFFEN PARK-HAMMERSLEY AV 1/P/W/O ELY AV,40.87322,-73.837825,1029101.153,257456.8516,Outdoor,3 free 10 min sessions,Bronx,GuestWiFi,,"(40.87322, -73.837825)"
1139,BX,Limited Free,Cablevision,Haffen,HAFFEN PARK-HAMMERSLEY AV 3/P/W/O ELY AV,40.872936,-73.838671,1028867.373,257352.9473,Outdoor,3 free 10 min sessions,Bronx,GuestWiFi,,"(40.872936, -73.838671)"
1140,BX,Limited Free,Cablevision,Haffen,HAFFEN PARK-HAMMERSLEY AV 5/P/W/O ELY AV,40.872676,-73.839478,1028644.362,257257.8094,Outdoor,3 free 10 min sessions,Bronx,GuestWiFi,,"(40.872676, -73.839478)"
1141,BX,Limited Free,Cablevision,Haffen,HAFFEN PARK- GUNTHER AV 2/P/S/O BURKE AV,40.87364,-73.840586,1028337.292,257608.4724,Outdoor,3 free 10 min sessions,Bronx,GuestWiFi,,"(40.87364, -73.840586)"
1142,BX,Limited Free,Cablevision,Haffen,HAFFEN PARK- C/O BURKE AV /BRUNER AV,40.874777,-73.839181,1028725.096,258023.4358,Outdoor,3 free 10 min sessions,Bronx,GuestWiFi,,"(40.874777, -73.839181)"
1143,BX,Limited Free,Cablevision,FOX PLAYGROUND,FOX PLAYGROUND-SPAN BTWH 725 & 737 SOUTHERN BL,40.81469,-73.898502,1012345.027,236106.9288,Outdoor,3 free 10 min sessions,Bronx,GuestWiFi,,"(40.81469, -73.898502)"
1144,BX,Limited Free,Cablevision,HORSESHOE,HORSESHOE PLAYGROUND-HALL PL 2/P/N/O E 165TH ST EAST SIDE,40.824255,-73.89791,1012504.833,239591.9917,Outdoor,3 free 10 min sessions,Bronx,GuestWiFi,,"(40.824255, -73.89791)"
1145,BK,Limited Free,Cablevision,HERBERT VON KING,Herbert Von King -inside bldg-Multi-purpose room,40.68992,-73.94647,999095.0861,190637.4334,Outdoor,3 free 10 min sessions,Brooklyn,GuestWiFi,,"(40.68992, -73.94647)"
1146,BK,Limited Free,Cablevision,KEY SPAN PARK,MCU PARK (AKA KEY SPAN)- W 17TH ST 1 P/N/O SURF AV,40.576111,-73.984734,988490.8353,149169.5849,Outdoor,3 free 10 min sessions,Brooklyn,GuestWiFi,,"(40.576111, -73.984734)"
1147,BK,Limited Free,Cablevision,KEY SPAN PARK,MCU PARK (AKA KEY SPAN)- W 16TH ST 1 P/N/O SURF AV,40.57585,-73.9835,988833.6536,149074.5585,Outdoor,3 free 10 min sessions,Brooklyn,GuestWiFi,,"(40.57585, -73.9835)"
165,MN,Free,AT&T,Thomas Jefferson Park,Near Park Building,40.7936,-73.9367,1001777.232,228413.1551,Outdoor,,New York,attwifi,,"(40.7936, -73.9367)"
166,MN,Free,AT&T,Holcombe Rucker Park,"Near Basketball Courts, Playground",40.8293,-73.9365,1001823.182,241419.9742,Outdoor,,New York,attwifi,,"(40.8293, -73.9365)"
1148,BK,Limited Free,Cablevision,KEY SPAN PARK,MCU PARK (AKA KEY SPAN)- W 19TH ST 1 P/N/O SURF AV,40.57564,-73.98567,988230.846,148997.9442,Outdoor,3 free 10 min sessions,Brooklyn,GuestWiFi,,"(40.57564, -73.98567)"
1149,BK,Limited Free,Cablevision,MANHATTAN BEACH,MANHATTAN BEACH  ORIENTAL BL  1/P/W/O GIRARD ST,40.577757,-73.945563,999372.0124,149773.5929,Outdoor,3 free 10 min sessions,Brooklyn,GuestWiFi,,"(40.577757, -73.945563)"
1150,BK,Limited Free,Cablevision,MANHATTAN BEACH,MANHATTAN BEACH  C/O ORIENTAL BL   /IRWIN ST,40.577977,-73.943546,999932.2616,149854.099,Outdoor,3 free 10 min sessions,Brooklyn,GuestWiFi,,"(40.577977, -73.943546)"
1151,BK,Limited Free,Cablevision,MANHATTAN BEACH,MANHATTAN BEACH  ROOF OF BEACH HOUSE EAST SIDE,40.576957,-73.943594,999919.1671,149482.4793,Outdoor,3 free 10 min sessions,Brooklyn,GuestWiFi,,"(40.576957, -73.943594)"
1152,BK,Limited Free,Cablevision,MANHATTAN BEACH,MANHATTAN BEACH  ROOF OF BEACH HOUSE WEST SIDE,40.576867,-73.944589,999642.7842,149449.5135,Outdoor,3 free 10 min sessions,Brooklyn,GuestWiFi,,"(40.576867, -73.944589)"
1153,BK,Limited Free,Cablevision,MANHATTAN BEACH,MANHATTAN BEACH  ORIENTAL BL  1/P/W/O KENSINGTON ST,40.578165,-73.941818,1000412.234,149922.9062,Outdoor,3 free 10 min sessions,Brooklyn,GuestWiFi,,"(40.578165, -73.941818)"
1154,BK,Limited Free,Cablevision,MANHATTAN BEACH,MANHATTAN BEACH  ORIENTAL BL  1/P/W/O LANGHAMST,40.578287,-73.940907,1000665.269,149967.5233,Outdoor,3 free 10 min sessions,Brooklyn,GuestWiFi,,"(40.578287, -73.940907)"
1155,BK,Limited Free,Cablevision,MANHATTAN BEACH,MANHATTAN BEACH  ORIENTAL BL  1/P/W/O NORFOLK ST,40.578433,-73.939072,1001174.971,150021.0639,Outdoor,3 free 10 min sessions,Brooklyn,GuestWiFi,,"(40.578433, -73.939072)"
1156,BK,Limited Free,Cablevision,MANHATTAN BEACH,MANHATTAN BEACH  ORIENTAL BL  1/P/W/O MCKENZIE ST,40.578376,-73.939919,1000939.7,150000.1348,Outdoor,3 free 10 min sessions,Brooklyn,GuestWiFi,,"(40.578376, -73.939919)"
174,QU,Free,AT&T,Astoria Park,Field House,40.7762,-73.9254,1004911.504,222076.2068,Outdoor,,Queens,attwifi,,"(40.7762, -73.9254)"
175,BX,Free,AT&T,Joyce Kilmer Park,Play Area,40.8297,-73.9219,1005863.499,241568.9746,Outdoor,,Bronx,attwifi,,"(40.8297, -73.9219)"
1157,BK,Limited Free,Cablevision,MANHATTAN BEACH,MANHATTAN BEACH  ORIENTAL BL  1/P/W/O JAFFRAY AV,40.578112,-73.94273,1000158.905,149903.4299,Outdoor,3 free 10 min sessions,Brooklyn,GuestWiFi,,"(40.578112, -73.94273)"
1158,BK,Limited Free,Cablevision,MANHATTAN BEACH,MANHATTAN BEACH  ORIENTAL BL  1/P/W/O HASTINGS ST,40.577873,-73.944603,999638.6634,149816.0219,Outdoor,3 free 10 min sessions,Brooklyn,GuestWiFi,,"(40.577873, -73.944603)"
1159,BK,Limited Free,Cablevision,MANHATTAN BEACH,MANHATTAN BEACH  ORIENTAL BL  1/P/E/O OCEAN AV,40.57622,-73.94552,999384.3057,149213.6334,Outdoor,3 free 10 min sessions,Brooklyn,GuestWiFi,,"(40.57622, -73.94552)"
1160,BK,Limited Free,Cablevision,MANHATTAN BEACH,MANHATTAN BEACH   OCEAN AV 4/P/S/O ORIENTAL BL,40.5761,-73.94698,998978.7507,149169.6653,Outdoor,3 free 10 min sessions,Brooklyn,GuestWiFi,,"(40.5761, -73.94698)"
1161,BK,Limited Free,Cablevision,MANHATTAN BEACH,MANHATTAN BEACH  ROOF OF BEACH HOUSE EAST SIDE,40.576957,-73.943594,999919.1671,149482.4793,Outdoor,3 free 10 min sessions,Brooklyn,GuestWiFi,,"(40.576957, -73.943594)"
1162,BK,Limited Free,Cablevision,MANHATTAN BEACH,MANHATTAN BEACH  ROOF OF BEACH HOUSE EAST SIDE,40.576957,-73.943594,999919.1671,149482.4793,Outdoor,3 free 10 min sessions,Brooklyn,GuestWiFi,,"(40.576957, -73.943594)"
1163,BK,Limited Free,Cablevision,MANHATTAN BEACH,MANHATTAN BEACH  ROOF OF BEACH HOUSE WEST SIDE,40.576867,-73.944589,999642.7842,149449.5135,Outdoor,3 free 10 min sessions,Brooklyn,GuestWiFi,,"(40.576867, -73.944589)"
1164,BK,Limited Free,Cablevision,MARINE PARK,MARINE PARK-BACK WALL OF NATURE CENTER,40.603993,-73.930671,1003501.284,159334.9511,Outdoor,3 free 10 min sessions,Brooklyn,GuestWiFi,,"(40.603993, -73.930671)"
1165,BK,Limited Free,Cablevision,MARINE PARK,MARINE PARK-LIBRARY OF NATURE CENTER,40.604137,-73.93043,1003568.163,159387.467,Outdoor,3 free 10 min sessions,Brooklyn,GuestWiFi,,"(40.604137, -73.93043)"
1166,BK,Limited Free,Cablevision,MARINE PARK,MARINE PARK-EXHIBIT HALL OF NATURE CENTER,40.604068,-73.93076,1003476.549,159362.2558,Outdoor,3 free 10 min sessions,Brooklyn,GuestWiFi,,"(40.604068, -73.93076)"
186,BX,Free,AT&T,Devoe Park,Near Park Building,40.8639,-73.9047,1010609.892,254034.031,Outdoor,,Bronx,attwifi,,"(40.8639, -73.9047)"
1167,BK,Limited Free,Cablevision,MARINE PARK,Marine Park AVE U 1/P/W/O E 33RD ST,40.605008,-73.930027,1003679.814,159704.8837,Outdoor,3 free 10 min sessions,Brooklyn,GuestWiFi,,"(40.605008, -73.930027)"
1168,BK,Limited Free,Cablevision,MARINE PARK,Marine Park C/O AVE U/ E 35TH ST,40.606029,-73.928466,1004112.963,160077.2104,Outdoor,3 free 10 min sessions,Brooklyn,GuestWiFi,,"(40.606029, -73.928466)"
1169,BK,Limited Free,Cablevision,MARINE PARK,Marine Park AVE U 4/P/W/O E. 33RD ST,40.604383,-73.931063,1003392.322,159476.9521,Outdoor,3 free 10 min sessions,Brooklyn,GuestWiFi,,"(40.604383, -73.931063)"
1170,BK,Limited Free,Cablevision,ST JOHNS REC CNTR,ST JOHNS PARK-ROOF MOUNTED  BACK LEFT SIDE,40.674013,-73.934698,1002364.049,184844.2691,Outdoor,3 free 10 min sessions,Brooklyn,GuestWiFi,,"(40.674013, -73.934698)"
1171,BK,Limited Free,Cablevision,ST JOHNS REC CNTR,ST JOHNS PARK-ROOF MOUNTED  BACK RIGHT SIDE,40.67404,-73.935053,1002265.569,184854.0329,Outdoor,3 free 10 min sessions,Brooklyn,GuestWiFi,,"(40.67404, -73.935053)"
1172,BK,Limited Free,Cablevision,ST JOHNS REC CNTR,ST JOHNS PARK-ROOF MOUNTED   RIGHT SIDE,40.673801,-73.935166,1002234.288,184766.9353,Outdoor,3 free 10 min sessions,Brooklyn,GuestWiFi,,"(40.673801, -73.935166)"
1173,BK,Limited Free,Cablevision,ST JOHNS REC CNTR,ST JOHNS PARK-ROOF MOUNTED   LEFT  SIDE FRONT,40.67343,-73.93463,1002383.07,184631.8798,Outdoor,3 free 10 min sessions,Brooklyn,GuestWiFi,,"(40.67343, -73.93463)"
1174,BK,Limited Free,Cablevision,ST JOHNS REC CNTR,ST JOHNS PARK-ROOF MOUNTED   LEFT  SIDE,40.673866,-73.934717,1002358.818,184790.7092,Outdoor,3 free 10 min sessions,Brooklyn,GuestWiFi,,"(40.673866, -73.934717)"
1175,BK,Limited Free,Cablevision,ST JOHNS REC CNTR,ST JOHNS PARK-GYM WALL,40.6738046,-73.934785,1002339.973,184768.3254,Outdoor,3 free 10 min sessions,Brooklyn,GuestWiFi,,"(40.6738046, -73.934785)"
1176,BK,Limited Free,Cablevision,ST JOHNS REC CNTR,ST JOHNS PARK-ACTIVITY ROOM,40.673781,-73.935109,1002250.105,184759.6604,Outdoor,3 free 10 min sessions,Brooklyn,GuestWiFi,,"(40.673781, -73.935109)"
1177,BK,Limited Free,Cablevision,ST JOHNS REC CNTR,ST JOHNS PARK-MUSIC ROOM,40.673755,-73.935014,1002276.464,184750.2073,Outdoor,3 free 10 min sessions,Brooklyn,GuestWiFi,,"(40.673755, -73.935014)"
213,QU,Free,AT&T,Flushing Meadows Corona Park,Near Discovery Center,40.7445,-73.8507,1025620.375,210553.3158,Outdoor,,Queens,attwifi,,"(40.7445, -73.8507)"
214,SI,Free,AT&T,Mcdonald Playground,Near Park Building,40.7224,-73.8471,1026631.972,202503.3257,Outdoor,,Staten Island,attwifi,,"(40.7224, -73.8471)"
1178,BK,Limited Free,Cablevision,ST JOHNS REC CNTR,ST JOHNS PARK-DANCE ROOM,40.673752,-73.934892,1002310.306,184749.1394,Outdoor,3 free 10 min sessions,Brooklyn,GuestWiFi,,"(40.673752, -73.934892)"
1179,BK,Limited Free,Cablevision,ST JOHNS REC CNTR,ST JOHNS PARK-POOL AREA SIDE WALL,40.673727,-73.934867,1002317.248,184740.0364,Outdoor,3 free 10 min sessions,Brooklyn,GuestWiFi,,"(40.673727, -73.934867)"
1180,BK,Limited Free,Cablevision,ST JOHNS REC CNTR,ST JOHNS PARK-LOBBY,40.673695,-73.934935,1002298.394,184728.3639,Outdoor,3 free 10 min sessions,Brooklyn,GuestWiFi,,"(40.673695, -73.934935)"
1181,BK,Limited Free,Cablevision,WINGATE PARK,WINGATE PARK-HAWTHRONE ST 1 P/W/BROOKLYN AV,40.65831,-73.94406,999770.7882,179121.4272,Outdoor,3 free 10 min sessions,Brooklyn,GuestWiFi,,"(40.65831, -73.94406)"
1182,BK,Limited Free,Cablevision,WINGATE PARK,WINGATE PARK-HAWTHRONE ST 1 P/W/BROOKLYN AV,40.65831,-73.94406,999770.7882,179121.4272,Outdoor,3 free 10 min sessions,Brooklyn,GuestWiFi,,"(40.65831, -73.94406)"
1183,BK,Limited Free,Cablevision,WINGATE PARK,WINGATE PARK-HAWTHRONE ST 1 P/N/O/BROOKLYN AV,40.658,-73.94723,998891.3263,179007.9399,Outdoor,3 free 10 min sessions,Brooklyn,GuestWiFi,,"(40.658, -73.94723)"
1184,BK,Limited Free,Cablevision,WINGATE PARK,WINGATE PARK-HAWTHRONE ST 1 P/N/O/BROOKLYN AV,40.658,-73.94723,998891.3263,179007.9399,Outdoor,3 free 10 min sessions,Brooklyn,GuestWiFi,,"(40.658, -73.94723)"
1185,BK,Limited Free,Cablevision,WINGATE PARK,WINGATE PARK-HAWTHRONE ST 1 P/S/O BROOKLYN AV,40.65743,-73.94716,998910.8736,178800.2848,Outdoor,3 free 10 min sessions,Brooklyn,GuestWiFi,,"(40.65743, -73.94716)"
1186,BK,Limited Free,Cablevision,WINGATE PARK,WINGATE PARK-HAWTHRONE ST 1 P/S/O/BROOKLYN AV,40.65743,-73.94716,998910.8736,178800.2848,Outdoor,3 free 10 min sessions,Brooklyn,GuestWiFi,,"(40.65743, -73.94716)"
1187,BK,Limited Free,Cablevision,BROWNSVILLE REC,BROWNSVILLE PARK-C/O CHRISTOPHER ST & HEGEMAN AV,40.6571,-73.9027,1011246.78,178690.6282,Outdoor,3 free 10 min sessions,Brooklyn,GuestWiFi,,"(40.6571, -73.9027)"
569,MN,Free,NYPL,Battery Park City Library,175 NORTH END AVENUE,40.71548815,-74.01621384,979755.2586,199948.5559,Library,,New York,NYPL,,"(40.71548815, -74.01621384)"
570,BK,Free,BPL,Highlawn - Brooklyn Public Library,1664 WEST 13 STREET,40.60569034,-73.98623163,988073.1068,159946.0191,Library,,Brooklyn,BPLUNWIRED,,"(40.60569034, -73.98623163)"
571,BK,Free,BPL,Mapleton - Brooklyn Public Library,1702 60 STREET,40.62306453,-73.98944677,987179.586,166275.7672,Library,,Brooklyn,BPLUNWIRED,,"(40.62306453, -73.98944677)"
572,QU,Free,QPL,Queens Central Library,89-11 MERRICK BOULEVARD,40.70787313,-73.79467804,1041175.068,197240.4707,Library,,Jamaica,QBPL_WIRELESS,,"(40.70787313, -73.79467804)"
573,QU,Free,QPL,Middle Village,72-31 METROPOLITAN AVENUE,40.71294357,-73.88086427,1017277.629,199043.5301,Library,,Middle Village,QBPL_WIRELESS,,"(40.71294357, -73.88086427)"
574,QU,Free,QPL,Queensboro Hill,60-05 MAIN STREET,40.74293095,-73.82516996,1032695.768,209994.749,Library,,Flushing,QBPL_WIRELESS,,"(40.74293095, -73.82516996)"
575,MN,Free,NYPL,125th Street,224 EAST 125 STREET,40.80301816,-73.93484756,1002287.604,231844.895,Library,Temporary Closing,New York,NYPL,,"(40.80301816, -73.93484756)"
576,BK,Free,BPL,Brooklyn Central Library,GRAND ARMY PLAZA,40.67234353,-73.96822438,993064.4243,184230.8793,Library,,Brooklyn,BPLUNWIRED,,"(40.67234353, -73.96822438)"
577,BK,Free,BPL,Sunset Park - Brooklyn Public Library,5108 4 AVENUE,40.64591212,-74.01363,980467.5958,174599.8769,Library,,Brooklyn,BPLUNWIRED,,"(40.64591212, -74.01363)"
578,MN,Free,NYPL,Aguilar,174 EAST 110 STREET,40.79421561,-73.94345108,999907.7712,228636.1655,Library,,New York,NYPL,,"(40.79421561, -73.94345108)"
579,BK,Free,BPL,Clinton Hill - Brooklyn Public Library,380 WASHINGTON AVENUE,40.68737909,-73.96603067,993670.8279,189708.9979,Library,,Brooklyn,BPLUNWIRED,,"(40.68737909, -73.96603067)"
893,MN,Free,Manhattan Down Alliance,1,"23 Fulton Street, New York, NY 10038, USA",40.7071991,-74.0037003,983224.0887,196928.2079,Outdoor,,New York,#DwtwnAllianceFreeWiFi,,"(40.7071991, -74.0037003)"
894,MN,Free,Manhattan Down Alliance,2,"19 Fulton Street, New York, NY 10038, USA",40.7070999,-74.0036011,983251.5902,196892.0653,Outdoor,,New York,#DwtwnAllianceFreeWiFi,,"(40.7070999, -74.0036011)"
895,MN,Free,Manhattan Down Alliance,3,"201 Front Street, New York, NY 10038, USA",40.7070007,-74.0035019,983279.0922,196855.9226,Outdoor,,New York,#DwtwnAllianceFreeWiFi,,"(40.7070007, -74.0035019)"
896,MN,Free,Manhattan Down Alliance,4,"11 Fulton Street, New York, NY 10038, USA",40.7066002,-74.0031967,983363.7042,196710.0053,Outdoor,,New York,#DwtwnAllianceFreeWiFi,,"(40.7066002, -74.0031967)"
897,MN,Free,Manhattan Down Alliance,5,"16 Bond Street, New York, NY 10038, USA",40.705101,-74.0026016,983528.6815,196163.7964,Outdoor,,New York,#DwtwnAllianceFreeWiFi,,"(40.705101, -74.0026016)"
898,MN,Free,Manhattan Down Alliance,6,"East River Ferry, John Street, New York, NY 10006, USA",40.7047997,-74.0022964,983613.2982,196054.0213,Outdoor,,New York,#DwtwnAllianceFreeWiFi,,"(40.7047997, -74.0022964)"
899,MN,Free,Manhattan Down Alliance,7,"135 John Street, New York, NY 10038, USA",40.7070999,-74.0049973,982864.4919,196892.0843,Outdoor,,New York,#DwtwnAllianceFreeWiFi,,"(40.7070999, -74.0049973)"
900,MN,Free,Manhattan Down Alliance,8,"182-188 Front Street, New York, NY 10038, USA",40.706501,-74.0045013,983001.9976,196673.8797,Outdoor,,New York,#DwtwnAllianceFreeWiFi,,"(40.706501, -74.0045013)"
901,MN,Free,Manhattan Down Alliance,9,"125-133 Maiden Lane, New York, NY 10038, USA",40.7062988,-74.0061035,982557.7763,196600.2391,Outdoor,,New York,#DwtwnAllianceFreeWiFi,,"(40.7062988, -74.0061035)"
371,MN,Free,Harlem,,203 West 117 St. St. Nicholas Side,40.80427859,-73.95253301,997391.0997,232300.9669,Outdoor,,New York,Harlem Wi-Fi,,"(40.80427859, -73.95253301)"
903,MN,Free,Manhattan Down Alliance,11,"110 Pearl Street, New York, NY 10005, USA",40.7047005,-74.0089035,981781.4042,196017.9968,Outdoor,,New York,#DwtwnAllianceFreeWiFi,,"(40.7047005, -74.0089035)"
904,MN,Free,Manhattan Down Alliance,12,"90 Water Street, New York, NY 10005, USA",40.7047005,-74.0083008,981948.5095,196017.9804,Outdoor,,New York,#DwtwnAllianceFreeWiFi,,"(40.7047005, -74.0083008)"
331,SI,Free,AT&T,South Beach Wetlands,Near South Fin Grill,40.588219,-74.067453,965515.2186,153587.6758,Outdoor,,Staten Island,attwifi,,"(40.588219, -74.067453)"
332,MN,Free,Chelsea,,19th between 9th and 10th r,40.74457031,-74.00458854,982978.5373,210543.7092,Outdoor,,New York,CICFreeWiFi,,"(40.74457031, -74.00458854)"
333,MN,Free,Chelsea,,10th between 15th and 16th,40.74319278,-74.00738776,982202.8436,210041.8831,Outdoor,,New York,CICFreeWiFi,,"(40.74319278, -74.00738776)"
334,MN,Free,Chelsea,,16th near 9th r,40.74259125,-74.00506496,982846.4798,209822.6841,Outdoor,,New York,CICFreeWiFi,,"(40.74259125, -74.00506496)"
335,MN,Free,Chelsea,,16th between 8th and 9th,40.74183935,-74.00325716,983347.4201,209548.7161,Outdoor,,New York,CICFreeWiFi,,"(40.74183935, -74.00325716)"
336,MN,Free,Chelsea,,10th and 15th,40.74275383,-74.00767207,982124.0459,209881.9674,Outdoor,,New York,CICFreeWiFi,,"(40.74275383, -74.00767207)"
337,MN,Free,Chelsea,,9th Ave and 12th St,40.73948602,-74.00626659,982513.4228,208691.3701,Outdoor,,New York,CICFreeWiFi,,"(40.73948602, -74.00626659)"
338,MN,Free,Chelsea,,"10th between, 17th and 18th",40.74440799,-74.00663674,982410.9853,210484.6089,Outdoor,,New York,CICFreeWiFi,,"(40.74440799, -74.00663674)"
339,MN,Free,Chelsea,,9th between 16th and 17th,40.74260751,-74.0042603,983069.4551,209828.5955,Outdoor,,New York,CICFreeWiFi,,"(40.74260751, -74.0042603)"
340,MN,Free,Chelsea,,17th near 9th,40.74247745,-74.00296211,983429.1863,209781.196,Outdoor,,New York,CICFreeWiFi,,"(40.74247745, -74.00296211)"
341,MN,Free,Chelsea,,8th and 18th,40.74229862,-74.00070906,984053.5168,209716.0285,Outdoor,,New York,CICFreeWiFi,,"(40.74229862, -74.00070906)"
342,MN,Free,Chelsea,,10th between 16th and 17th,40.74369675,-74.00701761,982305.4261,210225.4881,Outdoor,,New York,CICFreeWiFi,,"(40.74369675, -74.00701761)"
343,MN,Free,Chelsea,,8th and 17th,40.74155484,-74.00111139,983942.0255,209445.0461,Outdoor,,New York,CICFreeWiFi,,"(40.74155484, -74.00111139)"
344,MN,Free,Chelsea,,17th near 8th,40.74190031,-74.00185704,983735.4013,209570.9165,Outdoor,,New York,CICFreeWiFi,,"(40.74190031, -74.00185704)"
345,MN,Free,Chelsea,,9th and 19th SW,40.74398938,-74.00341272,983304.3414,210332.042,Outdoor,,New York,CICFreeWiFi,,"(40.74398938, -74.00341272)"
1188,BK,Limited Free,Cablevision,BROWNSVILLE REC,BROWNSVILLE PARK-HEGEMAN AV 1/P/S/O CHRISTOPHER ST,40.657028,-73.903152,1011121.397,178664.2576,Outdoor,3 free 10 min sessions,Brooklyn,GuestWiFi,,"(40.657028, -73.903152)"
1189,BK,Limited Free,Cablevision,BROWNSVILLE REC,BROWNSVILLE PARK-C/O HEGEMAN AV & SACKMAN ST,40.657213,-73.901808,1011494.227,178732.0734,Outdoor,3 free 10 min sessions,Brooklyn,GuestWiFi,,"(40.657213, -73.901808)"
346,MN,Free,Chelsea,,14thst and 9thav r,40.74099801,-74.0054512,982739.4157,209242.2213,Outdoor,,New York,CICFreeWiFi,,"(40.74099801, -74.0054512)"
347,MN,Free,Chelsea,,18th between 9th and 10th,40.74412756,-74.00504351,982852.4578,210382.409,Outdoor,,New York,CICFreeWiFi,,"(40.74412756, -74.00504351)"
348,MN,Free,Chelsea,,9th av and 13th st,40.74025828,-74.00600374,982586.2838,208972.7232,Outdoor,,New York,CICFreeWiFi,,"(40.74025828, -74.00600374)"
349,MN,Free,Chelsea,,17th between 10th and 9th,40.74340615,-74.00521517,982804.8753,210119.5795,Outdoor,,New York,CICFreeWiFi,,"(40.74340615, -74.00521517)"
350,MN,Free,Chelsea,,18th between 8th and 9th,40.74277009,-74.00171757,983774.057,209887.8021,Outdoor,,New York,CICFreeWiFi,,"(40.74277009, -74.00171757)"
351,MN,Free,Chelsea,,15th between 8th and 9th,40.74094924,-74.00340199,983307.2716,209224.4228,Outdoor,,New York,CICFreeWiFi,,"(40.74094924, -74.00340199)"
352,MN,Free,Chelsea,,16th east of 10th Av,40.74324155,-74.00680304,982364.8722,210059.639,Outdoor,,New York,CICFreeWiFi,,"(40.74324155, -74.00680304)"
353,MN,Free,Chelsea,,9th and 18th,40.74343663,-74.00364876,983238.9285,210130.6631,Outdoor,,New York,CICFreeWiFi,,"(40.74343663, -74.00364876)"
354,MN,Free,Chelsea,,8th and 15 th SE pole,40.74027454,-74.00197506,983702.6848,208978.5955,Outdoor,,New York,CICFreeWiFi,,"(40.74027454, -74.00197506)"
355,MN,Free,Chelsea,,loading dock,40.7418464,-74.00404464,983129.204,209551.2935,Outdoor,,New York,CICFreeWiFi,,"(40.7418464, -74.00404464)"
356,MN,Free,Chelsea,,85 10th lobby unit,40.74330658,-74.00802612,982025.9556,210083.3597,Outdoor,,New York,CICFreeWiFi,,"(40.74330658, -74.00802612)"
357,MN,Free,Chelsea,,85 10TH Ave,40.74311962,-74.00830507,981948.6519,210015.2523,Outdoor,,New York,CICFreeWiFi,,"(40.74311962, -74.00830507)"
358,MN,Free,Chelsea,,9th and 15th,40.74158329,-74.00471091,982944.5689,209455.4447,Outdoor,,New York,CICFreeWiFi,,"(40.74158329, -74.00471091)"
359,MN,Free,Chelsea,,8th and 16th,40.74104678,-74.0018034,983750.2602,209259.949,Outdoor,,New York,CICFreeWiFi,,"(40.74104678, -74.0018034)"
360,MN,Free,Chelsea,,17th Caledonia,40.74363172,-74.00591791,982610.1519,210201.7735,Outdoor,,New York,CICFreeWiFi,,"(40.74363172, -74.00591791)"
361,MN,Free,Chelsea,,9th and 16th,40.74210214,-74.00421108,983083.087,209644.4731,Outdoor,,New York,CICFreeWiFi,,"(40.74210214, -74.00421108)"
362,MN,Free,Harlem,,124w114,40.80152689,-73.95282197,997311.6409,231298.3803,Outdoor,,New York,Harlem Wi-Fi,,"(40.80152689, -73.95282197)"
363,MN,Free,Harlem,,1330 5th Avenue,40.7978934,-73.9487856,998429.9182,229975.2022,Outdoor,,New York,Harlem Wi-Fi,,"(40.7978934, -73.9487856)"
364,MN,Free,Harlem,,1641 Madison Ave,40.79591622,-73.94756162,998769.2367,229255.0458,Outdoor,,New York,Harlem Wi-Fi,,"(40.79591622, -73.94756162)"
365,MN,Free,Harlem,,17 East 124th Street,40.80551147,-73.94198917,1000309.832,232751.9036,Outdoor,,New York,Harlem Wi-Fi,,"(40.80551147, -73.94198917)"
366,MN,Free,Harlem,,1735 Madison Ave,40.79872757,-73.94559846,999312.1644,230279.6501,Outdoor,,New York,Harlem Wi-Fi,,"(40.79872757, -73.94559846)"
367,MN,Free,Harlem,,1780 Madison Ave,40.8004791,-73.9446963,999561.5429,230917.9513,Outdoor,,New York,Harlem Wi-Fi,,"(40.8004791, -73.9446963)"
368,MN,Free,Harlem,,182 St. Nicholas Street,40.806016,-73.9524,997427.578,232933.9856,Outdoor,,New York,Harlem Wi-Fi,,"(40.806016, -73.9524)"
369,MN,Free,Harlem,,1851 Adam Clayton Powell Jr Blvd,40.80113678,-73.95377778,997047.0928,231156.1109,Outdoor,,New York,Harlem Wi-Fi,,"(40.80113678, -73.95377778)"
370,MN,Free,Harlem,,203 West 117 St. Adam Clayton Side,40.80416896,-73.95213336,997501.7632,232261.0828,Outdoor,,New York,Harlem Wi-Fi,,"(40.80416896, -73.95213336)"
372,MN,Free,Harlem,,2037 7Th Avenue,40.80685816,-73.94972563,998167.7746,233241.2271,Outdoor,,New York,Harlem Wi-Fi,,"(40.80685816, -73.94972563)"
373,MN,Free,Harlem,,210 west 131st St,40.81251814,-73.94606173,999180.8048,235303.9625,Outdoor,,New York,Harlem Wi-Fi,,"(40.81251814, -73.94606173)"
374,MN,Free,Harlem,,2102 Madison Ave,40.81064642,-73.93724866,1001620.864,234623.6535,Outdoor,,New York,Harlem Wi-Fi,,"(40.81064642, -73.93724866)"
375,MN,Free,Harlem,,211 129Th Street,40.81218623,-73.94795532,998656.7081,235182.7183,Outdoor,,New York,Harlem Wi-Fi,,"(40.81218623, -73.94795532)"
376,MN,Free,Harlem,,2117 Frederick Douglas Blvd.,40.80348996,-73.95609391,996405.4186,232013.1246,Outdoor,,New York,Harlem Wi-Fi,,"(40.80348996, -73.95609391)"
377,MN,Free,Harlem,,2201 5th Ave,40.81218115,-73.93783405,1001458.418,235182.6957,Outdoor,,New York,Harlem Wi-Fi,,"(40.81218115, -73.93783405)"
378,MN,Free,Harlem,,23 West 124th Street,40.80629717,-73.94391242,999777.2117,233037.8158,Outdoor,,New York,Harlem Wi-Fi,,"(40.80629717, -73.94391242)"
379,MN,Free,Harlem,,2321ACP,40.8159733,-73.943071,1000007.859,236563.3248,Outdoor,,New York,Harlem Wi-Fi,,"(40.8159733, -73.943071)"
380,MN,Free,Harlem,,2374 Frederick Douglas blvd,40.8116079,-73.9500995,998063.2876,234971.6672,Outdoor,,New York,Harlem Wi-Fi,,"(40.8116079, -73.9500995)"
381,MN,Free,Harlem,,2411FDB,40.81287072,-73.94934647,998271.4723,235431.8756,Outdoor,,New York,Harlem Wi-Fi,,"(40.81287072, -73.94934647)"
382,MN,Free,Harlem,,245W129th,40.8115678,-73.9465374,999049.3447,234957.6391,Outdoor,,New York,Harlem Wi-Fi,,"(40.8115678, -73.9465374)"
383,MN,Free,Harlem,,2491 Frederick Douglas Blvd.,40.8153473,-73.94757621,998760.9598,236334.4723,Outdoor,,New York,Harlem Wi-Fi,,"(40.8153473, -73.94757621)"
384,MN,Free,Harlem,,35E125 unit 1,40.80597071,-73.94056642,1000703.595,232919.4853,Outdoor,,New York,Harlem Wi-Fi,,"(40.80597071, -73.94056642)"
385,MN,Free,Harlem,,35E125 unit 2,40.80597412,-73.94124448,1000515.88,232920.6015,Outdoor,,New York,Harlem Wi-Fi,,"(40.80597412, -73.94124448)"
386,MN,Free,Harlem,,3e 118th st,40.80184633,-73.94513726,999439.1448,231416.0044,Outdoor,,New York,Harlem Wi-Fi,,"(40.80184633, -73.94513726)"
387,MN,Free,Harlem,,42 West 120th Street,40.80379824,-73.94619402,999146.1375,232126.9712,Outdoor,,New York,Harlem Wi-Fi,,"(40.80379824, -73.94619402)"
388,MN,Free,Harlem,,50 Lenox Ave. 112th St. Side,40.7994353,-73.95099431,997818.0696,230536.62,Outdoor,,New York,Harlem Wi-Fi,,"(40.7994353, -73.95099431)"
389,MN,Free,Harlem,,50 Lenox Ave,40.79970332,-73.95099431,997818.0148,230634.2678,Outdoor,,New York,Harlem Wi-Fi,,"(40.79970332, -73.95099431)"
390,MN,Free,Harlem,,9 East 110th street,40.79726984,-73.95015178,998051.789,229747.8011,Outdoor,,New York,Harlem Wi-Fi,,"(40.79726984, -73.95015178)"
391,MN,Free,Harlem,,100 West 121st Street,40.805199,-73.947736,998718.9366,232637.0597,Outdoor,,New York,Harlem Wi-Fi,,"(40.805199, -73.947736)"
392,MN,Free,Harlem,,Madison Avenue & 111th,40.79655364,-73.94747365,998793.4565,229487.2967,Outdoor,,New York,Harlem Wi-Fi,,"(40.79655364, -73.94747365)"
393,MN,Free,Harlem,,Madison Avenue WS @ ~113th (in front of stores),40.79789269,-73.94625878,999129.527,229975.3629,Outdoor,,New York,Harlem Wi-Fi,,"(40.79789269, -73.94625878)"
394,MN,Free,Harlem,,Madison Avenue ES - 1s of 116th,40.79972078,-73.94493216,999496.4147,230641.6267,Outdoor,,New York,Harlem Wi-Fi,,"(40.79972078, -73.94493216)"
395,MN,Free,Harlem,,Madison Avenue & 112th,40.79733506,-73.9469239,998945.4972,229772.0878,Outdoor,,New York,Harlem Wi-Fi,,"(40.79733506, -73.9469239)"
396,MN,Free,Harlem,,Madison Avenue & 115th,40.80111217,-73.9437958,999810.7097,231148.7612,Outdoor,,New York,Harlem Wi-Fi,,"(40.80111217, -73.9437958)"
397,MN,Free,Harlem,,Madison Avenue & 119th,40.80183166,-73.94346235,999902.8601,231410.9536,Outdoor,,New York,Harlem Wi-Fi,,"(40.80183166, -73.94346235)"
398,MN,Free,Harlem,,Madison Avenue & 120th (North West Corner),40.80261667,-73.94302601,1000023.478,231697.0403,Outdoor,,New York,Harlem Wi-Fi,,"(40.80261667, -73.94302601)"
399,MN,Free,Harlem,,112th between Lenox Avenue & 5th Avenue,40.79880613,-73.94997525,998100.3453,230307.5516,Outdoor,,New York,Harlem Wi-Fi,,"(40.79880613, -73.94997525)"
400,MN,Free,Harlem,,5th Avenue & 119th,40.80268449,-73.94515788,999433.2455,231721.3703,Outdoor,,New York,Harlem Wi-Fi,,"(40.80268449, -73.94515788)"
401,MN,Free,Harlem,,117th & 5th Avenue,40.80134985,-73.94575617,999267.9066,231235.0126,Outdoor,,New York,Harlem Wi-Fi,,"(40.80134985, -73.94575617)"
402,MN,Free,Harlem,,5th Avenue & 116th,40.80059215,-73.94668534,999010.8251,230958.798,Outdoor,,New York,Harlem Wi-Fi,,"(40.80059215, -73.94668534)"
403,MN,Free,Harlem,,5th Avenue (in front of firehouse) between 112th & 115th,40.79915104,-73.94749939,998785.76,230433.614,Outdoor,,New York,Harlem Wi-Fi,,"(40.79915104, -73.94749939)"
404,MN,Free,Harlem,,110th ss between Madison Avenue & 5th Avenue,40.79652765,-73.94849181,998511.5528,229477.6599,Outdoor,,New York,Harlem Wi-Fi,,"(40.79652765, -73.94849181)"
405,MN,Free,Harlem,,111th & Saint Nicholas,40.79916268,-73.95235598,997441.1222,230437.0867,Outdoor,,New York,Harlem Wi-Fi,,"(40.79916268, -73.95235598)"
406,MN,Free,Harlem,,Lenox Avenue & 115th,40.80105313,-73.95004177,998081.4612,231126.2015,Outdoor,,New York,Harlem Wi-Fi,,"(40.80105313, -73.95004177)"
407,MN,Free,Harlem,,Lenox Avenue between 113th & 114th,40.80019373,-73.95075041,997885.4429,230812.9807,Outdoor,,New York,Harlem Wi-Fi,,"(40.80019373, -73.95075041)"
408,MN,Free,Harlem,,111th & 7th Avenue,40.79992761,-73.95454949,996833.6641,230715.4553,Outdoor,,New York,Harlem Wi-Fi,,"(40.79992761, -73.95454949)"
409,MN,Free,Harlem,,111th between 5th Avenue & Lenox Avenue,40.79810224,-73.95034933,997996.9193,230051.0393,Outdoor,,New York,Harlem Wi-Fi,,"(40.79810224, -73.95034933)"
410,MN,Free,Harlem,,113th & Saint Nicholas,40.80054594,-73.9524267,997421.2683,230941.046,Outdoor,,New York,Harlem Wi-Fi,,"(40.80054594, -73.9524267)"
411,MN,Free,Harlem,,115th & Saint Nicholas,40.80229788,-73.95240498,997426.9362,231579.3433,Outdoor,,New York,Harlem Wi-Fi,,"(40.80229788, -73.95240498)"
412,MN,Free,Harlem,,112th & 7th Avenue,40.80065247,-73.95461583,996815.1599,230979.5365,Outdoor,,New York,Harlem Wi-Fi,,"(40.80065247, -73.95461583)"
413,MN,Free,Harlem,,114th @ 7th Avenue,40.8019512,-73.9535543,997108.8069,231452.8646,Outdoor,,New York,Harlem Wi-Fi,,"(40.8019512, -73.9535543)"
414,MN,Free,Harlem,,116th intersection of Saint Nicholas & 7th Avenue,40.80351121,-73.95294213,997277.9841,232021.3201,Outdoor,,New York,Harlem Wi-Fi,,"(40.80351121, -73.95294213)"
415,MN,Free,Harlem,,118th & Saint Nicholas,40.80530219,-73.95305443,997246.5455,232673.8208,Outdoor,,New York,Harlem Wi-Fi,,"(40.80530219, -73.95305443)"
416,MN,Free,Harlem,,120th & Saint Nicholas,40.80641205,-73.95266211,997354.9374,233078.2422,Outdoor,,New York,Harlem Wi-Fi,,"(40.80641205, -73.95266211)"
417,MN,Free,Harlem,,120 & 7th Avenue  NEC,40.80558439,-73.95053565,997943.7918,232777.022,Outdoor,,New York,Harlem Wi-Fi,,"(40.80558439, -73.95053565)"
418,MN,Free,Harlem,,119 & 7th Avenue,40.8049251,-73.95097375,997822.6434,232536.7502,Outdoor,,New York,Harlem Wi-Fi,,"(40.8049251, -73.95097375)"
419,MN,Free,Harlem,,119th & Lenox Avenue,40.80381169,-73.94786239,998684.2484,232131.5939,Outdoor,,New York,Harlem Wi-Fi,,"(40.80381169, -73.94786239)"
420,MN,Free,Harlem,,113th between 7th Avenue & 8th Avenue (FDB),40.80185553,-73.9556694,996523.2441,231417.7068,Outdoor,,New York,Harlem Wi-Fi,,"(40.80185553, -73.9556694)"
421,MN,Free,Harlem,,120th & 8th Avenue (FDB),40.80689982,-73.95362556,997088.1239,233255.8098,Outdoor,,New York,Harlem Wi-Fi,,"(40.80689982, -73.95362556)"
422,MN,Free,Harlem,,118th & 8th Avenue (FDB),40.80548231,-73.95437947,996879.6817,232739.2527,Outdoor,,New York,Harlem Wi-Fi,,"(40.80548231, -73.95437947)"
423,MN,Free,Harlem,,116th & 8th Avenue (FDB),40.80426892,-73.95538759,996600.8175,232297.0256,Outdoor,,New York,Harlem Wi-Fi,,"(40.80426892, -73.95538759)"
424,MN,Free,Harlem,,113th & 8th Avenue (FDB),40.80243865,-73.95662391,996258.8762,231630.0247,Outdoor,,New York,Harlem Wi-Fi,,"(40.80243865, -73.95662391)"
425,MN,Free,Harlem,,111th & 8th Avenue (FDB),40.8012938,-73.95772219,995955.015,231212.7656,Outdoor,,New York,Harlem Wi-Fi,,"(40.8012938, -73.95772219)"
426,MN,Free,Harlem,,Madison @ 121 Ã¢ÂÂ west side,40.8031737,-73.9425249,1000162.079,231900.0753,Outdoor,,New York,Harlem Wi-Fi,,"(40.8031737, -73.9425249)"
427,MN,Free,Harlem,,Madison @ 123rd West side,40.80424184,-73.94177985,1000368.088,232289.3741,Outdoor,,New York,Harlem Wi-Fi,,"(40.80424184, -73.94177985)"
428,MN,Free,Harlem,,Madison & 124th SW corner,40.80495761,-73.94137377,1000480.337,232550.2285,Outdoor,,New York,Harlem Wi-Fi,,"(40.80495761, -73.94137377)"
429,MN,Free,Harlem,,124th st @ 5th Avenue Ave (south side),40.80562354,-73.94281154,1000082.14,232792.585,Outdoor,,New York,Harlem Wi-Fi,,"(40.80562354, -73.94281154)"
430,MN,Free,Harlem,,124th st South Side 2nd pole East of 5th ave,40.80656922,-73.94497715,999482.3914,233136.7464,Outdoor,,New York,Harlem Wi-Fi,,"(40.80656922, -73.94497715)"
431,MN,Free,Harlem,,Fredrick Douglas blvd NWC 124th st,40.80957631,-73.95168943,997623.5756,234231.2399,Outdoor,,New York,Harlem Wi-Fi,,"(40.80957631, -73.95168943)"
432,MN,Free,Harlem,,7th Avenue av NWC 124 st,40.8083376,-73.94898716,998371.895,233780.357,Outdoor,,New York,Harlem Wi-Fi,,"(40.8083376, -73.94898716)"
433,MN,Free,Harlem,,Pole across from 112w124th,40.80726323,-73.94663744,999022.6069,233389.3131,Outdoor,,New York,Harlem Wi-Fi,,"(40.80726323, -73.94663744)"
434,MN,Free,Harlem,,121thst Street NE corner (just off Lenox Avenue),40.80508324,-73.9468782,998956.4394,232595.0286,Outdoor,,New York,Harlem Wi-Fi,,"(40.80508324, -73.9468782)"
435,MN,Free,Harlem,,121th st NS2E ACP blvd,40.80617162,-73.94945333,998243.3011,232991.14,Outdoor,,New York,Harlem Wi-Fi,,"(40.80617162, -73.94945333)"
436,MN,Free,Harlem,,Fredrick Douglas blvd ES1N 121th st,40.80783947,-73.95270116,997343.8452,233598.296,Outdoor,,New York,Harlem Wi-Fi,,"(40.80783947, -73.95270116)"
437,MN,Free,Harlem,,Fredrick Douglas blvd ES1N 122th st,40.80842432,-73.95222888,997474.4722,233811.4491,Outdoor,,New York,Harlem Wi-Fi,,"(40.80842432, -73.95222888)"
438,MN,Free,Harlem,,124th st SS2E Fredrick Douglas blvd,40.80886858,-73.95046878,997961.6297,233973.5764,Outdoor,,New York,Harlem Wi-Fi,,"(40.80886858, -73.95046878)"
439,MN,Free,Harlem,,8th Ave SEC @ 126th St.,40.81060062,-73.95057685,997931.3548,234604.605,Outdoor,,New York,Harlem Wi-Fi,,"(40.81060062, -73.95057685)"
440,MN,Free,Harlem,,126th St NS2E of 8th Ave,40.8101782,-73.9489244,998388.8789,234450.9636,Outdoor,,New York,Harlem Wi-Fi,,"(40.8101782, -73.9489244)"
441,MN,Free,Harlem,,8th Ave SEC @ 127th St.,40.81126633,-73.95012624,998055.9553,234847.2157,Outdoor,,New York,Harlem Wi-Fi,,"(40.81126633, -73.95012624)"
442,MN,Free,Harlem,,126th St NS2E of Lenox Avenue Ave,40.80795333,-73.9437531,999820.9311,233641.2404,Outdoor,,New York,Harlem Wi-Fi,,"(40.80795333, -73.9437531)"
443,MN,Free,Harlem,,Madison Ave NWC @ 126th St.,40.80650425,-73.94019477,1000806.349,233113.9443,Outdoor,,New York,Harlem Wi-Fi,,"(40.80650425, -73.94019477)"
444,MN,Free,Harlem,,Madison Ave NWC @ 127th St.,40.80711331,-73.93973343,1000933.913,233335.935,Outdoor,,New York,Harlem Wi-Fi,,"(40.80711331, -73.93973343)"
445,MN,Free,Harlem,,Madison Ave SEC @ 128th St,40.80760468,-73.93922298,1001075.1,233515.0553,Outdoor,,New York,Harlem Wi-Fi,,"(40.80760468, -73.93922298)"
446,MN,Free,Harlem,,127th between Lenox Avenue & 5th Avenue,40.80869084,-73.94358024,999868.6115,233909.9728,Outdoor,,New York,Harlem Wi-Fi,,"(40.80869084, -73.94358024)"
447,MN,Free,Harlem,,Madison Ave NWC @ 129th St.,40.80829699,-73.93888993,1001167.123,233767.3524,Outdoor,,New York,Harlem Wi-Fi,,"(40.80829699, -73.93888993)"
448,MN,Free,Harlem,,5th Ave SEC @ 128th St.,40.80806961,-73.9407943,1000639.992,233684.1485,Outdoor,,New York,Harlem Wi-Fi,,"(40.80806961, -73.9407943)"
449,MN,Free,Harlem,,Lenox Avenue Ave WS1N of 129th St,40.81053206,-73.94367081,999843.1076,234580.7792,Outdoor,,New York,Harlem Wi-Fi,,"(40.81053206, -73.94367081)"
450,MN,Free,Harlem,,7th Ave NWC @ 128th St.,40.81091212,-73.94681983,998971.3085,234718.7035,Outdoor,,New York,Harlem Wi-Fi,,"(40.81091212, -73.94681983)"
451,MN,Free,Harlem,,129th St SS2E of Lenox Avenue Ave,40.80961707,-73.94211652,1000273.587,234247.6982,Outdoor,,New York,Harlem Wi-Fi,,"(40.80961707, -73.94211652)"
452,MN,Free,Harlem,,130th St NS2(E) of 7th Avenue,40.81119779,-73.94386554,999789.0473,234823.2948,Outdoor,,New York,Harlem Wi-Fi,,"(40.81119779, -73.94386554)"
453,MN,Free,Harlem,,7th ave NWC @ 130 St.,40.81190554,-73.9463194,999109.615,235080.7267,Outdoor,,New York,Harlem Wi-Fi,,"(40.81190554, -73.9463194)"
454,MN,Free,Harlem,,130th South East Corner 8th Avenue (FDB) Ave,40.8133664,-73.9488431,998410.7056,235612.5521,Outdoor,,New York,Harlem Wi-Fi,,"(40.8133664, -73.9488431)"
455,MN,Free,Harlem,,7th Ave SECC @ 131th St.,40.81246482,-73.94538689,999367.6226,235284.6512,Outdoor,,New York,Harlem Wi-Fi,,"(40.81246482, -73.94538689)"
456,MN,Free,Harlem,,131th St. NS1E of 7th Ave,40.81130391,-73.94298356,1000033.17,234862.1163,Outdoor,,New York,Harlem Wi-Fi,,"(40.81130391, -73.94298356)"
457,MN,Free,Harlem,,Lenox Avenue Ave WS1N of 131th St.,40.81184146,-73.9427247,1000104.698,235058.0096,Outdoor,,New York,Harlem Wi-Fi,,"(40.81184146, -73.9427247)"
458,MN,Free,Harlem,,131th St NS2E of Lenox Avenue Ave,40.81108221,-73.94154811,1000430.582,234781.6046,Outdoor,,New York,Harlem Wi-Fi,,"(40.81108221, -73.94154811)"
459,MN,Free,Harlem,,8th Ave WS2N of 131th St.,40.81398598,-73.94835949,998544.4406,235838.364,Outdoor,,New York,Harlem Wi-Fi,,"(40.81398598, -73.94835949)"
460,MN,Free,Harlem,,132th St. NS2E of 8th Ave,40.8141251,-73.94699335,998922.5661,235889.277,Outdoor,,New York,Harlem Wi-Fi,,"(40.8141251, -73.94699335)"
461,MN,Free,Harlem,,5th Ave WS1N of 130th St.,40.80988148,-73.93899608,1001137.337,234344.616,Outdoor,,New York,Harlem Wi-Fi,,"(40.80988148, -73.93899608)"
462,MN,Free,Harlem,,131th St NS1E of 5th Ave,40.80955666,-73.9398973,1000887.939,234226.1002,Outdoor,,New York,Harlem Wi-Fi,,"(40.80955666, -73.9398973)"
463,MN,Free,Harlem,,132th St. NS2E of 7th Ave,40.81300405,-73.94428954,999671.2569,235481.303,Outdoor,,New York,Harlem Wi-Fi,,"(40.81300405, -73.94428954)"
464,MN,Free,Harlem,,132th St. NS2E of Lenox Avenue Ave,40.81183475,-73.94134984,1000485.283,235055.8157,Outdoor,,New York,Harlem Wi-Fi,,"(40.81183475, -73.94134984)"
465,MN,Free,Harlem,,5th Ave SWC @ 132th St.,40.81079535,-73.93892512,1001156.747,234677.5852,Outdoor,,New York,Harlem Wi-Fi,,"(40.81079535, -73.93892512)"
466,MN,Free,Harlem,,133th St NS2E of 8th Ave,40.81608851,-73.94668847,999006.5226,236604.6679,Outdoor,,New York,Harlem Wi-Fi,,"(40.81608851, -73.94668847)"
467,MN,Free,Harlem,,7th Ave SEC @ 133th St.,40.81392973,-73.94495473,999486.9141,235818.4461,Outdoor,,New York,Harlem Wi-Fi,,"(40.81392973, -73.94495473)"
468,MN,Free,Harlem,,133th St NS1E of 7th Ave,40.815661,-73.946925,998941.1471,236448.8726,Outdoor,,New York,Harlem Wi-Fi,,"(40.815661, -73.946925)"
469,MN,Free,Harlem,,133th St. NS3E of 7th Ave,40.80955879,-73.94341707,999913.5766,234226.2278,Outdoor,,New York,Harlem Wi-Fi,,"(40.80955879, -73.94341707)"
470,MN,Free,Harlem,,5th Ave WS3N of 132th St.,40.8115749,-73.93845305,1001287.225,234961.6942,Outdoor,,New York,Harlem Wi-Fi,,"(40.8115749, -73.93845305)"
471,MN,Free,Harlem,,136th St. NS2E of Lenox Avenue Ave,40.81450873,-73.9407313,1000655.846,236030.1586,Outdoor,,New York,Harlem Wi-Fi,,"(40.81450873, -73.9407313)"
472,MN,Free,Harlem,,135th St. North Side 2poles East of Lenox Ave,40.81667715,-73.94639182,999088.5044,236819.1816,Outdoor,,New York,Harlem Wi-Fi,,"(40.81667715, -73.94639182)"
473,BK,Free,Downtown Brooklyn,,25 Lafayette Ave.,40.68697,-73.978033,990342.2184,189558.8903,Outdoor,,Brooklyn,Downtown Brooklyn WiFi,,"(40.68697, -73.978033)"
474,BK,Free,Downtown Brooklyn,,25 Lafayette Ave.,40.68697,-73.978033,990342.2184,189558.8903,Outdoor,,Brooklyn,Downtown Brooklyn WiFi,,"(40.68697, -73.978033)"
475,BK,Free,Downtown Brooklyn,,25 Lafayette Ave.,40.68697,-73.978033,990342.2184,189558.8903,Outdoor,,Brooklyn,Downtown Brooklyn WiFi,,"(40.68697, -73.978033)"
476,BK,Free,Downtown Brooklyn,,25 Lafayette Ave.,40.68697,-73.978033,990342.2184,189558.8903,Outdoor,,Brooklyn,Downtown Brooklyn WiFi,,"(40.68697, -73.978033)"
477,BK,Free,Downtown Brooklyn,,1 Boerum Place,40.69186,-73.988721,987377.8323,191339.8979,Outdoor,,Brooklyn,Downtown Brooklyn WiFi,,"(40.69186, -73.988721)"
478,BK,Free,Downtown Brooklyn,,1 Boerum Place,40.691677,-73.988841,987344.563,191273.2212,Outdoor,,Brooklyn,Downtown Brooklyn WiFi,,"(40.691677, -73.988841)"
479,BK,Free,Downtown Brooklyn,,1 Boerum Place,40.691569,-73.988711,987380.6191,191233.8784,Outdoor,,Brooklyn,Downtown Brooklyn WiFi,,"(40.691569, -73.988711)"
480,BK,Free,Downtown Brooklyn,,409 Fulton St.,40.692178,-73.988304,987493.4571,191455.7697,Outdoor,,Brooklyn,Downtown Brooklyn WiFi,,"(40.692178, -73.988304)"
481,BK,Free,Downtown Brooklyn,,409 Fulton St.,40.692023,-73.988433,987457.6911,191399.2938,Outdoor,,Brooklyn,Downtown Brooklyn WiFi,,"(40.692023, -73.988433)"
482,BK,Free,Downtown Brooklyn,,409 Fulton St.,40.691976,-73.988311,987491.5257,191382.175,Outdoor,,Brooklyn,Downtown Brooklyn WiFi,,"(40.691976, -73.988311)"
483,BK,Free,Downtown Brooklyn,,409 Fulton St.,40.692174,-73.988669,987392.2378,191454.2989,Outdoor,,Brooklyn,Downtown Brooklyn WiFi,,"(40.692174, -73.988669)"
484,BK,Free,Downtown Brooklyn,,409 Fulton St.,40.692178,-73.988304,987493.4571,191455.7697,Outdoor,,Brooklyn,Downtown Brooklyn WiFi,,"(40.692178, -73.988304)"
485,BK,Free,Downtown Brooklyn,,356 Fulton St.,40.69159004,-73.98818933,987525.2854,191241.5638,Outdoor,,Brooklyn,Downtown Brooklyn WiFi,,"(40.69159004, -73.98818933)"
486,BK,Free,Downtown Brooklyn,,356 Fulton St.,40.691738,-73.988131,987541.454,191295.4711,Outdoor,,Brooklyn,Downtown Brooklyn WiFi,,"(40.691738, -73.988131)"
487,BK,Free,Downtown Brooklyn,,469 Fulton St.,40.691224,-73.98662,987960.5057,191108.2665,Outdoor,,Brooklyn,Downtown Brooklyn WiFi,,"(40.691224, -73.98662)"
488,BK,Free,Downtown Brooklyn,,469 Fulton St.,40.691224,-73.98662,987960.5057,191108.2665,Outdoor,,Brooklyn,Downtown Brooklyn WiFi,,"(40.691224, -73.98662)"
489,BK,Free,Downtown Brooklyn,,442 Fulton St. (Pole),40.690364,-73.984435,988566.4999,190795.0433,Outdoor,,Brooklyn,Downtown Brooklyn WiFi,,"(40.690364, -73.984435)"
490,BK,Free,Downtown Brooklyn,,442 Fulton St. (Pole),40.690364,-73.984435,988566.4999,190795.0433,Outdoor,,Brooklyn,Downtown Brooklyn WiFi,,"(40.690364, -73.984435)"
491,BK,Free,Downtown Brooklyn,,466 Fulton St. (Pole),40.689334,-73.981975,989248.7866,190419.9148,Outdoor,,Brooklyn,Downtown Brooklyn WiFi,,"(40.689334, -73.981975)"
492,BK,Free,Downtown Brooklyn,,466 Fulton St. (Pole),40.689334,-73.981975,989248.7866,190419.9148,Outdoor,,Brooklyn,Downtown Brooklyn WiFi,,"(40.689334, -73.981975)"
493,BK,Free,Downtown Brooklyn,,255 Duffield St.,40.690406,-73.983931,988706.2667,190810.3704,Outdoor,,Brooklyn,Downtown Brooklyn WiFi,,"(40.690406, -73.983931)"
494,BK,Free,Downtown Brooklyn,,255 Duffield St.,40.690406,-73.983931,988706.2667,190810.3704,Outdoor,,Brooklyn,Downtown Brooklyn WiFi,,"(40.690406, -73.983931)"
495,BK,Free,Downtown Brooklyn,,80 Hanson Place,40.685308,-73.974472,991329.9848,188953.6431,Outdoor,,Brooklyn,Downtown Brooklyn WiFi,,"(40.685308, -73.974472)"
496,BK,Free,Downtown Brooklyn,,80 Hanson Place,40.685308,-73.974472,991329.9848,188953.6431,Outdoor,,Brooklyn,Downtown Brooklyn WiFi,,"(40.685308, -73.974472)"
497,BK,Free,Downtown Brooklyn,,34 Dekalb Ave. (Pole),40.689942,-73.982158,989197.9907,190641.4167,Outdoor,,Brooklyn,Downtown Brooklyn WiFi,,"(40.689942, -73.982158)"
498,BK,Free,Downtown Brooklyn,,34 Dekalb Ave. (Pole),40.689942,-73.982158,989197.9907,190641.4167,Outdoor,,Brooklyn,Downtown Brooklyn WiFi,,"(40.689942, -73.982158)"
499,BK,Free,Downtown Brooklyn,,Boro Hall Park (Pole),40.69324218,-73.99020085,986967.3925,191843.4179,Outdoor,,Brooklyn,Downtown Brooklyn WiFi,,"(40.69324218, -73.99020085)"
500,BK,Free,Downtown Brooklyn,,Boro Hall Park (Pole),40.693069,-73.990089,986998.4161,191780.3261,Outdoor,,Brooklyn,Downtown Brooklyn WiFi,,"(40.693069, -73.990089)"
501,BK,Free,Downtown Brooklyn,,333 Adams St.,40.693625,-73.988519,987433.7656,191982.9465,Outdoor,,Brooklyn,Downtown Brooklyn WiFi,,"(40.693625, -73.988519)"
502,BK,Free,Downtown Brooklyn,,333 Adams St.,40.693636,-73.988347,987481.462,191986.9602,Outdoor,,Brooklyn,Downtown Brooklyn WiFi,,"(40.693636, -73.988347)"
503,BK,Free,Downtown Brooklyn,,333 Adams St.,40.693636,-73.988347,987481.462,191986.9602,Outdoor,,Brooklyn,Downtown Brooklyn WiFi,,"(40.693636, -73.988347)"
504,BK,Free,Downtown Brooklyn,,333 Adams St.,40.693636,-73.988347,987481.462,191986.9602,Outdoor,,Brooklyn,Downtown Brooklyn WiFi,,"(40.693636, -73.988347)"
505,BK,Free,Downtown Brooklyn,,333 Adams St.,40.693636,-73.988347,987481.462,191986.9602,Outdoor,,Brooklyn,Downtown Brooklyn WiFi,,"(40.693636, -73.988347)"
506,BK,Free,Downtown Brooklyn,,333 Adams St.,40.693636,-73.988347,987481.462,191986.9602,Outdoor,,Brooklyn,Downtown Brooklyn WiFi,,"(40.693636, -73.988347)"
507,BK,Free,Downtown Brooklyn,,333 Adams St.,40.693636,-73.988347,987481.462,191986.9602,Outdoor,,Brooklyn,Downtown Brooklyn WiFi,,"(40.693636, -73.988347)"
508,BK,Free,Downtown Brooklyn,,333 Adams St.,40.693636,-73.988347,987481.462,191986.9602,Outdoor,,Brooklyn,Downtown Brooklyn WiFi,,"(40.693636, -73.988347)"
509,BK,Free,Downtown Brooklyn,,370 Jay St. (Pole),40.693348,-73.987419,987738.8181,191882.069,Outdoor,,Brooklyn,Downtown Brooklyn WiFi,,"(40.693348, -73.987419)"
510,BK,Free,Downtown Brooklyn,,254 Flatbush Ave. Extension (pole),40.692723,-73.983025,988957.3557,191654.5688,Outdoor,,Brooklyn,Downtown Brooklyn WiFi,,"(40.692723, -73.983025)"
511,BK,Free,Downtown Brooklyn,,254 Flatbush Ave. Extension (pole),40.692723,-73.983025,988957.3557,191654.5688,Outdoor,,Brooklyn,Downtown Brooklyn WiFi,,"(40.692723, -73.983025)"
512,BK,Free,Downtown Brooklyn,,20 Lafayette Ave.,40.686371,-73.978541,990201.3857,189340.622,Outdoor,,Brooklyn,Downtown Brooklyn WiFi,,"(40.686371, -73.978541)"
513,BK,Free,Downtown Brooklyn,,20 Lafayette Ave.,40.686371,-73.978541,990201.3857,189340.622,Outdoor,,Brooklyn,Downtown Brooklyn WiFi,,"(40.686371, -73.978541)"
514,BK,Free,Downtown Brooklyn,,125 Flatbush Ave. Extension,40.695578,-73.98397,988695.1066,192694.6799,Outdoor,,Brooklyn,Downtown Brooklyn WiFi,,"(40.695578, -73.98397)"
515,BK,Free,Downtown Brooklyn,,1 Dekalb Ave.,40.690137,-73.983226,988901.7968,190712.4024,Outdoor,,Brooklyn,Downtown Brooklyn WiFi,,"(40.690137, -73.983226)"
516,BK,Free,Downtown Brooklyn,,1 University Plaza (LIU),40.690233,-73.981328,989428.1461,190747.4844,Outdoor,,Brooklyn,Downtown Brooklyn WiFi,,"(40.690233, -73.981328)"
517,BK,Free,Downtown Brooklyn,,1 University Plaza (LIU),40.689967,-73.981214,989459.7816,190650.5797,Outdoor,,Brooklyn,Downtown Brooklyn WiFi,,"(40.689967, -73.981214)"
518,BK,Free,Downtown Brooklyn,,1 University Plaza (LIU),40.689989,-73.980928,989539.0941,190658.6122,Outdoor,,Brooklyn,Downtown Brooklyn WiFi,,"(40.689989, -73.980928)"
984,MN,Free,Transit Wireless,"14th Street -7th Avenue - 1, 2, 3",14th Street - 7th Avenue,40.745906,-74.000201,984194.3049,211030.3109,Subway Station,SN 322,New York,TransitWirelessWiFi,,"(40.745906, -74.000201)"
985,MN,Free,Transit Wireless,"14th Street- 8th Avenue - A, C, E, L",14th Street - 8th Avenue,40.740893,-74.00169,983781.6827,209203.9199,Subway Station,SN 166,New York,TransitWirelessWiFi,,"(40.740893, -74.00169)"
986,MN,Free,Transit Wireless,"14th Street - 6th Avenue - F, M",Between 14th and 16th Streets on 6th Avenue,40.737335,-73.996786,985140.6816,207907.6397,Subway Station,SN 116,New York,TransitWirelessWiFi,,"(40.737335, -73.996786)"
987,MN,Free,Transit Wireless,"14th Street - 6th Avenue - F, M, L",14th Street - 6th Avenue,40.738228,-73.996209,985300.5688,208232.994,Subway Station,SN 229,New York,TransitWirelessWiFi,,"(40.738228, -73.996209)"
988,MN,Free,Transit Wireless,18 Street - 1,18th Street - 7th Avenue,40.74104,-73.997871,984839.9676,209257.4792,Subway Station,SN 321,New York,TransitWirelessWiFi,,"(40.74104, -73.997871)"
989,MN,Free,Transit Wireless,23 Street - 1,23rd Street - 7th Avenue,40.744081,-73.995657,985453.4343,210365.435,Subway Station,SN 320,New York,TransitWirelessWiFi,,"(40.744081, -73.995657)"
990,MN,Free,Transit Wireless,"23rd Street - C, E",23rd Street - 8th Avenue,40.745906,-73.998041,984792.8191,211030.3172,Subway Station,SN 165,New York,TransitWirelessWiFi,,"(40.745906, -73.998041)"
991,MN,Free,Transit Wireless,"23rd Street - N, R",23rd Street Ã¢ÂÂ Broadway,40.741303,-73.989344,987202.874,209353.4708,Subway Station,SN 14,New York,TransitWirelessWiFi,,"(40.741303, -73.989344)"
992,MN,Free,Transit Wireless,23rd Street - F,West 23 Street and 6 Avenue,40.743106,-73.992824,986238.4806,210010.2631,Subway Station,SN 228,New York,TransitWirelessWiFi,,"(40.743106, -73.992824)"
993,MN,Free,Transit Wireless,23rd Street - 6,East 23 Street and Park Avenue,40.740402,-73.986461,988001.8301,209025.3182,Subway Station,SN 405,New York,TransitWirelessWiFi,,"(40.740402, -73.986461)"
994,MN,Free,Transit Wireless,28th Street - 1,28th Street  - 7th Avenue,40.747215,-73.993365,986088.4553,211507.2913,Subway Station,SN 319,New York,TransitWirelessWiFi,,"(40.747215, -73.993365)"
995,MN,Free,Transit Wireless,"28th Street - Broadway - N, R",28th Street - Broadway,40.745494,-73.988691,987383.6289,210880.4083,Subway Station,SN 13,New York,TransitWirelessWiFi,,"(40.745494, -73.988691)"
996,MN,Free,Transit Wireless,28th Street - 6,28th Street - Park Avenue South,40.743263,-73.984293,988602.4237,210067.7718,Subway Station,SN 404,New York,TransitWirelessWiFi,,"(40.743263, -73.984293)"
536,BK,Free,Downtown Brooklyn,,1 University Plaza (LIU),40.690622,-73.981414,989404.2663,190889.2036,Outdoor,,Brooklyn,Downtown Brooklyn WiFi,,"(40.690622, -73.981414)"
537,BK,Free,Downtown Brooklyn,,125 Court St.,40.689906,-73.991944,986484.1126,190627.8996,Outdoor,,Brooklyn,Downtown Brooklyn WiFi,,"(40.689906, -73.991944)"
538,BK,Free,Downtown Brooklyn,,125 Court St.,40.689967,-73.992083,986445.5625,190650.1201,Outdoor,,Brooklyn,Downtown Brooklyn WiFi,,"(40.689967, -73.992083)"
539,BK,Free,Downtown Brooklyn,,125 Court St.,40.689997,-73.992,986468.5795,190661.0521,Outdoor,,Brooklyn,Downtown Brooklyn WiFi,,"(40.689997, -73.992)"
540,BK,Free,Downtown Brooklyn,,125 Court St.,40.690022,-73.991897,986497.1428,190670.163,Outdoor,,Brooklyn,Downtown Brooklyn WiFi,,"(40.690022, -73.991897)"
541,BK,Free,Downtown Brooklyn,,110 Livingston St.,40.690883,-73.989635,987124.4089,190983.9166,Outdoor,,Brooklyn,Downtown Brooklyn WiFi,,"(40.690883, -73.989635)"
542,BK,Free,Downtown Brooklyn,,110 Livingston St.,40.690883,-73.989635,987124.4089,190983.9166,Outdoor,,Brooklyn,Downtown Brooklyn WiFi,,"(40.690883, -73.989635)"
543,BK,Free,Downtown Brooklyn,,110 Livingston St.,40.690883,-73.989635,987124.4089,190983.9166,Outdoor,,Brooklyn,Downtown Brooklyn WiFi,,"(40.690883, -73.989635)"
544,BK,Free,Downtown Brooklyn,,110 Livingston St.,40.690883,-73.989635,987124.4089,190983.9166,Outdoor,,Brooklyn,Downtown Brooklyn WiFi,,"(40.690883, -73.989635)"
545,BK,Free,Downtown Brooklyn,,110 Livingston St.,40.690883,-73.989635,987124.4089,190983.9166,Outdoor,,Brooklyn,Downtown Brooklyn WiFi,,"(40.690883, -73.989635)"
546,BK,Free,Downtown Brooklyn,,110 Livingston St.,40.690883,-73.989635,987124.4089,190983.9166,Outdoor,,Brooklyn,Downtown Brooklyn WiFi,,"(40.690883, -73.989635)"
547,BK,Free,Downtown Brooklyn,,110 Livingston St.,40.690883,-73.989635,987124.4089,190983.9166,Outdoor,,Brooklyn,Downtown Brooklyn WiFi,,"(40.690883, -73.989635)"
548,BK,Free,Downtown Brooklyn,,573 Fulton St. (Pole),40.689334,-73.981975,989248.7866,190419.9148,Outdoor,,Brooklyn,Downtown Brooklyn WiFi,,"(40.689334, -73.981975)"
997,MN,Free,Transit Wireless,33rd Street - 6,33rd Street - Park Avenue South,40.746311,-73.982126,989202.6748,211178.3707,Subway Station,SN 403,New York,TransitWirelessWiFi,,"(40.746311, -73.982126)"
998,MN,Free,Transit Wireless,"34th Street - Herald Square - N, Q, R",34th STREET - 6 Avenue and Broadway,40.749573,-73.987958,987586.533,212366.5461,Subway Station,SN 12,New York,TransitWirelessWiFi,,"(40.749573, -73.987958)"
549,BK,Free,Downtown Brooklyn,,573 Fulton St. (Pole),40.689334,-73.981975,989248.7866,190419.9148,Outdoor,,Brooklyn,Downtown Brooklyn WiFi,,"(40.689334, -73.981975)"
999,MN,Free,Transit Wireless,"34th Street - Herald Square - B, D, F, M",34th STREET - 6 Avenue and Broadway,40.749708,-73.987813,987626.7019,212415.7366,Subway Station,SN 227,New York,TransitWirelessWiFi,,"(40.749708, -73.987813)"
1000,MN,Free,Transit Wireless,"42nd Street - Bryant Park - B, D, F, M",42th Street - 6 Avenue,40.754226,-73.984574,988523.855,214061.9315,Subway Station,SN 226,New York,TransitWirelessWiFi,,"(40.754226, -73.984574)"
1001,MN,Free,Transit Wireless,"42nd Street Ã¢ÂÂ Port Authority - A, C, E",42nd Street Ã¢ÂÂ Port Authority,40.757308,-73.989735,987093.8411,215184.5946,Subway Station,SN 163,New York,TransitWirelessWiFi,,"(40.757308, -73.989735)"
1002,MN,Free,Transit Wireless,"47-50th Street Ã¢ÂÂ Rockefeller Center - B, D, F, M",47-50th Street Ã¢ÂÂ Rockefeller Center,40.758663,-73.981329,989422.5549,215678.6497,Subway Station,SN 225,New York,TransitWirelessWiFi,,"(40.758663, -73.981329)"
1003,MN,Free,Transit Wireless,"49th Street Ã¢ÂÂ 7th Avenue - N, R",49th Street - 7th Avenue,40.759901,-73.984139,988643.9997,216129.5402,Subway Station,SN 10,New York,TransitWirelessWiFi,,"(40.759901, -73.984139)"
1004,MN,Free,Transit Wireless,"50th St. Ã¢ÂÂ 8th Avenue - C, E",50th Street - 8th Avenue,40.762456,-73.985984,988132.7271,217060.3235,Subway Station,SN 162,New York,TransitWirelessWiFi,,"(40.762456, -73.985984)"
1005,MN,Free,Transit Wireless,50 Street - 1,50th Street - Broadway,40.761728,-73.983849,988724.2161,216795.1908,Subway Station,SN 316,New York,TransitWirelessWiFi,,"(40.761728, -73.983849)"
1006,MN,Free,Transit Wireless,57th Street - F,57th Street - 6th Avenue,40.763971,-73.977451,990496.4058,217612.781,Subway Station,SN 224,New York,TransitWirelessWiFi,,"(40.763971, -73.977451)"
1007,MN,Free,Transit Wireless,"57th Street - N, Q, R",57th Street - 7th Avenue (Midtown),40.764664,-73.980658,989607.9637,217865.0515,Subway Station,SN 9,New York,TransitWirelessWiFi,,"(40.764664, -73.980658)"
1008,MN,Free,Transit Wireless,59th Street - Columbus Circle - 1,Broadway - West 59 Street- Columbus Circle,40.768243,-73.981936,989253.6737,219168.9239,Subway Station,SN 315,New York,TransitWirelessWiFi,,"(40.768243, -73.981936)"
1009,MN,Free,Transit Wireless,"59th Street - Columbus Circle - A, B, C, D",Broadway - West 59 Street- Columbus Circle,40.768295,-73.981738,989308.5151,219187.8806,Subway Station,SN 161,New York,TransitWirelessWiFi,,"(40.768295, -73.981738)"
1010,MN,Free,Transit Wireless,"5th Avenue - 53rd Street - E, M",5th Avenue - 53rd Street,40.760167,-73.975224,991113.7097,216227.0256,Subway Station,SN 276,New York,TransitWirelessWiFi,,"(40.760167, -73.975224)"
1011,MN,Free,Transit Wireless,"5th Avenue - 59th Street - N, R",5th Avenue - 59th Street,40.764811,-73.973347,991633.1811,217919.14,Subway Station,SN 8,New York,TransitWirelessWiFi,,"(40.764811, -73.973347)"
635,MN,Free,NYPL,Bloomingdale,150 WEST 100 STREET,40.79591999,-73.96784852,993152.163,229253.7092,Library,,New York,NYPL,,"(40.79591999, -73.96784852)"
636,BX,Free,NYPL,City Island,320 CITY ISLAND AVENUE,40.8476919,-73.78636659,1043355.16,248186.5342,Library,,Bronx,NYPL,,"(40.8476919, -73.78636659)"
637,BK,Free,BPL,Canarsie - Brooklyn Public Library,1580 ROCKAWAY PARKWAY,40.64220845,-73.89952442,1012134.096,173266.226,Library,,Brooklyn,BPLUNWIRED,,"(40.64220845, -73.89952442)"
638,BK,Free,BPL,Sheepshead Bay - Brooklyn Public Library,2636 EAST 14 STREET,40.58699996,-73.95542836,996629.8092,153139.4838,Library,,Brooklyn,BPLUNWIRED,,"(40.58699996, -73.95542836)"
639,BX,Free,NYPL,Woodlawn Heights,4355 KATONAH AVENUE,40.90043991,-73.867942,1020757.045,267360.1648,Library,,Bronx,NYPL,,"(40.90043991, -73.867942)"
640,BK,Free,BPL,Red Hook - Brooklyn Public Library,7 WOLCOTT STREET,40.67525519,-74.01035129,981378.72,185290.2528,Library,,Brooklyn,BPLUNWIRED,,"(40.67525519, -74.01035129)"
641,BK,Free,BPL,Brower Park - Brooklyn Public Library,725 ST MARKS AVENUE,40.67537085,-73.94856614,998516.8921,185336.4102,Library,,Brooklyn,BPLUNWIRED,,"(40.67537085, -73.94856614)"
642,BK,Free,BPL,Pacific - Brooklyn Public Library,25 4 AVENUE,40.68345883,-73.97854148,990201.5137,188279.635,Library,,Brooklyn,BPLUNWIRED,,"(40.68345883, -73.97854148)"
643,QU,Free,QPL,Glen Oaks,256-04 UNION TURNPIKE,40.74515052,-73.71483776,1063266.333,210883.679,Library,,Glen Oaks,QBPL_WIRELESS,,"(40.74515052, -73.71483776)"
644,BX,Free,NYPL,Mosholu,285 EAST 205 STREET,40.87437981,-73.87838435,1017883.472,257861.2471,Library,,Bronx,NYPL,,"(40.87437981, -73.87838435)"
645,QU,Free,QPL,Arverne,312 BEACH 54 STREET,40.59314678,-73.78404003,1044227.475,155449.7121,Library,,Arverne,QBPL_WIRELESS,,"(40.59314678, -73.78404003)"
646,MN,Free,NYPL,Washington Heights,1000 ST NICHOLAS AVENUE,40.83451521,-73.93967458,1000943.33,243319.4458,Library,,New York,NYPL,,"(40.83451521, -73.93967458)"
647,BK,Free,BPL,Gerritsen Beach - Brooklyn Public Library,2808 GERRITSEN AVENUE,40.59135705,-73.92396467,1005367.494,154732.9002,Library,,Brooklyn,BPLUNWIRED,,"(40.59135705, -73.92396467)"
648,BK,Free,BPL,Greenpoint - Brooklyn Public Library,107 NORMAN AVENUE,40.72605066,-73.95069029,997917.2929,203800.2329,Library,,Brooklyn,BPLUNWIRED,,"(40.72605066, -73.95069029)"
649,BX,Free,NYPL,Riverdale,5540 MOSHOLU AVENUE,40.90372278,-73.90277254,1011126.921,268543.647,Library,,Bronx,NYPL,,"(40.90372278, -73.90277254)"
650,BX,Free,NYPL,West Farms,2085 HONEYWELL AVENUE,40.84467409,-73.88304469,1016609.08,247036.5598,Library,,Bronx,NYPL,,"(40.84467409, -73.88304469)"
651,BX,Free,NYPL,Mott Haven,321 EAST 140 STREET,40.81159621,-73.92436634,1005186.656,234972.5134,Library,,Bronx,NYPL,,"(40.81159621, -73.92436634)"
652,QU,Free,QPL,South Hollis,204-01 HOLLIS AVENUE,40.70701056,-73.75379667,1052510.194,196955.4211,Library,,South Hollis,QBPL_WIRELESS,,"(40.70701056, -73.75379667)"
653,MN,Free,NYPL,Webster,1465 YORK AVENUE,40.77065254,-73.95134169,997727.7161,220050.0281,Library,,New York,NYPL,,"(40.77065254, -73.95134169)"
654,QU,Free,QPL,Woodhaven,85-41 FOREST PARKWAY,40.69454658,-73.86144646,1022671.367,192348.8818,Library,,Woodhaven,QBPL_WIRELESS,,"(40.69454658, -73.86144646)"
655,MN,Free,NYPL,58th Street,127 EAST 58 STREET,40.76218602,-73.9693817,992731.9469,216963.1317,Library,,New York,NYPL,,"(40.76218602, -73.9693817)"
656,MN,Free,NYPL,Tompkins Square,331 EAST 10 STREET,40.72730731,-73.98040767,989680.353,204254.8301,Library,,New York,NYPL,,"(40.72730731, -73.98040767)"
657,MN,Free,NYPL,Morningside Heights,2900 BROADWAY,40.80609082,-73.96476206,994005.2561,232959.6253,Library,,New York,NYPL,,"(40.80609082, -73.96476206)"
658,QU,Free,QPL,Astoria,14-01 ASTORIA BOULEVARD,40.77238289,-73.92871881,1003993.445,220684.7408,Library,,Long Island City,QBPL_WIRELESS,,"(40.77238289, -73.92871881)"
659,BK,Free,BPL,Saratoga - Brooklyn Public Library,8 THOMAS S BOYLAND STREET,40.68481005,-73.91513242,1007787.512,188782.5949,Library,,Brooklyn,BPLUNWIRED,,"(40.68481005, -73.91513242)"
660,BX,Free,NYPL,Baychester,2049 ASCH LOOP NORTH,40.87050192,-73.82865793,1031638.333,256471.3779,Library,,Bronx,NYPL,,"(40.87050192, -73.82865793)"
661,SI,Free,NYPL,Tottenville,7430 AMBOY ROAD,40.50953112,-74.24410671,916370.6013,125007.1631,Library,,Staten Island,NYPL,,"(40.50953112, -74.24410671)"
662,MN,Free,NYPL,Hamilton Grange,503 WEST 145 STREET,40.82567237,-73.94803242,998632.4499,240096.1941,Library,,New York,NYPL,,"(40.82567237, -73.94803242)"
663,BX,Free,NYPL,Kingsbridge,280 WEST 231 STREET,40.88032228,-73.90798337,1009695.43,260016.3399,Library,,Bronx,NYPL,,"(40.88032228, -73.90798337)"
664,QU,Free,QPL,Queens Village,94-11 217 STREET,40.71988555,-73.73904382,1056586.456,201657.994,Library,,Queens Village,QBPL_WIRELESS,,"(40.71988555, -73.73904382)"
665,MN,Free,NYPL,115th Street,203 WEST 115 STREET,40.80297988,-73.95353074,997115.1298,231827.6529,Library,,New York,NYPL,,"(40.80297988, -73.95353074)"
666,BX,Free,NYPL,Parkchester,1985 WESTCHESTER AVENUE,40.8337363,-73.85835522,1023446.578,243061.6019,Library,,Bronx,NYPL,,"(40.8337363, -73.85835522)"
667,BK,Free,BPL,Jamaica Bay - Brooklyn Public Library,9727 SEAVIEW AVENUE,40.63447461,-73.88930465,1014973.858,170451.9967,Library,,Brooklyn,BPLUNWIRED,,"(40.63447461, -73.88930465)"
668,QU,Free,QPL,Kew Gardens Hills,72-33 VLEIGH PLACE,40.72591849,-73.82071907,1033941.804,203799.081,Library,,Flushing,QBPL_WIRELESS,,"(40.72591849, -73.82071907)"
669,MN,Free,NYPL,96th Street,112 EAST 96 STREET,40.7859598,-73.95180567,997596.1321,225626.9058,Library,,New York,NYPL,,"(40.7859598, -73.95180567)"
670,MN,Free,NYPL,Columbus,742 10 AVENUE,40.76493462,-73.99122082,986681.9279,217963.177,Library,,New York,NYPL,,"(40.76493462, -73.99122082)"
671,SI,Free,NYPL,Stapleton,132 CANAL STREET,40.62623761,-74.07784609,962640.8923,167441.2282,Library,,Staten Island,NYPL,,"(40.62623761, -74.07784609)"
672,SI,Free,NYPL,Dongan Hills,1617 RICHMOND ROAD,40.59039134,-74.10113729,956160.4689,154388.1152,Library,,Staten Island,NYPL,,"(40.59039134, -74.10113729)"
673,QU,Free,QPL,Douglaston/Little Neck,249-01 NORTHERN BOULEVARD,40.76822543,-73.73822944,1056759.569,219270.3492,Library,,Little Neck,QBPL_WIRELESS,,"(40.76822543, -73.73822944)"
674,MN,Free,NYPL,Mid Manhattan,455 5 AVENUE,40.75189156,-73.98169851,989320.7021,213211.5733,Library,,New York,NYPL,,"(40.75189156, -73.98169851)"
675,SI,Free,NYPL,Port Richmond,75 BENNETT STREET,40.63758562,-74.13110462,947863.184,171593.2389,Library,,Staten Island,NYPL,,"(40.63758562, -74.13110462)"
676,BK,Free,BPL,Cypress Hills - Brooklyn Public Library,1197 SUTTER AVENUE,40.67270609,-73.87403349,1019192.386,184386.4958,Library,,Brooklyn,BPLUNWIRED,,"(40.67270609, -73.87403349)"
677,QU,Free,QPL,"Queensbridge, Now a Family Literacy Center",10-43 41 AVENUE,40.7552002,-73.94422389,999702.8382,214421.4072,Library,,Long Island City,QBPL_WIRELESS,,"(40.7552002, -73.94422389)"
678,BK,Free,BPL,Washington Irving - Brooklyn Public Library,360 IRVING AVENUE,40.69748225,-73.91221062,1008593.228,193400.2458,Library,,Brooklyn,BPLUNWIRED,,"(40.69748225, -73.91221062)"
679,SI,Free,NYPL,South Beach,21-25 ROBIN ROAD,40.59581815,-74.06298047,966759.4362,156355.312,Library,,Staten Island,NYPL,,"(40.59581815, -74.06298047)"
680,BK,Free,BPL,Homecrest - Brooklyn Public Library,2525 CONEY ISLAND AVENUE,40.59523686,-73.96059937,995192.2068,156139.7088,Library,,Brooklyn,BPLUNWIRED,,"(40.59523686, -73.96059937)"
681,BK,Free,BPL,Mckinley Park - Brooklyn Public Library,6802 FT HAMILTON PARKWAY,40.6292121,-74.01186967,980955.274,168515.5347,Library,,Brooklyn,BPLUNWIRED,,"(40.6292121, -74.01186967)"
682,QU,Free,QPL,Court Square,25-01 JACKSON AVENUE,40.74706242,-73.94424368,999699.2444,211456.5489,Library,,Long Island City,QBPL_WIRELESS,,"(40.74706242, -73.94424368)"
683,BK,Free,BPL,Clarendon - Brooklyn Public Library,2035 NOSTRAND AVENUE,40.63574128,-73.94762003,998787.9601,170898.4161,Library,,Brooklyn,BPLUNWIRED,,"(40.63574128, -73.94762003)"
684,QU,Free,QPL,Poppenhusen,121-23 14 AVENUE,40.78624914,-73.84601328,1026892.305,225766.1302,Library,,College Point,QBPL_WIRELESS,,"(40.78624914, -73.84601328)"
685,QU,Free,QPL,Forest Hills,108-19 71 AVENUE,40.72214695,-73.843015,1027764.448,202413.1359,Library,,Forest Hills,QBPL_WIRELESS,,"(40.72214695, -73.843015)"
686,SI,Free,NYPL,St. George Library Center,5 CENTRAL AVENUE,40.64178537,-74.07664577,962979.0438,173105.3986,Library,,Staten Island,NYPL,,"(40.64178537, -74.07664577)"
687,BK,Free,BPL,Flatbush - Brooklyn Public Library,22 LINDEN BOULEVARD,40.65192508,-73.95824218,995836.9912,176793.03,Library,,Brooklyn,BPLUNWIRED,,"(40.65192508, -73.95824218)"
688,BX,Free,NYPL,Pelham Bay,3060 MIDDLETOWN ROAD,40.84429267,-73.82788991,1031869.508,246922.7739,Library,,Bronx,NYPL,,"(40.84429267, -73.82788991)"
689,BX,Free,NYPL,Van Cortlandt,3874 SEDGWICK AVENUE,40.88275976,-73.89392241,1013582.641,260908.807,Library,,Bronx,NYPL,,"(40.88275976, -73.89392241)"
690,BX,Free,NYPL,Melrose,910 MORRIS AVENUE,40.82659193,-73.91758265,1007059.353,240437.6849,Library,,Bronx,NYPL,,"(40.82659193, -73.91758265)"
691,QU,Free,QPL,Mcgoldrick,155-06 ROOSEVELT AVENUE,40.76375032,-73.80983348,1036929.065,217588.7558,Library,,Flushing,QBPL_WIRELESS,,"(40.76375032, -73.80983348)"
692,BK,Free,BPL,Dekalb - Brooklyn Public Library,790 BUSHWICK AVENUE,40.6948167,-73.92839867,1004105.218,192425.024,Library,,Brooklyn,BPLUNWIRED,,"(40.6948167, -73.92839867)"
693,BX,Free,NYPL,Francis Martin,2150 UNIVERSITY AVENUE,40.85742189,-73.90931635,1009335.458,251672.4524,Library,,Bronx,NYPL,,"(40.85742189, -73.90931635)"
694,BK,Free,BPL,Kings Bay - Brooklyn Public Library,3650 NOSTRAND AVENUE,40.59486152,-73.94112492,1000600.674,156005.9938,Library,,Brooklyn,BPLUNWIRED,,"(40.59486152, -73.94112492)"
695,QU,Free,QPL,Rosedale,144-20 243 STREET,40.65996362,-73.73991101,1056410.893,179826.0607,Library,,Rosedale,QBPL_WIRELESS,,"(40.65996362, -73.73991101)"
696,BK,Free,BPL,New Lots - Brooklyn Public Library,665 NEW LOTS AVENUE,40.66515937,-73.88607054,1015856.956,181632.4429,Library,,Brooklyn,BPLUNWIRED,,"(40.66515937, -73.88607054)"
697,BX,Free,NYPL,Morrisania,610 EAST 169 STREET,40.83126372,-73.90178898,1011428.41,242144.2969,Library,,Bronx,NYPL,,"(40.83126372, -73.90178898)"
698,QU,Free,QPL,Lefrak City,98-30 57 AVENUE,40.73743414,-73.86165593,1022588.603,207974.0168,Library,,Corona,QBPL_WIRELESS,,"(40.73743414, -73.86165593)"
699,BK,Free,BPL,New Utrecht - Brooklyn Public Library,1743 86 STREET,40.60800935,-74.00337655,983312.4569,160790.6109,Library,,Brooklyn,BPLUNWIRED,,"(40.60800935, -74.00337655)"
700,BX,Free,NYPL,Soundview,660 SOUNDVIEW AVENUE,40.81870935,-73.86288996,1022200.275,237584.747,Library,,Bronx,NYPL,,"(40.81870935, -73.86288996)"
701,BX,Free,NYPL,Van Nest,2147 BARNES AVENUE,40.85487778,-73.86414358,1021832.851,250761.695,Library,,Bronx,NYPL,,"(40.85487778, -73.86414358)"
702,BK,Free,BPL,Rugby - Brooklyn Public Library,1000 UTICA AVENUE,40.64863671,-73.93037392,1003570.849,175599.9008,Library,,Brooklyn,BPLUNWIRED,,"(40.64863671, -73.93037392)"
703,QU,Free,QPL,Jackson Heights,35-51 81 STREET,40.75019609,-73.88506932,1016094.069,212614.2172,Library,,Jackson Heights,QBPL_WIRELESS,,"(40.75019609, -73.88506932)"
704,MN,Free,NYPL,Muhlenberg,209 WEST 23 STREET,40.74451005,-73.99595972,985369.5453,210521.747,Library,,New York,NYPL,,"(40.74451005, -73.99595972)"
705,QU,Free,QPL,Rego Park,91-41 63 DRIVE,40.72731656,-73.86450283,1021805.359,204286.6377,Library,,Rego Park,QBPL_WIRELESS,,"(40.72731656, -73.86450283)"
706,BK,Free,BPL,Dyker - Brooklyn Public Library,8202 13 AVENUE,40.61630814,-74.01198852,980921.6402,163814.285,Library,,Brooklyn,BPLUNWIRED,,"(40.61630814, -74.01198852)"
707,BK,Free,BPL,Carroll Gardens - Brooklyn Public Library,396 CLINTON STREET,40.68321352,-73.99801906,984799.4149,188189.5361,Library,,Brooklyn,BPLUNWIRED,,"(40.68321352, -73.99801906)"
708,QU,Free,QPL,Auburndale,25-55 FRANCIS LEWIS BOULEVARD,40.77375211,-73.79634319,1040657.608,221241.1317,Library,,Flushing,QBPL_WIRELESS,,"(40.77375211, -73.79634319)"
709,QU,Free,QPL,Langston Hughes,100-01 NORTHERN BOULEVARD,40.7577119,-73.8682003,1020763.881,215359.051,Library,,Corona,QBPL_WIRELESS,,"(40.7577119, -73.8682003)"
710,QU,Free,QPL,Whitestone,151-10 14 ROAD,40.78853144,-73.81071656,1036664.931,226616.803,Library,,Whitestone,QBPL_WIRELESS,,"(40.78853144, -73.81071656)"
711,BK,Free,BPL,Spring Creek - Brooklyn Public Library,12143 FLATLANDS AVENUE,40.65326407,-73.88590905,1015907.402,177298.716,Library,,Brooklyn,BPLUNWIRED,,"(40.65326407, -73.88590905)"
712,QU,Free,QPL,Briarwood,85-12 MAIN STREET,40.71003456,-73.81945312,1034304.618,198012.813,Library,,Briarwood,QBPL_WIRELESS,,"(40.71003456, -73.81945312)"
713,BX,Free,NYPL,Tremont,1866 WASHINGTON AVENUE,40.84604232,-73.89834026,1012376.542,247529.778,Library,,Bronx,NYPL,,"(40.84604232, -73.89834026)"
714,MN,Free,NYPL,Ottendorfer,135 SECOND AVENUE,40.7289209,-73.98778373,987635.8669,204842.34,Library,,New York,NYPL,,"(40.7289209, -73.98778373)"
715,MN,Free,NYPL,Fort Washington,535 WEST 179 STREET,40.84787004,-73.93386591,1002547.039,248186.2701,Library,,New York,NYPL,,"(40.84787004, -73.93386591)"
716,BK,Free,BPL,Windsor Terrace - Brooklyn Public Library,160 EAST 5 STREET,40.64871697,-73.97675728,990699.7187,175622.321,Library,,Brooklyn,BPLUNWIRED,,"(40.64871697, -73.97675728)"
717,BK,Free,BPL,Walt Whitman - Brooklyn Public Library,93 ST EDWARDS STREET,40.6944897,-73.97773263,990424.8243,192298.5577,Library,,Brooklyn,BPLUNWIRED,,"(40.6944897, -73.97773263)"
718,BK,Free,BPL,Midwood - Brooklyn Public Library,975 EAST 16 STREET,40.62589331,-73.96031449,995266.2617,167308.6831,Library,,Brooklyn,BPLUNWIRED,,"(40.62589331, -73.96031449)"
719,MN,Free,NYPL,Library For Performing Arts,40 LINCOLN CENTER PLAZA,40.77350699,-73.98454685,988530.1391,221086.633,Library,,New York,NYPL,,"(40.77350699, -73.98454685)"
720,BK,Free,BPL,Arlington - Brooklyn Public Library,203 ARLINGTON AVENUE,40.68068711,-73.88723951,1015525.371,187289.216,Library,Temporary Closing,Brooklyn,BPLUNWIRED,,"(40.68068711, -73.88723951)"
721,QU,Free,QPL,Cambria Heights,220-20 LINDEN BOULEVARD,40.69477729,-73.73964257,1056447.673,192509.845,Library,,Cambria Heights,QBPL_WIRELESS,,"(40.69477729, -73.73964257)"
722,BK,Free,BPL,Gravesend - Brooklyn Public Library,303 AVENUE X,40.59054439,-73.97180845,992079.8111,154428.9209,Library,,Brooklyn,BPLUNWIRED,,"(40.59054439, -73.97180845)"
723,QU,Free,QPL,Mitchell-Linden,29-42 UNION STREET,40.77112552,-73.82691581,1032191.694,220265.9719,Library,,Flushing,QBPL_WIRELESS,,"(40.77112552, -73.82691581)"
724,QU,Free,QPL,Flushing,41-17 MAIN STREET,40.75777407,-73.82888469,1031655.848,215400.5338,Library,,Flushing,QBPL_WIRELESS,,"(40.75777407, -73.82888469)"
725,QU,Free,QPL,Windsor Park,79-50 BELL BOULEVARD,40.73448626,-73.75568167,1051959.657,206964.1639,Library,,Bayside,QBPL_WIRELESS,,"(40.73448626, -73.75568167)"
726,MN,Free,NYPL,Terrence Cardinal Cooke-Cathedral,560 LEXINGTON AVENUE,40.75685718,-73.97263247,991832.0189,215021.363,Library,Temporary Closing,New York,NYPL,,"(40.75685718, -73.97263247)"
727,QU,Free,QPL,Pomonok,158-21 JEWEL AVENUE,40.73303424,-73.80987988,1036940.5,206397.9012,Library,,Flushing,QBPL_WIRELESS,,"(40.73303424, -73.80987988)"
728,BX,Free,NYPL,Spuyten Duyvil,650 WEST 235 STREET,40.88627338,-73.91467001,1007844.256,262182.6919,Library,,Bronx,NYPL,,"(40.88627338, -73.91467001)"
729,QU,Free,QPL,Laurelton,134-26 225 STREET,40.67695273,-73.74567356,1054794.125,186010.9522,Library,,Laurelton,QBPL_WIRELESS,,"(40.67695273, -73.74567356)"
730,BK,Free,BPL,Marcy - Brooklyn Public Library,617 DEKALB AVENUE,40.69162309,-73.9512835,997759.8486,191257.1389,Library,,Brooklyn,BPLUNWIRED,,"(40.69162309, -73.9512835)"
731,QU,Free,QPL,Fresh Meadows,193-20 HORACE HARDING EXPRESSWAY,40.74154357,-73.78227405,1044583.55,209515.9209,Library,,Fresh Meadows,QBPL_WIRELESS,,"(40.74154357, -73.78227405)"
732,BK,Free,BPL,Brighton Beach - Brooklyn Public Library,16 BRIGHTON 1 ROAD,40.57610775,-73.96677488,993479.8099,149169.7808,Library,,Brooklyn,BPLUNWIRED,,"(40.57610775, -73.96677488)"
733,QU,Free,QPL,East Flushing,196-36 NORTHERN BOULEVARD,40.75754568,-73.78430296,1044006.967,215344.5943,Library,,Flushing,QBPL_WIRELESS,,"(40.75754568, -73.78430296)"
734,BX,Free,NYPL,Edenwald,1255 EAST 233 STREET,40.8888949,-73.84083713,1028257.742,263166.3061,Library,,Bronx,NYPL,,"(40.8888949, -73.84083713)"
735,BK,Free,BPL,Bay Ridge - Brooklyn Public Library,7223 RIDGE BOULEVARD,40.63362571,-74.02953835,976051.4271,170124.6923,Library,,Brooklyn,BPLUNWIRED,,"(40.63362571, -74.02953835)"
736,BK,Free,BPL,Brooklyn Heights - Brooklyn Public Library,280 CADMAN PLAZA WEST,40.69568256,-73.99134799,986649.1924,192732.4843,Library,,Brooklyn,BPLUNWIRED,,"(40.69568256, -73.99134799)"
737,MN,Free,NYPL,St. Agnes,444 AMSTERDAM AVENUE,40.78483464,-73.97745212,990494.1401,225214.1031,Library,,New York,NYPL,,"(40.78483464, -73.97745212)"
738,QU,Free,QPL,Steinway,21-45 31 STREET,40.77681701,-73.90941702,1009337.979,222305.1788,Library,,Long Island City,QBPL_WIRELESS,,"(40.77681701, -73.90941702)"
739,QU,Free,QPL,Corona,38-23 104 STREET,40.75089408,-73.86197684,1022491.943,212877.757,Library,,Corona,QBPL_WIRELESS,,"(40.75089408, -73.86197684)"
740,BX,Free,NYPL,Westchester Square,2521 GLEBE AVENUE,40.84110509,-73.84662166,1026688.838,245751.79,Library,,Bronx,NYPL,,"(40.84110509, -73.84662166)"
741,MN,Free,NYPL,Inwood,4790 BROADWAY,40.86572954,-73.92585331,1004758.344,254694.9451,Library,,New York,NYPL,,"(40.86572954, -73.92585331)"
742,BK,Free,BPL,Borough Park - Brooklyn Public Library,1265 43 STREET,40.63888517,-73.98900778,987300.7249,172039.6622,Library,,Brooklyn,BPLUNWIRED,,"(40.63888517, -73.98900778)"
743,QU,Free,QPL,Sunnyside,43-06 GREENPOINT AVENUE,40.74080878,-73.92166916,1005956.342,209182.937,Library,,Long Island City,QBPL_WIRELESS,,"(40.74080878, -73.92166916)"
744,QU,Free,QPL,Maspeth,69-70 GRAND AVENUE,40.72699537,-73.89310456,1013878.045,204158.6501,Library,,Maspeth,QBPL_WIRELESS,,"(40.72699537, -73.89310456)"
745,MN,Free,NYPL,George Bruce,518 WEST 125 STREET,40.81377343,-73.95706391,996135.0379,235759.626,Library,,New York,NYPL,,"(40.81377343, -73.95706391)"
746,MN,Free,NYPL,Riverside,127 AMSTERDAM AVENUE,40.77420291,-73.98445465,988555.6298,221340.1824,Library,,New York,NYPL,,"(40.77420291, -73.98445465)"
747,MN,Free,NYPL,Countee Cullen,104 WEST 136 STREET,40.81482041,-73.94119767,1000526.675,236143.6278,Library,,New York,NYPL,,"(40.81482041, -73.94119767)"
748,QU,Free,QPL,East Elmhurst,95-06 ASTORIA BOULEVARD,40.76242213,-73.87386663,1019191.606,217072.8294,Library,,East Elmhurst,QBPL_WIRELESS,,"(40.76242213, -73.87386663)"
749,QU,Free,QPL,Bellerose,250-06 HILLSIDE AVENUE,40.73515699,-73.71709897,1062651.529,207240.7073,Library,,Bellerose,QBPL_WIRELESS,,"(40.73515699, -73.71709897)"
750,BK,Free,BPL,Brownsville - Brooklyn Public Library,61 GLENMORE AVENUE,40.67152666,-73.90860343,1009603.335,183944.8979,Library,,Brooklyn,BPLUNWIRED,,"(40.67152666, -73.90860343)"
751,BK,Free,BPL,Crown Heights - Brooklyn Public Library,560 NEW YORK AVENUE,40.66118931,-73.9481023,998648.6139,180169.749,Library,,Brooklyn,BPLUNWIRED,,"(40.66118931, -73.9481023)"
752,BK,Free,BPL,Eastern Parkway - Brooklyn Public Library,1044 EASTERN PARKWAY,40.66848651,-73.93365085,1002656.042,182831.0307,Library,,Brooklyn,BPLUNWIRED,,"(40.66848651, -73.93365085)"
753,QU,Free,QPL,Bay Terrace,18-36 BELL BOULEVARD,40.7825312,-73.77700881,1046004.57,224452.683,Library,,Bayside,QBPL_WIRELESS,,"(40.7825312, -73.77700881)"
754,QU,Free,QPL,St. Albans,191-05 LINDEN BOULEVARD,40.69252805,-73.76010879,1050774.606,191674.179,Library,,Saint Albans,QBPL_WIRELESS,,"(40.69252805, -73.76010879)"
755,MN,Free,NYPL,67th Street,328 EAST 67 STREET,40.76491501,-73.95954995,995455.1029,217958.4969,Library,,New York,NYPL,,"(40.76491501, -73.95954995)"
756,MN,Free,NYPL,Yorkville,222 EAST 79 STREET,40.77360582,-73.95640407,996324.9689,221125.2671,Library,,New York,NYPL,,"(40.77360582, -73.95640407)"
757,QU,Free,QPL,Peninsula,92-25 ROCKAWAY BEACH BOULEVARD,40.58583941,-73.81606162,1035339.884,152767.1571,Library,,Rockaway Beach,QBPL_WIRELESS,,"(40.58583941, -73.81606162)"
758,SI,Free,NYPL,Huguenot Park,830 HUGUENOT AVENUE,40.5340583,-74.19323686,930535.802,133907.6479,Library,,Staten Island,NYPL,,"(40.5340583, -74.19323686)"
759,BK,Free,BPL,Ulmer Park - Brooklyn Public Library,2602 BATH AVENUE,40.59265313,-73.9886821,987393.2909,155196.1313,Library,,Brooklyn,BPLUNWIRED,,"(40.59265313, -73.9886821)"
760,QU,Free,QPL,Hollis,202-05 HILLSIDE AVENUE,40.72016843,-73.76230411,1050138.493,201742.7019,Library,,Hollis,QBPL_WIRELESS,,"(40.72016843, -73.76230411)"
761,BK,Free,BPL,Flatlands - Brooklyn Public Library,2065 FLATBUSH AVENUE,40.6197682,-73.93321326,1002790.968,165081.7158,Library,,Brooklyn,BPLUNWIRED,,"(40.6197682, -73.93321326)"
762,BK,Free,BPL,Kensington - Brooklyn Public Library,410 DITMAS AVENUE,40.63569422,-73.97459471,991301.1949,170877.946,Library,,Brooklyn,BPLUNWIRED,,"(40.63569422, -73.97459471)"
763,SI,Free,NYPL,Todt Hill-Westerleigh,2550 VICTORY BOULEVARD,40.6095775,-74.14850245,943017.2888,161396.861,Library,,Staten Island,NYPL,,"(40.6095775, -74.14850245)"
764,QU,Free,QPL,North Hills,57-04 MARATHON PARKWAY,40.75924513,-73.73182668,1058543.123,216003.9112,Library,,Little Neck,QBPL_WIRELESS,,"(40.75924513, -73.73182668)"
765,QU,Free,QPL,Baisley Park,117-11 SUTPHIN BOULEVARD,40.68031131,-73.79167861,1042030.532,187200.8793,Library,Temporary Closing,Jamaica,QBPL_WIRELESS,,"(40.68031131, -73.79167861)"
766,QU,Free,QPL,Glendale,78-60 73 PLACE,40.70257666,-73.87579711,1018687.738,195268.5091,Library,,Glendale,QBPL_WIRELESS,,"(40.70257666, -73.87579711)"
767,BX,Free,NYPL,Sedgwick,1701 MARTIN LUTHER KING JR BOULEVARD,40.84949408,-73.91757753,1007052.92,248781.7902,Library,,Bronx,NYPL,,"(40.84949408, -73.91757753)"
768,BK,Free,BPL,Williamsburgh - Brooklyn Public Library,240 DIVISION AVENUE,40.70693042,-73.95755461,996018.068,196833.151,Library,,Brooklyn,BPLUNWIRED,,"(40.70693042, -73.95755461)"
769,BK,Free,BPL,Kings Highway - Brooklyn Public Library,2115 OCEAN AVENUE,40.61025667,-73.95310585,997270.3519,161612.834,Library,,Brooklyn,BPLUNWIRED,,"(40.61025667, -73.95310585)"
770,MN,Free,NYPL,Harlem,9 WEST 124 STREET,40.80616044,-73.9433156,999942.4683,232988.1079,Library,,New York,NYPL,,"(40.80616044, -73.9433156)"
771,BX,Free,NYPL,High Bridge,78 WEST 168 STREET,40.83795891,-73.92353961,1005407.124,244577.6001,Library,,Bronx,NYPL,,"(40.83795891, -73.92353961)"
772,QU,Free,QPL,Lefferts,103-34 LEFFERTS BOULEVARD,40.68690729,-73.8248297,1032830.873,189583.8528,Library,,Richmond Hill,QBPL_WIRELESS,,"(40.68690729, -73.8248297)"
773,BK,Free,BPL,Park Slope - Brooklyn Public Library,431 6 AVENUE,40.66821669,-73.98342743,988847.4458,182726.193,Library,,Brooklyn,BPLUNWIRED,,"(40.66821669, -73.98342743)"
774,BX,Free,NYPL,Clason's Point,1215 MORRISON AVENUE,40.82999288,-73.8750206,1018836.808,241690.7181,Library,,Bronx,NYPL,,"(40.82999288, -73.8750206)"
775,QU,Free,QPL,"Ravenswood, Now a Family Literacy Center",35-32 21 STREET,40.76064312,-73.93647199,1001849.075,216405.9019,Library,,Long Island City,QBPL_WIRELESS,,"(40.76064312, -73.93647199)"
776,QU,Free,QPL,Woodside,54-22 SKILLMAN AVENUE,40.74534171,-73.90979374,1009245.451,210837.5931,Library,,Woodside,QBPL_WIRELESS,,"(40.74534171, -73.90979374)"
777,QU,Free,QPL,Hillcrest,187-05 UNION TURNPIKE,40.72925295,-73.78190892,1044695.879,205038.3239,Library,,Flushing,QBPL_WIRELESS,,"(40.72925295, -73.78190892)"
778,BK,Free,BPL,Bushwick - Brooklyn Public Library,340 BUSHWICK AVENUE,40.70455906,-73.93961842,1000991.508,195972.112,Library,,Brooklyn,BPLUNWIRED,,"(40.70455906, -73.93961842)"
779,BX,Free,NYPL,Woodstock,761 EAST 160 STREET,40.82064156,-73.90462886,1010646.729,238273.391,Library,,Bronx,NYPL,,"(40.82064156, -73.90462886)"
780,QU,Free,QPL,Howard Beach,92-06 156 AVENUE,40.66380446,-73.84179686,1028140.489,181157.891,Library,,Howard Beach,QBPL_WIRELESS,,"(40.66380446, -73.84179686)"
781,MN,Free,NYPL,Science Industry And Business,188 MADISON AVENUE,40.7481247,-73.9830631,988942.8876,211839.1069,Library,,New York,NYPL,,"(40.7481247, -73.9830631)"
782,MN,Free,NYPL,Roosevelt Island,524 MAIN STREET,40.76125337,-73.95016589,998055.3467,216625.783,Library,,New York,NYPL,,"(40.76125337, -73.95016589)"
783,BX,Free,NYPL,Castle Hill,947 CASTLE HILL AVENUE,40.82660923,-73.85018146,1025712.896,240468.7143,Library,,Bronx,NYPL,,"(40.82660923, -73.85018146)"
784,BK,Free,BPL,Bedford - Brooklyn Public Library,496 FRANKLIN AVENUE,40.6818102,-73.95610851,996423.5875,187681.3104,Library,,Brooklyn,BPLUNWIRED,,"(40.6818102, -73.95610851)"
785,BX,Free,NYPL,Throg's Neck,3025 CROSS BRONX EXPRESSWAY,40.82290357,-73.81909364,1034319.355,239134.8541,Library,,Bronx,NYPL,,"(40.82290357, -73.81909364)"
786,QU,Free,QPL,Rochdale Village,169-09 137 AVENUE,40.6728752,-73.77059022,1047886.743,184506.3157,Library,,Jamaica,QBPL_WIRELESS,,"(40.6728752, -73.77059022)"
787,QU,Free,QPL,Ridgewood,20-12 MADISON STREET,40.70517231,-73.90257238,1011262.711,196204.7891,Library,,Ridgewood,QBPL_WIRELESS,,"(40.70517231, -73.90257238)"
788,QU,Free,QPL,Far Rockaway,1637 CENTRAL AVENUE,40.60477211,-73.75209189,1053088.261,159708.593,Library,,Far Rockaway,QBPL_WIRELESS,,"(40.60477211, -73.75209189)"
789,BK,Free,BPL,Leonard - Brooklyn Public Library,81 DEVOE STREET,40.71364489,-73.94793571,998683.4731,199280.8712,Library,,Brooklyn,BPLUNWIRED,,"(40.71364489, -73.94793571)"
790,QU,Free,QPL,South Jamaica,108-41 GUY R BREWER BOULEVARD,40.69554015,-73.79022739,1042419.758,192750.1329,Library,,Jamaica,QBPL_WIRELESS,,"(40.69554015, -73.79022739)"
791,BK,Free,BPL,Ryder - Brooklyn Public Library,5902 23 AVENUE,40.61591608,-73.97604049,990901.8919,163672.1297,Library,,Brooklyn,BPLUNWIRED,,"(40.61591608, -73.97604049)"
792,BK,Free,BPL,Fort Hamilton - Brooklyn Public Library,9424 FOURTH AVENUE,40.61637311,-74.03136941,975540.9547,163839.2882,Library,,Brooklyn,BPLUNWIRED,,"(40.61637311, -74.03136941)"
793,BX,Free,NYPL,Belmont Library-Enrico Fermi Cultural Center,610 EAST 186 STREET,40.85434691,-73.88788943,1015264.133,250558.9779,Library,,Bronx,NYPL,,"(40.85434691, -73.88788943)"
794,QU,Free,QPL,Broad Channel,16-26 CROSS BAY BOULEVARD,40.60073211,-73.82005266,1034220.207,158190.6308,Library,,Broad Channel,QBPL_WIRELESS,,"(40.60073211, -73.82005266)"
795,SI,Free,NYPL,Richmondtown,200 CLARKE AVENUE,40.56653015,-74.13853388,945760.3257,145709.1099,Library,,Staten Island,NYPL,,"(40.56653015, -74.13853388)"
796,MN,Free,NYPL,Stephen A. Schwarzman Building,5 AVENUE & 42 STREET,40.75318405,-73.9821581,989193.269,213682.4408,Library,Temporary Closing,New York,NYPL,,"(40.75318405, -73.9821581)"
797,MN,Free,NYPL,Hudson Park,66 LEROY STREET,40.72998291,-74.00533101,982772.4767,205229.0729,Library,,New York,NYPL,,"(40.72998291, -74.00533101)"
798,QU,Free,QPL,South Ozone Park,128-16 ROCKAWAY BOULEVARD,40.67477693,-73.80926182,1037158.009,185173.4397,Library,,South Ozone Park,QBPL_WIRELESS,,"(40.67477693, -73.80926182)"
799,QU,Free,QPL,North Forest Park,98-27 METROPOLITAN AVENUE,40.71118563,-73.85367278,1024816.907,198414.4818,Library,,Forest Hills,QBPL_WIRELESS,,"(40.71118563, -73.85367278)"
800,MN,Free,NYPL,Jefferson Market,425 AVENUE OF AMERICAS,40.73460553,-73.99916928,984480.222,206913.1909,Library,,New York,NYPL,,"(40.73460553, -73.99916928)"
801,BK,Free,BPL,East Flatbush - Brooklyn Public Library,9612 CHURCH AVENUE,40.6557102,-73.91493839,1007851.62,178180.7516,Library,,Brooklyn,BPLUNWIRED,,"(40.6557102, -73.91493839)"
802,QU,Free,QPL,Ozone Park,92-24 ROCKAWAY BOULEVARD,40.68086185,-73.84648873,1026827.93,187370.0577,Library,,Ozone Park,QBPL_WIRELESS,,"(40.68086185, -73.84648873)"
803,BK,Free,BPL,Stone Avenue - Brooklyn Public Library,581 MOTHER GASTON BOULEVARD,40.66445379,-73.90522231,1010544.043,181369.052,Library,,Brooklyn,BPLUNWIRED,,"(40.66445379, -73.90522231)"
804,BK,Free,BPL,Cortelyou - Brooklyn Public Library,1305 CORTELYOU ROAD,40.64080355,-73.96596508,993695.6107,172740.2238,Library,,Brooklyn,BPLUNWIRED,,"(40.64080355, -73.96596508)"
805,QU,Free,QPL,Richmond Hill,118-14 HILLSIDE AVENUE,40.70076527,-73.83162542,1030936.479,194629.0179,Library,,Richmond Hill,QBPL_WIRELESS,,"(40.70076527, -73.83162542)"
806,MN,Free,NYPL,Epiphany,228 EAST 23 STREET,40.73808712,-73.98204889,989224.6551,208182.1542,Library,,New York,NYPL,,"(40.73808712, -73.98204889)"
807,MN,Free,NYPL,Seward Park,192 EAST BROADWAY,40.71445646,-73.98853727,987427.7059,199572.47,Library,,New York,NYPL,,"(40.71445646, -73.98853727)"
808,BK,Free,BPL,Macon - Brooklyn Public Library,361 LEWIS AVENUE,40.6830049,-73.93480547,1002331.8,188120.2547,Library,,Brooklyn,BPLUNWIRED,,"(40.6830049, -73.93480547)"
809,MN,Free,NYPL,Schomburg Center For Research In Black Culture,515 MALCOLM X BOULEVARD,40.81468863,-73.94095299,1000594.437,236095.6607,Library,,New York,NYPL,,"(40.81468863, -73.94095299)"
810,BX,Free,NYPL,Grand Concourse,155 EAST 173 STREET,40.84400191,-73.91008714,1009127.255,246782.8251,Library,,Bronx,NYPL,,"(40.84400191, -73.91008714)"
811,BK,Free,BPL,Paerdegat - Brooklyn Public Library,850 EAST 59 STREET,40.63263699,-73.91998488,1006459.073,169773.236,Library,,Brooklyn,BPLUNWIRED,,"(40.63263699, -73.91998488)"
812,BX,Free,NYPL,Eastchester,1385 EAST GUNHILL ROAD,40.8701397,-73.84506428,1027101.044,256330.9559,Library,,Bronx,NYPL,,"(40.8701397, -73.84506428)"
813,SI,Free,NYPL,New Dorp,309 NEW DORP LANE,40.57193185,-74.11195815,953146.5261,147666.5239,Library,,Staten Island,NYPL,,"(40.57193185, -74.11195815)"
814,BX,Free,NYPL,Wakefield,4100 LOWERRE PLACE,40.89108507,-73.85958124,1023073.813,263955.4105,Library,,Bronx,NYPL,,"(40.89108507, -73.85958124)"
815,BK,Free,BPL,Mill Basin - Brooklyn Public Library,2385 RALPH AVENUE,40.61986842,-73.91702121,1007286.08,165122.073,Library,,Brooklyn,BPLUNWIRED,,"(40.61986842, -73.91702121)"
816,SI,Free,NYPL,West New Brighton,976 CASTLETON AVENUE,40.63450894,-74.11482187,952380.8291,170465.981,Library,,Staten Island,NYPL,,"(40.63450894, -74.11482187)"
817,MN,Free,NYPL,Kips Bay,446 THIRD AVENUE,40.74382263,-73.97990765,989817.56,210271.9112,Library,,New York,NYPL,,"(40.74382263, -73.97990765)"
818,MN,Free,NYPL,Andrew Heiskell Braille & Talking Book Library,40 WEST 20 STREET,40.74046546,-73.99335691,986090.8831,209048.2171,Library,,New York,NYPL,,"(40.74046546, -73.99335691)"
819,BX,Free,NYPL,Jerome Park,118 EAMES PLACE,40.86903939,-73.90119379,1011577.594,255907.586,Library,,Bronx,NYPL,,"(40.86903939, -73.90119379)"
820,QU,Free,QPL,Broadway,40-20 BROADWAY,40.75852927,-73.91862332,1006794.38,215639.847,Library,,Long Island City,QBPL_WIRELESS,,"(40.75852927, -73.91862332)"
821,QU,Free,QPL,Elmhurst,86-01 BROADWAY,40.73858146,-73.87675877,1018402.644,208385.7719,Library,,Elmhurst,QBPL_WIRELESS,,"(40.73858146, -73.87675877)"
822,QU,Free,QPL,Central Adult Learning Center,91-14 MERRICK BOULEVARD,40.70596209,-73.79440753,1041251.7,196544.3999,Library,,Jamaica,QBPL_WIRELESS,,"(40.70596209, -73.79440753)"
823,SI,Free,NYPL,Great Kills,56 GIFFORDS LANE,40.55242326,-74.15111164,942256.9088,140575.4151,Library,,Staten Island,NYPL,,"(40.55242326, -74.15111164)"
824,MN,Free,NYPL,New Amsterdam,9 MURRAY STREET,40.71360652,-74.00786167,982070.5539,199262.6993,Library,,New York,NYPL,,"(40.71360652, -74.00786167)"
825,MN,Free,NYPL,Hamilton Fish Park,415 EAST HOUSTON STREET,40.71939728,-73.9796056,989903.3319,201373.0133,Library,,New York,NYPL,,"(40.71939728, -73.9796056)"
826,BX,Free,NYPL,Hunt's Point,877 SOUTHERN BOULEVARD,40.8186874,-73.89413564,1013551.89,237564.7559,Library,,Bronx,NYPL,,"(40.8186874, -73.89413564)"
827,BX,Free,NYPL,Allerton,2740 BARNES AVENUE,40.86680443,-73.86322248,1022080.875,255107.4242,Library,,Bronx,NYPL,,"(40.86680443, -73.86322248)"
828,MN,Free,NYPL,Chatham Square,33 EAST BROADWAY,40.71333307,-73.99648987,985223.0981,199162.9967,Library,,New York,NYPL,,"(40.71333307, -73.99648987)"
829,QU,Free,QPL,Bayside,214-20 NORTHERN BOULEVARD,40.76012558,-73.76836198,1048420.781,216295.8099,Library,,Bayside,QBPL_WIRELESS,,"(40.76012558, -73.76836198)"
830,QU,Free,QPL,Seaside,116-15 ROCKAWAY BEACH BOULEVARD,40.57939087,-73.8377356,1029324.177,150405.902,Library,,Rockaway Park,QBPL_WIRELESS,,"(40.57939087, -73.8377356)"
831,BK,Free,BPL,Coney Island - Brooklyn Public Library,1901 MERMAID AVENUE,40.57663778,-73.98606199,988121.8935,149361.4412,Library,,Brooklyn,BPLUNWIRED,,"(40.57663778, -73.98606199)"
832,MN,Free,NYPL,Macomb's Bridge,2650 ADAM CLAYTON POWELL JR BOULEVARD,40.82656708,-73.93593959,1001979,240424.3847,Library,,New York,NYPL,,"(40.82656708, -73.93593959)"
833,QU,Free,QPL,Long Island City,37-44 21 STREET,40.75780343,-73.9393093,1001063.775,215370.753,Library,,Long Island City,QBPL_WIRELESS,,"(40.75780343, -73.9393093)"
834,BX,Free,NYPL,Bronx Library Center,310 East Kingsbridge Road,40.86298061,-73.89450289,1013430.807,253702.2928,Library,,Bronx,NYPL,,"(40.86298061, -73.89450289)"
835,BX,Free,NYPL,Morris Park,985 MORRIS PARK AVENUE,40.84802911,-73.85695785,1023824.759,248269.6298,Library,,Bronx,NYPL,,"(40.84802911, -73.85695785)"
836,MN,Free,NYPL,Mulberry Street,10 Jersey Street,40.72409636,-73.99569899,985442.1557,203084.4029,Library,,New York,NYPL,,"(40.72409636, -73.99569899)"
837,MN,Free,NYPL,Grand Central,135 EAST 46 STREET,40.75406788,-73.97356772,991573.2212,214005.0501,Library,,New York,NYPL,,"(40.75406788, -73.97356772)"
905,MN,Free,Manhattan Down Alliance,13,"1-17 Gouverneur Lane, New York, NY 10005, USA",40.7041016,-74.0076981,982115.5958,195799.7679,Outdoor,,New York,#DwtwnAllianceFreeWiFi,,"(40.7041016, -74.0076981)"
906,MN,Free,Manhattan Down Alliance,14,"42 South Street, New York, NY 10005, USA",40.7036018,-74.0074997,982170.5894,195617.6712,Outdoor,,New York,#DwtwnAllianceFreeWiFi,,"(40.7036018, -74.0074997)"
907,MN,Free,Manhattan Down Alliance,15,"29-43 Old Slip, New York, NY 10004, USA",40.7033997,-74.0084,981920.9597,195544.0627,Outdoor,,New York,#DwtwnAllianceFreeWiFi,,"(40.7033997, -74.0084)"
908,MN,Free,Manhattan Down Alliance,16,"13 Hanover Square, New York, NY 10004, USA",40.7041016,-74.009201,981698.8962,195799.8083,Outdoor,,New York,#DwtwnAllianceFreeWiFi,,"(40.7041016, -74.009201)"
909,MN,Free,Manhattan Down Alliance,17,"55 Water Street, New York, NY 10041, USA",40.7033005,-74.0093002,981671.3605,195507.9463,Outdoor,,New York,#DwtwnAllianceFreeWiFi,,"(40.7033005, -74.0093002)"
910,MN,Free,Manhattan Down Alliance,18,"55 Water Street, New York, NY 10041, USA",40.7028999,-74.0095978,981588.8298,195362.0047,Outdoor,,New York,#DwtwnAllianceFreeWiFi,,"(40.7028999, -74.0095978)"
911,MN,Free,Manhattan Down Alliance,19,"55 Water Street, New York, NY 10041, USA",40.7028008,-74.0094986,981616.331,195325.8968,Outdoor,,New York,#DwtwnAllianceFreeWiFi,,"(40.7028008, -74.0094986)"
912,MN,Free,Manhattan Down Alliance,20,"23-39 Water Street, New York, NY 10004, USA",40.7030983,-74.0106964,981284.2313,195434.3231,Outdoor,,New York,#DwtwnAllianceFreeWiFi,,"(40.7030983, -74.0106964)"
913,MN,Free,Manhattan Down Alliance,21,"77 Whitehall Street, New York, NY 10004, USA",40.702301,-74.0126038,980755.3285,195143.9132,Outdoor,,New York,#DwtwnAllianceFreeWiFi,,"(40.702301, -74.0126038)"
914,MN,Free,Manhattan Down Alliance,22,"83-85 Whitehall Street, New York, NY 10004, USA",40.7019005,-74.0124969,980784.9479,194997.9949,Outdoor,,New York,#DwtwnAllianceFreeWiFi,,"(40.7019005, -74.0124969)"
915,MN,Free,Manhattan Down Alliance,23,"Downtown Manhattan Heliport, 6 East River Piers, New York, USA",40.7015991,-74.0093002,981671.2948,194888.0755,Outdoor,,New York,#DwtwnAllianceFreeWiFi,,"(40.7015991, -74.0093002)"
916,MN,Free,Manhattan Down Alliance,24,"11-27 Canyon of Heroes, New York, NY 10004, USA",40.705101,-74.0139999,980368.3932,196164.0956,Outdoor,,New York,#DwtwnAllianceFreeWiFi,,"(40.705101, -74.0139999)"
917,MN,Free,Manhattan Down Alliance,25,"10-30 Broadway, New York, NY 10004, USA",40.705101,-74.0139008,980395.8696,196164.0913,Outdoor,,New York,#DwtwnAllianceFreeWiFi,,"(40.705101, -74.0139008)"
918,MN,Free,Manhattan Down Alliance,26,"2-8 Coenties Alley, New York, NY 10004, USA",40.7041016,-74.0105972,981311.7805,195799.8519,Outdoor,,New York,#DwtwnAllianceFreeWiFi,,"(40.7041016, -74.0105972)"
919,MN,Free,Manhattan Down Alliance,27,"79 Pearl Street, New York, NY 10004, USA",40.7038994,-74.0103989,981366.7531,195726.1778,Outdoor,,New York,#DwtwnAllianceFreeWiFi,,"(40.7038994, -74.0103989)"
920,MN,Free,Manhattan Down Alliance,28,"95 Pearl Street, New York, NY 10004, USA",40.7043991,-74.0101013,981449.2881,195908.2237,Outdoor,,New York,#DwtwnAllianceFreeWiFi,,"(40.7043991, -74.0101013)"
921,MN,Free,Manhattan Down Alliance,29,"54 Stone Street, New York, NY 10004, USA",40.7042999,-74.0102005,981421.7793,195872.0853,Outdoor,,New York,#DwtwnAllianceFreeWiFi,,"(40.7042999, -74.0102005)"
922,MN,Free,Manhattan Down Alliance,30,"74 Broadway, New York, NY 10006, USA",40.707901,-74.0121994,980867.7413,197184.1451,Outdoor,,New York,#DwtwnAllianceFreeWiFi,,"(40.707901, -74.0121994)"
923,MN,Free,Manhattan Down Alliance,31,"111 Greenwich Street, New York, NY 10006, USA",40.7086983,-74.0130997,980618.1782,197474.6615,Outdoor,,New York,#DwtwnAllianceFreeWiFi,,"(40.7086983, -74.0130997)"
924,MN,Free,Manhattan Down Alliance,32,"250 Greenwich Street, New York, NY 10007, USA",40.7130013,-74.0118027,980977.9757,199042.3238,Outdoor,,New York,#DwtwnAllianceFreeWiFi,,"(40.7130013, -74.0118027)"
925,MN,Free,Manhattan Down Alliance,33,"250 Greenwich Street, New York, NY 10007, USA",40.7132988,-74.0118027,980977.9905,199150.712,Outdoor,,New York,#DwtwnAllianceFreeWiFi,,"(40.7132988, -74.0118027)"
926,MN,Free,Manhattan Down Alliance,34,"75 Broadway, New York, NY 10006, USA",40.7081985,-74.0121002,980895.259,197292.5297,Outdoor,,New York,#DwtwnAllianceFreeWiFi,,"(40.7081985, -74.0121002)"
927,MN,Free,Manhattan Down Alliance,35,"75 Broadway, New York, NY 10006, USA",40.7080994,-74.0119019,980950.2323,197256.4169,Outdoor,,New York,#DwtwnAllianceFreeWiFi,,"(40.7080994, -74.0119019)"
928,MN,Free,Manhattan Down Alliance,36,"74 Broadway, New York, NY 10006, USA",40.7080002,-74.0118027,980977.7303,197220.2716,Outdoor,,New York,#DwtwnAllianceFreeWiFi,,"(40.7080002, -74.0118027)"
1790,MN,Free,CBS Outdoor LLC,Public Pay Telephone,115  4 AVENUE,40.73291929,-73.98998354,987026,206298.9999,Payphone,Outdoor Installation,New York,NYC Free WiFi,,"(40.73291929, -73.98998354)"
1791,MN,Free,CBS Outdoor LLC,Public Pay Telephone,126  EAST 39 STREET,40.74968802,-73.97781099,990398.0002,212409.0001,Payphone,Outdoor Installation,New York,NYC Free WiFi,,"(40.74968802, -73.97781099)"
1792,MN,Free,CBS Outdoor LLC,Public Pay Telephone,451  3 AVENUE,40.74391337,-73.97943328,989949.0001,210305,Payphone,Outdoor Installation,New York,NYC Free WiFi,,"(40.74391337, -73.97943328)"
1793,MN,Free,CBS Outdoor LLC,Public Pay Telephone,824  BROADWAY,40.73310054,-73.99112733,986709,206365,Payphone,Outdoor Installation,New York,NYC Free WiFi,,"(40.73310054, -73.99112733)"
1794,MN,Free,CBS Outdoor LLC,Public Pay Telephone,45  3 AVENUE,40.73063008,-73.98910351,987269.9999,205464.9999,Payphone,Outdoor Installation,New York,NYC Free WiFi,,"(40.73063008, -73.98910351)"
1795,QU,Free,CBS Outdoor LLC,Public Pay Telephone,30-94  STEINWAY STREET,40.76201128,-73.91654119,1007370,216909,Payphone,Outdoor Installation,Queens,NYC Free WiFi,,"(40.76201128, -73.91654119)"
947,MN,Free,"TITAN OUTDOOR COMMUNICATIONS, INC.",Public Pay Telephone,1609 BROADWAY,40.76060772,-73.98456117,988527,216387,Payphone,Outdoor Installation,New York,NYC Free WiFi,,"(40.76060772, -73.98456117)"
950,MN,Free,TELEBEAM TELECOMMUNICATIONS CORPORATION,Public Pay Telephone,62 9 AVENUE,40.74150521,-74.00494753,982879.0001,209427.0002,Payphone,Outdoor Installation,New York,NYC Free WiFi,,"(40.74150521, -74.00494753)"
952,BK,Free,TELEBEAM TELECOMMUNICATIONS CORPORATION,Public Pay Telephone,304 5 AVENUE,40.67349152,-73.98271754,989043.9999,184647.9998,Payphone,Outdoor Installation,Brooklyn,NYC Free WiFi,,"(40.67349152, -73.98271754)"
956,MN,Free,TELEBEAM TELECOMMUNICATIONS CORPORATION,Public Pay Telephone,2061 BROADWAY,40.77818742,-73.98211266,989203.9999,222792,Payphone,Outdoor Installation,New York,NYC Free WiFi,,"(40.77818742, -73.98211266)"
1796,BK,Free,CBS Outdoor LLC,Public Pay Telephone,398  PEARL STREET,40.69198923,-73.98821192,987519,191387.0002,Payphone,Outdoor Installation,Brooklyn,NYC Free WiFi,,"(40.69198923, -73.98821192)"
1797,BK,Free,CBS Outdoor LLC,Public Pay Telephone,458  ALBEE SQUARE,40.69031709,-73.98350288,988825,190778.0001,Payphone,Outdoor Installation,Brooklyn,NYC Free WiFi,,"(40.69031709, -73.98350288)"
1798,BK,Free,CBS Outdoor LLC,Public Pay Telephone,1  GALLATIN PLACE,40.69095702,-73.98654976,987980.0001,191010.9999,Payphone,Outdoor Installation,Brooklyn,NYC Free WiFi,,"(40.69095702, -73.98654976)"
1799,MN,Free,CBS Outdoor LLC,Public Pay Telephone,175  2 AVENUE,40.73047883,-73.98631447,988042.9999,205410,Payphone,Outdoor Installation,New York,NYC Free WiFi,,"(40.73047883, -73.98631447)"
1800,MN,Free,CBS Outdoor LLC,Public Pay Telephone,192  2 AVENUE,40.73111006,-73.98583085,988177,205639.9999,Payphone,Outdoor Installation,New York,NYC Free WiFi,,"(40.73111006, -73.98583085)"
1801,QU,Free,CBS Outdoor LLC,Public Pay Telephone,42-20  BROADWAY,40.75810597,-73.91717776,1007195,215485.9999,Payphone,Outdoor Installation,Queens,NYC Free WiFi,,"(40.75810597, -73.91717776)"
1802,QU,Free,CBS Outdoor LLC,Public Pay Telephone,44-18  BROADWAY,40.75736099,-73.91559048,1007635,215215.0001,Payphone,Outdoor Installation,Queens,NYC Free WiFi,,"(40.75736099, -73.91559048)"
1803,BK,Free,CBS Outdoor LLC,Public Pay Telephone,7911  5 AVENUE,40.62634869,-74.02390961,977613.0001,167473.0001,Payphone,Outdoor Installation,Brooklyn,NYC Free WiFi,,"(40.62634869, -74.02390961)"
1804,QU,Free,CBS Outdoor LLC,Public Pay Telephone,84-54  63 ROAD,40.72361481,-73.8691981,1020506,202936,Payphone,Outdoor Installation,Queens,NYC Free WiFi,,"(40.72361481, -73.8691981)"
957,MN,Free,TELEBEAM TELECOMMUNICATIONS CORPORATION,Public Pay Telephone,711 6 AVENUE,40.74280336,-73.99288712,986221,209899.9999,Payphone,Outdoor Installation,New York,NYC Free WiFi,,"(40.74280336, -73.99288712)"
958,MN,Free,TELEBEAM TELECOMMUNICATIONS CORPORATION,Public Pay Telephone,80 1 AVENUE,40.72561791,-73.98671233,987932.9998,203638.9999,Payphone,Outdoor Installation,New York,NYC Free WiFi,,"(40.72561791, -73.98671233)"
959,MN,Free,TELEBEAM TELECOMMUNICATIONS CORPORATION,Public Pay Telephone,1260 BROADWAY,40.74839951,-73.9881442,987535,211939.0001,Payphone,Outdoor Installation,New York,NYC Free WiFi,,"(40.74839951, -73.9881442)"
964,MN,Free,TELEBEAM TELECOMMUNICATIONS CORPORATION,Public Pay Telephone,43 AVENUE C,40.72200765,-73.98037803,989688.9999,202323.9999,Payphone,Outdoor Installation,New York,NYC Free WiFi,,"(40.72200765, -73.98037803)"
965,MN,Free,TELEBEAM TELECOMMUNICATIONS CORPORATION,Public Pay Telephone,69 5 AVENUE,40.73610346,-73.99353374,986042,207459.0002,Payphone,Outdoor Installation,New York,NYC Free WiFi,,"(40.73610346, -73.99353374)"
966,MN,Free,TELEBEAM TELECOMMUNICATIONS CORPORATION,Public Pay Telephone,460 PARK AVENUE SOUTH,40.74509142,-73.98280363,989015,210733.9998,Payphone,Outdoor Installation,New York,NYC Free WiFi,,"(40.74509142, -73.98280363)"
967,BX,Free,TELEBEAM TELECOMMUNICATIONS CORPORATION,Public Pay Telephone,985 BRUCKNER BOULEVARD,40.8199205,-73.89123208,1014355,238015.0001,Payphone,Outdoor Installation,Bronx,NYC Free WiFi,,"(40.8199205, -73.89123208)"
1805,MN,Free,CBS Outdoor LLC,Public Pay Telephone,2279  3 AVENUE,40.80287111,-73.93640667,1001856,231791.0001,Payphone,Outdoor Installation,New York,NYC Free WiFi,,"(40.80287111, -73.93640667)"
1806,QU,Free,CBS Outdoor LLC,Public Pay Telephone,189-16  HILLSIDE AVENUE,40.71546616,-73.77253132,1047308,200021.9999,Payphone,Outdoor Installation,Queens,NYC Free WiFi,,"(40.71546616, -73.77253132)"
1807,MN,Free,CBS Outdoor LLC,Public Pay Telephone,201  EAST 39 STREET,40.74881751,-73.97569996,990983,212092.0001,Payphone,Outdoor Installation,New York,NYC Free WiFi,,"(40.74881751, -73.97569996)"
1808,MN,Free,CBS Outdoor LLC,Public Pay Telephone,424  WEST BROADWAY,40.72514108,-74.00144673,983849.0001,203464.9999,Payphone,Outdoor Installation,New York,NYC Free WiFi,,"(40.72514108, -74.00144673)"
968,BX,Free,TELEBEAM TELECOMMUNICATIONS CORPORATION,Public Pay Telephone,931 WESTCHESTER AVENUE,40.82186665,-73.89737833,1012653,238722,Payphone,Outdoor Installation,Bronx,NYC Free WiFi,,"(40.82186665, -73.89737833)"
969,BX,Free,TELEBEAM TELECOMMUNICATIONS CORPORATION,Public Pay Telephone,850 LONGWOOD AVENUE,40.81939993,-73.901425,1011534,237822.0001,Payphone,Outdoor Installation,Bronx,NYC Free WiFi,,"(40.81939993, -73.901425)"
971,BK,Free,TELEBEAM TELECOMMUNICATIONS CORPORATION,Public Pay Telephone,378 MYRTLE AVENUE,40.69317195,-73.97109003,992267,191818.9999,Payphone,Outdoor Installation,Brooklyn,NYC Free WiFi,,"(40.69317195, -73.97109003)"
972,MN,Free,"TITAN OUTDOOR COMMUNICATIONS, INC.",Public Pay Telephone,458 7 AVENUE,40.751515,-73.99025144,986951.0002,213074.0001,Payphone,Outdoor Installation,New York,NYC Free WiFi,,"(40.751515, -73.99025144)"
973,MN,Free,TELEBEAM TELECOMMUNICATIONS CORPORATION,Public Pay Telephone,4220 BROADWAY,40.84902381,-73.93696256,1001690,248605.9999,Payphone,Outdoor Installation,New York,NYC Free WiFi,,"(40.84902381, -73.93696256)"
974,MN,Free,TELEBEAM TELECOMMUNICATIONS CORPORATION,Public Pay Telephone,2878 BROADWAY,40.80535383,-73.96582174,993712.0001,232690.9999,Payphone,Outdoor Installation,New York,NYC Free WiFi,,"(40.80535383, -73.96582174)"
975,MN,Free,TELEBEAM TELECOMMUNICATIONS CORPORATION,Public Pay Telephone,1398 ST NICHOLAS AVENUE,40.84852828,-73.93429914,1002427,248425.9999,Payphone,Outdoor Installation,New York,NYC Free WiFi,,"(40.84852828, -73.93429914)"
976,QU,Free,TELEBEAM TELECOMMUNICATIONS CORPORATION,Public Pay Telephone,90-13 ROOSEVELT AVENUE,40.74846248,-73.87609679,1018581,211986,Payphone,Outdoor Installation,Queens,NYC Free WiFi,,"(40.74846248, -73.87609679)"
977,QU,Free,TELEBEAM TELECOMMUNICATIONS CORPORATION,Public Pay Telephone,103-02 ROOSEVELT AVENUE,40.74950947,-73.86266163,1022303,212372.9998,Payphone,Outdoor Installation,Queens,NYC Free WiFi,,"(40.74950947, -73.86266163)"
978,MN,Free,TELEBEAM TELECOMMUNICATIONS CORPORATION,Public Pay Telephone,1741 BROADWAY,40.76518559,-73.98208727,989211.9999,218055,Payphone,Outdoor Installation,New York,NYC Free WiFi,,"(40.76518559, -73.98208727)"
1809,MN,Free,CBS Outdoor LLC,Public Pay Telephone,8  THOMPSON STREET,40.72229193,-74.00481983,982914,202427.0001,Payphone,Outdoor Installation,New York,NYC Free WiFi,,"(40.72229193, -74.00481983)"
979,MN,Free,"TITAN OUTDOOR COMMUNICATIONS, INC.",Public Pay Telephone,410 MADISON AVENUE,40.75651396,-73.97658149,990738.0001,214896,Payphone,Outdoor Installation,New York,NYC Free WiFi,,"(40.75651396, -73.97658149)"
981,MN,Free,TELEBEAM TELECOMMUNICATIONS CORPORATION,Public Pay Telephone,112 WEST 67 STREET,40.77456434,-73.98194033,989252.0002,221472,Payphone,Outdoor Installation,New York,NYC Free WiFi,,"(40.77456434, -73.98194033)"
1012,MN,Free,Transit Wireless,5th Avenue - 7,5th Avenue and East 42 Street,40.753827,-73.981967,989246.1681,213916.7008,Subway Station,SN 466,New York,TransitWirelessWiFi,,"(40.753827, -73.981967)"
1013,MN,Free,Transit Wireless,66th Street Ã¢ÂÂ (Lincoln Center) - 1,66th St. Ã¢ÂÂ Broadway (Lincoln Center),40.77344,-73.982209,989177.6689,221062.3486,Subway Station,SN 314,New York,TransitWirelessWiFi,,"(40.77344, -73.982209)"
1014,MN,Free,Transit Wireless,"72nd St. Ã¢ÂÂ Broadway - 1, 2, 3",72nd Street - Broadway,40.778453,-73.98197,989243.49,222888.7665,Subway Station,SN 313,New York,TransitWirelessWiFi,,"(40.778453, -73.98197)"
1015,MN,Free,Transit Wireless,"72nd Street - Central Park West - B, C",72nd Street - Central Park West,40.775594,-73.976417,990781.6989,221847.5019,Subway Station,SN 160,New York,TransitWirelessWiFi,,"(40.775594, -73.976417)"
1016,MN,Free,Transit Wireless,79th Street - 1,79th Street - Broadway,40.783934,-73.979917,989811.6198,224885.8042,Subway Station,SN 312,New York,TransitWirelessWiFi,,"(40.783934, -73.979917)"
1017,MN,Free,Transit Wireless,"7th Avenue - B, D, E",7th Avenue - 53rd Street,40.762862,-73.981637,989336.9068,217208.4652,Subway Station,SN 277,New York,TransitWirelessWiFi,,"(40.762862, -73.981637)"
1018,MN,Free,Transit Wireless,8 Avenue - L,8 Avenue and West 14th Street,40.739777,-74.002578,983535.5966,208797.3315,Subway Station,SN 115,New York,TransitWirelessWiFi,,"(40.739777, -74.002578)"
1019,MN,Free,Transit Wireless,"81st Street - Museum of Natural History - B, C",81st Street - Museum of Natural History,40.781433,-73.972143,991964.7769,223975.1942,Subway Station,SN 159,New York,TransitWirelessWiFi,,"(40.781433, -73.972143)"
1810,MN,Free,CBS Outdoor LLC,Public Pay Telephone,144  BLEECKER STREET,40.72815483,-73.99915213,984484.9998,204563,Payphone,Outdoor Installation,New York,NYC Free WiFi,,"(40.72815483, -73.99915213)"
1811,MN,Free,CBS Outdoor LLC,Public Pay Telephone,836  6 AVENUE,40.74674735,-73.98999229,987023,211336.9999,Payphone,Outdoor Installation,New York,NYC Free WiFi,,"(40.74674735, -73.98999229)"
1812,MN,Free,CBS Outdoor LLC,Public Pay Telephone,223  8 AVENUE,40.74425006,-73.99926019,984454.9999,210427.0001,Payphone,Outdoor Installation,New York,NYC Free WiFi,,"(40.74425006, -73.99926019)"
1813,MN,Free,CBS Outdoor LLC,Public Pay Telephone,6  ST MARKS PLACE,40.72932361,-73.98938876,987191,204988.9998,Payphone,Outdoor Installation,New York,NYC Free WiFi,,"(40.72932361, -73.98938876)"
1020,MN,Free,Transit Wireless,86th Street - 1,86th Street - Broadway,40.788644,-73.976218,990835.5245,226602.0747,Subway Station,SN 311,New York,TransitWirelessWiFi,,"(40.788644, -73.976218)"
1021,MN,Free,Transit Wireless,"86th Street - Central Park West - B, C",86th Street - Central Park West,40.785868,-73.968916,992857.8958,225591.3163,Subway Station,SN 158,New York,TransitWirelessWiFi,,"(40.785868, -73.968916)"
1022,MN,Free,Transit Wireless,"96th Street - Central Park West - B, C",96th Street - Central Park West,40.791644,-73.964694,994026.2193,227696.1542,Subway Station,SN 157,New York,TransitWirelessWiFi,,"(40.791644, -73.964694)"
1023,MN,Free,Transit Wireless,"96th Street - Broadway - 1, 2, 3",96th Street - Broadway,40.793919,-73.972323,991913.4899,228524.2559,Subway Station,SN 310,New York,TransitWirelessWiFi,,"(40.793919, -73.972323)"
1024,MN,Free,Transit Wireless,Grand Central - 7,Lexington Avenue and East 42 Street,40.75143,-73.97604,990888.5235,213043.7895,Subway Station,SN 465,New York,TransitWirelessWiFi,,"(40.75143, -73.97604)"
1025,MN,Free,Transit Wireless,"Grand Central - 4, 5, 6",Lexington Avenue and East 42 Street,40.75177,-73.976862,990660.7418,213167.6013,Subway Station,SN 402,New York,TransitWirelessWiFi,,"(40.75177, -73.976862)"
1026,MN,Free,Transit Wireless,Grand Central Shuttle  - S,Times Square - 42nd Street,40.752769,-73.979189,990015.9238,213531.4076,Subway Station,SN 468,New York,TransitWirelessWiFi,,"(40.752769, -73.979189)"
1027,MN,Free,Transit Wireless,Times Square - 7,Times Square - 42nd Street,40.755477,-73.987716,987653.2832,214517.5736,Subway Station,SN 467,New York,TransitWirelessWiFi,,"(40.755477, -73.987716)"
1028,MN,Free,Transit Wireless,"Times Square - N, Q, R",Times Square - 42nd Street,40.754669,-73.986754,987919.8499,214223.2317,Subway Station,SN 11,New York,TransitWirelessWiFi,,"(40.754669, -73.986754)"
1029,MN,Free,Transit Wireless,"Times Square - 1, 2, 3",Times Square - 42nd Street,40.75529,-73.987513,987709.5341,214449.4514,Subway Station,SN 317,New York,TransitWirelessWiFi,,"(40.75529, -73.987513)"
1030,MN,Free,Transit Wireless,Times Square Shuttle - S,Times Square Shuttle Ã¢ÂÂ 42nd Street,40.755983,-73.986229,988065.2279,214701.987,Subway Station,SN 469,New York,TransitWirelessWiFi,,"(40.755983, -73.986229)"
1031,QN,Free,Transit Wireless,21ST - L. I.CITY - QUEENSBRIDGE,IND-F-21ST ST - QUEENSBRIDGE,40.75374389,-73.94194808,1000333.707,213891.2347,Subway Station,SN 221,Queens,TransitWirelessWiFi,,"(40.75374389, -73.94194808)"
1032,QN,Free,Transit Wireless,VERNON - JACKSON AVENUE,IRT-7-VERNON BLVD-JACKSON AVE,40.74262829,-73.95358029,997113.0645,209839.5433,Subway Station,SN 464,Queens,TransitWirelessWiFi,,"(40.74262829, -73.95358029)"
1033,QN,Free,Transit Wireless,HUNTERS POINT,IRT-7-HUNTERSPOINT AVE,40.74223051,-73.94892183,998404.0255,209695.3389,Subway Station,SN 463,Queens,TransitWirelessWiFi,,"(40.74223051, -73.94892183)"
1034,QN,Free,Transit Wireless,23RD - ELY AVENUE,IND-E-V-23RD ST - ELY AV,40.74784597,-73.94600001,999212.4143,211741.7147,Subway Station,SN 274,Queens,TransitWirelessWiFi,,"(40.74784597, -73.94600001)"
1035,QN,Free,Transit Wireless,COURT SQ. - LONG ISLAND CITY,IND-G-LONG ISLAND CITY/COURT SQ,40.74651147,-73.94393829,999783.9916,211255.8754,Subway Station,SN 281,Queens,TransitWirelessWiFi,,"(40.74651147, -73.94393829)"
1036,QN,Free,Transit Wireless,21ST STREET - VAN ALST (21st Street & Jackson Avenue),IND-G-21ST ST,40.74409194,-73.9496583,998199.5561,210373.3982,Subway Station,SN 282,Queens,TransitWirelessWiFi,,"(40.74409194, -73.9496583)"
1037,QN,Free,Transit Wireless,65TH STREET,IND-E-G-R-V-65TH ST,40.74979936,-73.89875653,1012301.898,212464.9983,Subway Station,SN 268,Queens,TransitWirelessWiFi,,"(40.74979936, -73.89875653)"
1038,QN,Free,Transit Wireless,WOODHAVEN BLVD - QUEENS MALL,IND-E-G-R-V-WOODHAVEN BLVD,40.73316813,-73.86940233,1020444.199,206416.4812,Subway Station,SN 264,Queens,TransitWirelessWiFi,,"(40.73316813, -73.86940233)"
1039,QN,Free,Transit Wireless,46TH STREET,IND-E-G-R-V-46TH ST,40.75634196,-73.91339899,1008242.501,214844.3273,Subway Station,SN 270,Queens,TransitWirelessWiFi,,"(40.75634196, -73.91339899)"
1040,QN,Free,Transit Wireless,NORTHERN BOULEVARD,IND-E-G-R-V-NORTHERN BLVD,40.75290623,-73.90605771,1010277.719,213594.6775,Subway Station,SN 269,Queens,TransitWirelessWiFi,,"(40.75290623, -73.90605771)"
1041,QN,Free,Transit Wireless,ELMHURST AVENUE,IRT-7-90TH ST - ELMHURST AV,40.74840228,-73.87661205,1018438.262,211963.8658,Subway Station,SN 452,Queens,TransitWirelessWiFi,,"(40.74840228, -73.87661205)"
1042,QN,Free,Transit Wireless,VAN WYCK BLVD - BRIARWOOD,IND-E-F-BRIARWOOD / VAN WYCK BLVD,40.70916085,-73.82062602,1033980.096,197693.8274,Subway Station,SN 258,Queens,TransitWirelessWiFi,,"(40.70916085, -73.82062602)"
1043,QN,Free,Transit Wireless,71 AV - CONTINENTAL AVE - FOREST HILLS,334A IND NR 71 AV,40.72167836,-73.84451297,1027349.532,202241.6723,Subway Station,SN 261,Queens,TransitWirelessWiFi,,"(40.72167836, -73.84451297)"
1044,QN,Free,Transit Wireless,SUTPHIN BOULEVARD,338B IND NR SUTPHN,40.70542584,-73.81083707,1036696.943,196338.7629,Subway Station,SN 257,Queens,TransitWirelessWiFi,,"(40.70542584, -73.81083707)"
1045,QN,Free,Transit Wireless,PARSONS - ARCHER (JAMAICA CENTER),IND-E-J-Z-JAMAICA CENTER - PARSONS / ARCHER,40.70220559,-73.8009696,1039435.442,195171.594,Subway Station,SN 278,Queens,TransitWirelessWiFi,,"(40.70220559, -73.8009696)"
1046,QN,Free,Transit Wireless,179TH STREET - JAMAICA,IND-F-JAMAICA - 179TH ST,40.71271079,-73.78356076,1044252.949,199010.3898,Subway Station,SN 254,Queens,TransitWirelessWiFi,,"(40.71271079, -73.78356076)"
1047,QN,Free,Transit Wireless,GRAND AVENUE - NEWTOWN,IND-E-G-R-V-GRAND AVE - NEWTOWN,40.73679539,-73.87707008,1018317.287,207734.9291,Subway Station,SN 265,Queens,TransitWirelessWiFi,,"(40.73679539, -73.87707008)"
1048,QN,Free,Transit Wireless,36 STREET (NORTHERN BLVD),IND-E-G-R-V-36TH ST,40.75203498,-73.92900562,1003920.013,213271.2664,Subway Station,SN 272,Queens,TransitWirelessWiFi,,"(40.75203498, -73.92900562)"
1049,QN,Free,Transit Wireless,QUEENS PLAZA (IND),IND-E-G-R-V-QUEENS PLZ,40.74897199,-73.93724244,1001638.685,212153.5771,Subway Station,SN 273,Queens,TransitWirelessWiFi,,"(40.74897199, -73.93724244)"
1050,QN,Free,Transit Wireless,STEINWAY STREET,IND-E-G-R-V-STEINWAY ST,40.75697089,-73.92062706,1006239.785,215071.5699,Subway Station,SN 271,Queens,TransitWirelessWiFi,,"(40.75697089, -73.92062706)"
1051,QN,Free,Transit Wireless,PARSONS BOULEVARD,STATIONLAB 339A IND NR PARSNS,40.70757268,-73.80328952,1038787.805,197125.528,Subway Station,SN 256,Queens,TransitWirelessWiFi,,"(40.70757268, -73.80328952)"
1052,QN,Free,Transit Wireless,169TH STREET,340A IND NR 169 ST,40.71046974,-73.79361526,1041467.491,198187.1831,Subway Station,SN 255,Queens,TransitWirelessWiFi,,"(40.71046974, -73.79361526)"
1053,QN,Free,Transit Wireless,63RD DRIVE - REGO PARK,330B IND NR 63 DR,40.72985583,-73.86159729,1022609.215,205213.0319,Subway Station,SN 263,Queens,TransitWirelessWiFi,,"(40.72985583, -73.86159729)"
1054,QN,Free,Transit Wireless,67TH AVENUE,IND-E-G-R-V-67TH AVE,40.72660879,-73.85274875,1025063.632,204034.0336,Subway Station,SN 262,Queens,TransitWirelessWiFi,,"(40.72660879, -73.85274875)"
1055,QN,Free,Transit Wireless,SUTPHIN BLVD - ARCHER - JFK AIRPORT,IND-E-J-Z-SUTPHIN BLVD - ARCHER AV,40.70048293,-73.80802911,1037479.42,194539.6103,Subway Station,SN 279,Queens,TransitWirelessWiFi,,"(40.70048293, -73.80802911)"
1056,QN,Free,Transit Wireless,75TH AVENUE,IND-E-F-75TH AVE,40.71821386,-73.8367428,1029505.699,200983.3681,Subway Station,SN 260,Queens,TransitWirelessWiFi,,"(40.71821386, -73.8367428)"
1057,QN,Free,Transit Wireless,UNION TURNPIKE (Kew Gardens),IND-E-F-KEW GARDENS - UNION TPKE,40.71407071,-73.83043471,1031257.251,199477.2182,Subway Station,SN 259,Queens,TransitWirelessWiFi,,"(40.71407071, -73.83043471)"
1058,QN,Free,Transit Wireless,ROOSEVELT AVENUE (JACKSON HEIGHTS),IND-E-F-G-R-V-JACKSON HTS-ROOSEVELT AV,40.74663789,-73.89138366,1014346.153,211315.6191,Subway Station,SN 267,Queens,TransitWirelessWiFi,,"(40.74663789, -73.89138366)"
1190,BK,Limited Free,Cablevision,BROWNSVILLE REC,BROWNSVILLE PARK-REC CENTER-WEIGHT & FITNESS ROOM,40.6567,-73.9028,1011219.196,178544.8664,Outdoor,3 free 10 min sessions,Brooklyn,GuestWiFi,,"(40.6567, -73.9028)"
1814,MN,Free,CBS Outdoor LLC,Public Pay Telephone,235  8 AVENUE,40.74453826,-73.99904726,984514.0001,210531.9999,Payphone,Outdoor Installation,New York,NYC Free WiFi,,"(40.74453826, -73.99904726)"
1815,MN,Free,CBS Outdoor LLC,Public Pay Telephone,531  3 AVENUE,40.74664127,-73.97744029,990501,211299,Payphone,Outdoor Installation,New York,NYC Free WiFi,,"(40.74664127, -73.97744029)"
1816,MN,Free,CBS Outdoor LLC,Public Pay Telephone,183  CHURCH STREET,40.71574006,-74.00728675,982230.0001,200039.9999,Payphone,Outdoor Installation,New York,NYC Free WiFi,,"(40.71574006, -74.00728675)"
1817,MN,Free,CBS Outdoor LLC,Public Pay Telephone,75  EAST BROADWAY,40.71370628,-73.99434031,985819.0001,199299.0001,Payphone,Outdoor Installation,New York,NYC Free WiFi,,"(40.71370628, -73.99434031)"
1191,BK,Limited Free,Cablevision,BROWNSVILLE REC,BROWNSVILLE PARK-REC CENTER-TEEN ROOM,40.6564,-73.9027,1011247.063,178435.5989,Outdoor,3 free 10 min sessions,Brooklyn,GuestWiFi,,"(40.6564, -73.9027)"
1192,BK,Limited Free,Cablevision,BROWNSVILLE REC,BROWNSVILLE PARK-REC CENTER-LOBBY,40.6561,-73.9025,1011302.677,178326.3622,Outdoor,3 free 10 min sessions,Brooklyn,GuestWiFi,,"(40.6561, -73.9025)"
1193,BK,Limited Free,Cablevision,BROWNSVILLE REC,BROWNSVILLE PARK-REC CENTER-GAME ROOM,40.6562,-73.90257,1011283.214,178362.7736,Outdoor,3 free 10 min sessions,Brooklyn,GuestWiFi,,"(40.6562, -73.90257)"
1194,BK,Limited Free,Cablevision,BROWNSVILLE REC,BROWNSVILLE PARK-REC CENTER-GYMNASIUM,40.6561,-73.90276,1011230.537,178326.2822,Outdoor,3 free 10 min sessions,Brooklyn,GuestWiFi,,"(40.6561, -73.90276)"
1195,BK,Limited Free,Cablevision,BROWNSVILLE REC,BROWNSVILLE PARK-REC CENTER-MULTI-PURPOSE  L,40.6521,-73.90286,1011204.407,176868.9416,Outdoor,3 free 10 min sessions,Brooklyn,GuestWiFi,,"(40.6521, -73.90286)"
1196,BK,Limited Free,Cablevision,BROWNSVILLE REC,BROWNSVILLE PARK-REC CENTER-MULTI-PURPOSE  R,40.6559,-73.90285,1011205.646,178253.3889,Outdoor,3 free 10 min sessions,Brooklyn,GuestWiFi,,"(40.6559, -73.90285)"
1197,BK,Limited Free,Cablevision,GRAVESEND PARK,GRAVESEND PARK-EASEMENT 57TH ST 3 P/S/18TH AV,40.623001,-73.984689,988500.3501,166252.8149,Outdoor,3 free 10 min sessions,Brooklyn,GuestWiFi,,"(40.623001, -73.984689)"
1198,BK,Limited Free,Cablevision,GRAVESEND PARK,GRAVESEND PARK-EASEMENT 57TH ST 1 P/S/18TH AV,40.623315,-73.985265,988340.4328,166367.186,Outdoor,3 free 10 min sessions,Brooklyn,GuestWiFi,,"(40.623315, -73.985265)"
1199,BK,Limited Free,Cablevision,GRAVESEND PARK,GRAVESEND PARK-EASEMENT 56TH ST 5 P/S/18TH AV,40.623831,-73.983592,988804.8219,166555.2611,Outdoor,3 free 10 min sessions,Brooklyn,GuestWiFi,,"(40.623831, -73.983592)"
1200,BK,Limited Free,Cablevision,GRAVESEND PARK,GRAVESEND PARK-EASEMENT 56TH ST 1P/S/18TH AV,40.624244,-73.984404,988579.3857,166705.6867,Outdoor,3 free 10 min sessions,Brooklyn,GuestWiFi,,"(40.624244, -73.984404)"
1201,BK,Limited Free,Cablevision,GRAVESEND PARK,GRAVESEND PARK-EASEMENT 56TH ST 9 P/S/18TH AV,40.623457,-73.982884,989001.3875,166419.0406,Outdoor,3 free 10 min sessions,Brooklyn,GuestWiFi,,"(40.623457, -73.982884)"
1202,BK,Limited Free,Cablevision,PROSPECT PARK,PROSPECT PARK PARADE GROUNDS-SNACK BAR  NORTH WEST CORNER,40.650721,-73.968489,992993.8545,176353.1611,Outdoor,3 free 10 min sessions,Brooklyn,GuestWiFi,,"(40.650721, -73.968489)"
1203,BK,Limited Free,Cablevision,PROSPECT PARK,PROSPECT PARK PARADE GROUNDS-SNACK BAR  SOUTH WEST CORNER,40.65068,-73.96846,993001.907,176338.2264,Outdoor,3 free 10 min sessions,Brooklyn,GuestWiFi,,"(40.65068, -73.96846)"
1204,BK,Limited Free,Cablevision,PROSPECT PARK,PROSPECT PARK PARADE GROUNDS-SNACK BAR  NORTH EASTCORNER,40.650738,-73.968429,993010.5012,176359.3606,Outdoor,3 free 10 min sessions,Brooklyn,GuestWiFi,,"(40.650738, -73.968429)"
1205,BK,Limited Free,Cablevision,PROSPECT PARK,PROSPECT PARK PARADE GROUNDS-SNACK BAR  SOUTH EASTCORNER,40.6507,-73.9658429,993728.1126,176345.7852,Outdoor,3 free 10 min sessions,Brooklyn,GuestWiFi,,"(40.6507, -73.9658429)"
1498,QN,Limited Free,TimeWarner,Baisley Pond Park,16027 122nd Ave,40.678334,-73.783477,1044307.127,186486.0063,Outdoor,Park Perimeter,Queens,GuestWiFi,177795,"(40.678334, -73.783477)"
1499,QN,Limited Free,TimeWarner,Baisley Pond Park,13326 150th St,40.6676,-73.78942,1042668.117,182571.2967,Outdoor,Park Perimeter,Queens,GuestWiFi,177796,"(40.6676, -73.78942)"
1500,QN,Limited Free,TimeWarner,Baisley Pond Park,11756 155th St,40.68161,-73.78825,1042980.354,187676.3078,Outdoor,Park Perimeter,Queens,GuestWiFi,177797,"(40.68161, -73.78825)"
1501,QN,Limited Free,TimeWarner,Baisley Pond Park,11838 155th St,40.68053,-73.78747,1043197.647,187283.3578,Outdoor,Park Perimeter,Queens,GuestWiFi,177798,"(40.68053, -73.78747)"
1502,QN,Limited Free,TimeWarner,Baisley Pond Park,11914 155th St,40.67963,-73.78745,1043203.99,186955.4762,Outdoor,Park Perimeter,Queens,GuestWiFi,177799,"(40.67963, -73.78745)"
1503,QN,Limited Free,TimeWarner,Baisley Pond Park,16014 118th St,40.68301,-73.78482,1043930.434,188188.685,Outdoor,Park Perimeter,Queens,GuestWiFi,177800,"(40.68301, -73.78482)"
1504,QN,Limited Free,TimeWarner,Baisley Pond Park,11631 157thSt,40.68462,-73.78589,1043632.235,188774.5257,Outdoor,Park Perimeter,Queens,GuestWiFi,177801,"(40.68462, -73.78589)"
1505,QN,Limited Free,TimeWarner,Baisley Pond Park,11579 116th Ave,40.68495,-73.78722,1043263.076,188893.8552,Outdoor,Park Perimeter,Queens,GuestWiFi,177802,"(40.68495, -73.78722)"
1506,QN,Limited Free,TimeWarner,Baisley Pond Park,12038 155thSt,40.67814,-73.78711,1043299.613,186412.8569,Outdoor,Park Perimeter,Queens,GuestWiFi,177803,"(40.67814, -73.78711)"
1507,QN,Limited Free,TimeWarner,Baisley Pond Park,12292 155th St,40.67662,-73.78695,1043345.339,185859.1867,Outdoor,Park Perimeter,Queens,GuestWiFi,177804,"(40.67662, -73.78695)"
1508,QN,Limited Free,TimeWarner,Baisley Pond Park,11996 Lakeview Bl,40.67934,-73.78444,1044039.118,186851.8613,Outdoor,Park Perimeter,Queens,GuestWiFi,177805,"(40.67934, -73.78444)"
1509,QN,Limited Free,TimeWarner,Baisley Pond Park,11920 Lakeview Bl,40.68079,-73.78468,1043971.251,187379.9727,Outdoor,Park Perimeter,Queens,GuestWiFi,177806,"(40.68079, -73.78468)"
1510,QN,Limited Free,TimeWarner,Baisley Pond Park,126-11 149th St,40.67268,-73.78678,1043395.987,184423.851,Outdoor,Park Perimeter,Queens,GuestWiFi,177807,"(40.67268, -73.78678)"
1511,QN,Limited Free,TimeWarner,Baisley Pond Park,15302 Baisley Bl,40.67318,-73.78517,1043842.144,184607.1059,Outdoor,Park Perimeter,Queens,GuestWiFi,177808,"(40.67318, -73.78517)"
1512,QN,Limited Free,TimeWarner,Baisley Pond Park,15714 Baisley Bl,40.67609,-73.78254,1044569.052,185669.0989,Outdoor,Park Perimeter,Queens,GuestWiFi,177809,"(40.67609, -73.78254)"
1513,QN,Limited Free,TimeWarner,Baisley Pond Park,15608 Baisley Bl,40.67486,-73.78412,1044131.897,185219.8921,Outdoor,Park Perimeter,Queens,GuestWiFi,177810,"(40.67486, -73.78412)"
1514,QN,Limited Free,TimeWarner,Baisley Pond Park,15315 125th Ave,40.67506,-73.78744,1043210.804,185290.5055,Outdoor,Park Perimeter,Queens,GuestWiFi,177811,"(40.67506, -73.78744)"
1515,QN,Limited Free,TimeWarner,Baisley Pond Park,12520 Sutphin Bl,40.67454,-73.78955,1042625.979,185099.642,Outdoor,Park Perimeter,Queens,GuestWiFi,177812,"(40.67454, -73.78955)"
1516,QN,Limited Free,TimeWarner,Baisley Pond Park,14970 Sutter Ave,40.6714,-73.78861,1042889.482,183956.2817,Outdoor,Park Perimeter,Queens,GuestWiFi,177813,"(40.6714, -73.78861)"
1517,QN,Limited Free,TimeWarner,Baisley Pond Park,14978 130th Ave,40.66978,-73.78896,1042793.815,183365.8371,Outdoor,Park Perimeter,Queens,GuestWiFi,177814,"(40.66978, -73.78896)"
1518,QN,Limited Free,TimeWarner,Bowne Park,2914 155th St,40.77123,-73.80905,1037140.162,220314.3183,Outdoor,155th St between 29th Ave and 32nd Ave,Queens,GuestWiFi,179330,"(40.77123, -73.80905)"
1519,QN,Limited Free,TimeWarner,Bowne Park,15512 32nd Ave,40.76974,-73.80876,1037221.672,219771.6379,Outdoor,32nd Ave between 155th and 156th St,Queens,GuestWiFi,179331,"(40.76974, -73.80876)"
1520,QN,Limited Free,TimeWarner,Bowne Park,15610 32nd Ave,40.76965,-73.80751,1037567.982,219739.6065,Outdoor,32nd Ave between 155th and 156th St,Queens,GuestWiFi,179332,"(40.76965, -73.80751)"
1521,QN,Limited Free,TimeWarner,Bowne Park,15810 32nd Ave,40.76953,-73.80601,1037983.564,219696.8031,Outdoor,32nd Ave between 155th and 156th St,Queens,GuestWiFi,179333,"(40.76953, -73.80601)"
1522,QN,Limited Free,TimeWarner,Bowne Park,2919 159th St,40.77053,-73.80551,1038121.251,220061.4428,Outdoor,159th St between 29th Ave and 32nd Ave,Queens,GuestWiFi,179334,"(40.77053, -73.80551)"
1523,MN,Limited Free,TimeWarner,Bryant Park (Back of Library),1086 6th Ave,40.754447,-73.984222,988621.3639,214142.4661,Outdoor,Corner of 6th Ave by Jose Bonifacio de Andrada e Silva Monument,Manhattan,GuestWiFi,179401,"(40.754447, -73.984222)"
1524,MN,Limited Free,TimeWarner,Bryant Park (Back of Library),66 W. 42nd St,40.754317,-73.983094,988933.8902,214095.1614,Outdoor,2nd St between 5th Ave and 6th Ave,Manhattan,GuestWiFi,179402,"(40.754317, -73.983094)"
1525,MN,Limited Free,TimeWarner,Bryant Park (Back of Library),68 W. 40Th St,40.753164,-73.983964,988692.9294,213675.0405,Outdoor,40th St between 5th Ave and 6th Ave,Manhattan,GuestWiFi,179403,"(40.753164, -73.983964)"
1526,MN,Limited Free,TimeWarner,Bryant Park (Back of Library),1066 6th Ave,40.75369,-73.98477,988469.586,213866.6396,Outdoor,Corner of 6th Ave by 40th St,Manhattan,GuestWiFi,179404,"(40.75369, -73.98477)"
1527,MN,Limited Free,TimeWarner,Bryant Park (Front Library),455 5th Ave,40.75273,-73.98177,989300.8314,213517.0392,Outdoor,Front library off 5th Ave between 42nd St and 40th St,Manhattan,GuestWiFi,179405,"(40.75273, -73.98177)"
1528,BK,Limited Free,TimeWarner,Carroll Park,330 Smith Street,40.68063,-73.995382,985530.855,187248.3142,Outdoor,Court off Smith St between Carrol St and 1st Place,Brooklyn,GuestWiFi,179335,"(40.68063, -73.995382)"
1529,BK,Limited Free,TimeWarner,Carroll Park,330 Smith Street,40.68063,-73.995382,985530.855,187248.3142,Outdoor,Court off Smith St between Carrol St and 1st Place,Brooklyn,GuestWiFi,179336,"(40.68063, -73.995382)"
1530,QN,Limited Free,TimeWarner,Kissena Park,13760 Elder Ave,40.75141,-73.82472,1032814.272,213084.1831,Outdoor,Park Perimeter,Queens,GuestWiFi,177815,"(40.75141, -73.82472)"
1531,QN,Limited Free,TimeWarner,Kissena Park,4556 Colden St,40.75014,-73.82284,1033336.093,212622.5299,Outdoor,Park Perimeter,Queens,GuestWiFi,177816,"(40.75014, -73.82284)"
1532,QN,Limited Free,TimeWarner,Kissena Park,15022 Booth Memorial Ave,40.7437,-73.81732,1034870.422,210279.378,Outdoor,Park Perimeter,Queens,GuestWiFi,177817,"(40.7437, -73.81732)"
1533,QN,Limited Free,TimeWarner,Kissena Park,5426 Kissena Bl,40.74366,-73.81396,1035801.504,210266.7642,Outdoor,Park Perimeter,Queens,GuestWiFi,177818,"(40.74366, -73.81396)"
1534,QN,Limited Free,TimeWarner,Kissena Park,5400 Kissena Bl,40.74549,-73.81357,1035908.153,210933.7199,Outdoor,Park Perimeter,Queens,GuestWiFi,177819,"(40.74549, -73.81357)"
1535,QN,Limited Free,TimeWarner,Kissena Park,15650 booth Memorial Ave,40.74243,-73.81151,1036481.359,209820.0886,Outdoor,Park Perimeter,Queens,GuestWiFi,177820,"(40.74243, -73.81151)"
1536,QN,Limited Free,TimeWarner,Kissena Park,4727 Colden St,40.74849,-73.82121,1033788.947,212022.3007,Outdoor,Park Perimeter,Queens,GuestWiFi,177821,"(40.74849, -73.82121)"
1537,QN,Limited Free,TimeWarner,Kissena Park,5663 164th St,40.74381,-73.80419,1038508.635,210327.3146,Outdoor,Park Perimeter,Queens,GuestWiFi,177822,"(40.74381, -73.80419)"
1538,QN,Limited Free,TimeWarner,Kissena Park,16002 Booth Memorial Ave,40.74191,-73.80816,1037410.072,209632.6517,Outdoor,Park Perimeter,Queens,GuestWiFi,177823,"(40.74191, -73.80816)"
1539,QN,Limited Free,TimeWarner,Kissena Park,5609 164th St.,40.74589,-73.80342,1038720.3,211085.6012,Outdoor,Park Perimeter,Queens,GuestWiFi,177824,"(40.74589, -73.80342)"
1540,QN,Limited Free,TimeWarner,Kissena Park,16405 Underhill Ave,40.74726,-73.80286,1038874.346,211585.0834,Outdoor,Park Perimeter,Queens,GuestWiFi,177825,"(40.74726, -73.80286)"
1541,QN,Limited Free,TimeWarner,Kissena Park,4815 164th St,40.74914,-73.8027,1038917.137,212270.1257,Outdoor,Park Perimeter,Queens,GuestWiFi,177826,"(40.74914, -73.8027)"
1542,QN,Limited Free,TimeWarner,Kissena Park,16209 Oak Ave,40.75,-73.80506,1038262.541,212581.9866,Outdoor,Park Perimeter,Queens,GuestWiFi,177827,"(40.75, -73.80506)"
1543,QN,Limited Free,TimeWarner,Kissena Park,16003 Oak Ave,40.75017,-73.80719,1037672.241,212642.6168,Outdoor,Park Perimeter,Queens,GuestWiFi,177828,"(40.75017, -73.80719)"
1544,QN,Limited Free,TimeWarner,Kissena Park,5218 Bowne St,40.74761,-73.8117,1036424.653,211707.2105,Outdoor,Park Perimeter,Queens,GuestWiFi,177829,"(40.74761, -73.8117)"
1545,QN,Limited Free,TimeWarner,Kissena Park,4841 Colden St,40.74756,-73.81815,1034637.511,211685.2178,Outdoor,Park Perimeter,Queens,GuestWiFi,177830,"(40.74756, -73.81815)"
1546,MN,Limited Free,TimeWarner,Madison Square Park,1601 Broadway,40.742378,-73.988692,987383.4986,209745.1501,Outdoor,NW area by dog run off 5th Ave,Manhattan,GuestWiFi,179337,"(40.742378, -73.988692)"
1547,MN,Limited Free,TimeWarner,Madison Square Park,210 5th Ave,40.7431,-73.9883,987492.0883,210008.2123,Outdoor,NW area near E. 26th St off 5th Ave,Manhattan,GuestWiFi,179338,"(40.7431, -73.9883)"
1548,MN,Limited Free,TimeWarner,Madison Square Park,12 Madison Ave,40.7411,-73.987914,987599.1501,209279.5631,Outdoor,NE area by Shake Shack off Madison Ave,Manhattan,GuestWiFi,179339,"(40.7411, -73.987914)"
1549,MN,Limited Free,TimeWarner,Madison Square Park,2 Madison Ave,40.741875,-73.987364,987751.5199,209561.9415,Outdoor,NE area off Madison Ave between 25th St and 24th St,Manhattan,GuestWiFi,179340,"(40.741875, -73.987364)"
1550,MN,Limited Free,TimeWarner,Madison Square Park,33 Madison Ave,40.742492,-73.986906,987878.4009,209786.753,Outdoor,NW area by dog run off 5th Ave,Manhattan,GuestWiFi,179341,"(40.742492, -73.986906)"
1551,MN,Limited Free,TimeWarner,Madison Square Park,1008 Broadway,40.74148,-73.98894,987314.818,209417.9716,Outdoor,NE area off Madison Ave near E. 26th St,Manhattan,GuestWiFi,179342,"(40.74148, -73.98894)"
1552,BK,Limited Free,TimeWarner,Prospect Park Band Shell,961 E 9th St,40.663256,-73.976164,990862.9084,180919.3374,Outdoor,Park Bandshell Area,Brooklyn,GuestWiFi,179343,"(40.663256, -73.976164)"
1553,BK,Limited Free,TimeWarner,Prospect Park Band Shell,961 E 9th St,40.663019,-73.976292,990827.4202,180832.9819,Outdoor,Park Bandshell Area,Brooklyn,GuestWiFi,179344,"(40.663019, -73.976292)"
1554,BK,Limited Free,TimeWarner,Prospect Park Band Shell,961 E 9th St,40.663094,-73.976292,990827.413,180860.3066,Outdoor,Park Bandshell Area,Brooklyn,GuestWiFi,179345,"(40.663094, -73.976292)"
1555,BK,Limited Free,TimeWarner,Prospect Park Band Shell,961 E 9th St,40.663381,-73.976083,990885.3683,180964.8845,Outdoor,Park Bandshell Area,Brooklyn,GuestWiFi,179346,"(40.663381, -73.976083)"
1556,BX,Limited Free,TimeWarner,Railroad Park,13332 Garrett St,40.67602,-73.7654,1049323.403,185655.8636,Outdoor,SE area off Garrett St,Bronx,GuestWiFi,179347,"(40.67602, -73.7654)"
1557,BX,Limited Free,TimeWarner,Railroad Park,17215 129th Ave,40.67947,-73.77068,1047855.548,186908.9153,Outdoor,NW area off 129th Ave,Bronx,GuestWiFi,179348,"(40.67947, -73.77068)"
1558,BX,Limited Free,TimeWarner,Railroad Park,17441 129th Ave,40.67998,-73.76781,1048651.094,187096.8194,Outdoor,NE area off 129th Ave,Bronx,GuestWiFi,179349,"(40.67998, -73.76781)"
1559,MN,Limited Free,TimeWarner,West 79th Street Boat Basin,307 W. 79th St,40.78601,-73.98501,988401.0773,225641.8795,Outdoor,Boat Basin CafÃÂ©,Manhattan,GuestWiFi,177790,"(40.78601, -73.98501)"
1560,QN,Limited Free,TimeWarner,Alley Pond Park,79-20 Winchester Blvd,40.739154,-73.737718,1056932.949,208679.1555,Outdoor,Tennis Courts and Ball Field,Queens,GuestWiFi,219092,"(40.739154, -73.737718)"
1561,QN,Limited Free,TimeWarner,Alley Pond Park,79-20 Winchester Blvd,40.739353,-73.736825,1057180.197,208752.3995,Outdoor,Tennis Courts and Ball Field,Queens,GuestWiFi,219093,"(40.739353, -73.736825)"
1562,QN,Limited Free,TimeWarner,Alley Pond Park,79-20 Winchester Blvd,40.739547,-73.73592,1057430.774,208823.8344,Outdoor,Tennis Courts and Ball Field,Queens,GuestWiFi,219094,"(40.739547, -73.73592)"
1563,QN,Limited Free,TimeWarner,Alley Pond Park,79-20 Winchester Blvd,40.739739,-73.735041,1057674.146,208894.5212,Outdoor,Tennis Courts and Ball Field,Queens,GuestWiFi,219095,"(40.739739, -73.735041)"
1564,QN,Limited Free,TimeWarner,Alley Pond Park,79-20 Winchester Blvd,40.739909,-73.73458,1057801.708,208956.8439,Outdoor,Comfort Station and Ball Field,Queens,GuestWiFi,219096,"(40.739909, -73.73458)"
1565,QN,Limited Free,TimeWarner,Alley Pond Park,79-20 Winchester Blvd,40.740214,-73.734311,1057875.915,209068.1905,Outdoor,Comfort Station and Ball Field,Queens,GuestWiFi,219097,"(40.740214, -73.734311)"
1566,BK,Limited Free,TimeWarner,Cadman Plaza Park,250 CADMAN PLZ W,40.696592,-73.9906096,986853.9111,193063.8429,Outdoor,Comfort Station,Brooklyn,GuestWiFi,188594,"(40.696592, -73.9906096)"
1567,MN,Limited Free,TimeWarner,Chelsea Recreation Center,430 W 25TH ST,40.748057,-74.001945,983711.0775,211813.9954,Indoor,2nd Floor Lobby,Manhattan,GuestWiFi,216626,"(40.748057, -74.001945)"
1568,MN,Limited Free,TimeWarner,Chelsea Recreation Center,430 W 25TH ST,40.748057,-74.001945,983711.0775,211813.9954,Indoor,3rd Floor Basketball Court,Manhattan,GuestWiFi,216627,"(40.748057, -74.001945)"
1569,MN,Limited Free,TimeWarner,Chelsea Recreation Center,430 W 25TH ST,40.748057,-74.001945,983711.0775,211813.9954,Indoor,3rd Floor Basketball Court,Manhattan,GuestWiFi,216628,"(40.748057, -74.001945)"
1570,MN,Limited Free,TimeWarner,Chelsea Recreation Center,430 W 25TH ST,40.748057,-74.001945,983711.0775,211813.9954,Indoor,Indoor -3rd Floor Cardio Rm,Manhattan,GuestWiFi,216629,"(40.748057, -74.001945)"
1571,MN,Limited Free,TimeWarner,Chelsea Recreation Center,430 W 25TH ST,40.748057,-74.001945,983711.0775,211813.9954,Indoor,4th Floor Weight Rm,Manhattan,GuestWiFi,216630,"(40.748057, -74.001945)"
1572,SI,Limited Free,TimeWarner,Clove Lakes Park (Stonehenge),1100 CLOVE RD APT 3H,40.618977,-74.107017,954540.1818,164804.5422,Indoor,Stonehenge building main lobby,Staten Island,GuestWiFi,201125,"(40.618977, -74.107017)"
1573,SI,Limited Free,TimeWarner,Clove Lakes Park (Stonehenge),1100 CLOVE RD APT 3H,40.61798,-74.108215,954207.1473,164441.7178,Indoor,North Hallway Outside the Office,Staten Island,GuestWiFi,201126,"(40.61798, -74.108215)"
1574,SI,Limited Free,TimeWarner,Clove Lakes Park (Stonehenge),1100 CLOVE RD APT 3H,40.61798,-74.108215,954207.1473,164441.7178,Indoor,South Hallway Outside the Office,Staten Island,GuestWiFi,201127,"(40.61798, -74.108215)"
1575,SI,Limited Free,TimeWarner,Clove Lakes Park (Stonehenge),1150 CLOVE RD,40.61798,-74.108215,954207.1473,164441.7178,Indoor,Lake Club Restaurant Back Patio Dining,Staten Island,GuestWiFi,241761,"(40.61798, -74.108215)"
1576,SI,Limited Free,TimeWarner,Clove Lakes Park (Stonehenge),1150 CLOVE RD,40.619394,-74.107068,954526.209,164956.4835,Indoor,Lake Club Restaurant Indoor Dining Area,Staten Island,GuestWiFi,241762,"(40.619394, -74.107068)"
1577,BK,Limited Free,TimeWarner,Coffey Park,85 RICHARDS ST,40.677177,-74.008697,981837.6629,185990.3731,Outdoor,Open Seating,Brooklyn,GuestWiFi,216605,"(40.677177, -74.008697)"
1578,BK,Limited Free,TimeWarner,Coffey Park,85 RICHARDS ST,40.677177,-74.008697,981837.6629,185990.3731,Outdoor,Open Seating,Brooklyn,GuestWiFi,216606,"(40.677177, -74.008697)"
1579,BK,Limited Free,TimeWarner,Coffey Park,85 RICHARDS ST,40.677177,-74.008697,981837.6629,185990.3731,Outdoor,Playground Area,Brooklyn,GuestWiFi,216607,"(40.677177, -74.008697)"
1580,BK,Limited Free,TimeWarner,Coffey Park,85 RICHARDS ST,40.677177,-74.008697,981837.6629,185990.3731,Outdoor,Baseball Field,Brooklyn,GuestWiFi,216608,"(40.677177, -74.008697)"
1581,QNs,Limited Free,TimeWarner,Cunningham Park,18114 Union Turnpike,40.731251,-73.77366,1046980.253,205772.0744,Outdoor,Parking lot on Union Turn Pike at 196th Place,Fresh Meadows,GuestWiFi,191576,"(40.731251, -73.77366)"
1582,QNs,Limited Free,TimeWarner,Cunningham Park,18114 Union Turnpike,40.73056,-73.77667,1046146.674,205518.1812,Outdoor,Ball field 3 on Union Turn Pike at 194th St,Fresh Meadows,GuestWiFi,191577,"(40.73056, -73.77667)"
1583,QNs,Limited Free,TimeWarner,Cunningham Park,18114 Union Turnpike,40.73014,-73.77383,1046934.183,205367.1822,Outdoor,Outdoor- Parking lot and Tennis Courts,Fresh Meadows,GuestWiFi,191578,"(40.73014, -73.77383)"
1584,QNs,Limited Free,TimeWarner,Cunningham Park,18114 Union Turnpike,40.72999,-73.77399,1046889.979,205312.4182,Outdoor,Outdoor- Parking lot and Tennis Courts,Fresh Meadows,GuestWiFi,191579,"(40.72999, -73.77399)"
1585,QNs,Limited Free,TimeWarner,Cunningham Park,18114 Union Turnpike,40.72682,-73.77586,1046374.655,204156.1606,Outdoor,Playground off 193rd and Aberdeen,Fresh Meadows,GuestWiFi,191580,"(40.72682, -73.77586)"
1586,QNs,Limited Free,TimeWarner,Cunningham Park,18114 Union Turnpike,40.72991,-73.7739,1046914.999,205283.3362,Outdoor,Outdoor- Parking lot and Tennis Courts,Fresh Meadows,GuestWiFi,191581,"(40.72991, -73.7739)"
1587,QNs,Limited Free,TimeWarner,Cunningham Park,18114 Union Turnpike,40.73013,-73.773658,1046981.863,205363.6622,Outdoor,Ball field on Union Turn Pike between 193rd and 194th St,Fresh Meadows,GuestWiFi,191582,"(40.73013, -73.773658)"
1588,MN,Limited Free,TimeWarner,Dante Park,44 W 63RD ST,40.76671,-73.96682,993440.9714,218611.6261,Outdoor,Park Area at W63rd & Columbus,Manhattan,GuestWiFi,216644,"(40.76671, -73.96682)"
1589,BK,Limited Free,TimeWarner,Dyker Beach Park,1402 86TH St,40.61278,-74.013057,980624.8078,162528.9348,Outdoor,Playground,Brooklyn,GuestWiFi,216645,"(40.61278, -74.013057)"
1590,MN,Limited Free,TimeWarner,Gertrude Ederle Rec Center,232 West 60th Street,40.7771497,-73.988533,987425.8998,222413.6244,Outdoor,East and South Park Area,Manhattan,GuestWiFi,330923,"(40.7771497, -73.988533)"
1591,MN,Limited Free,TimeWarner,Gertrude Ederle Rec Center,232 West 60th Street,40.7771299,-73.988712,987376.3248,222406.4043,Outdoor,East Park Area,Manhattan,GuestWiFi,330924,"(40.7771299, -73.988712)"
1592,MN,Limited Free,TimeWarner,Gertrude Ederle Rec Center,232 West 60th Street,40.77138939,-73.98861167,987404.3841,220314.9475,Indoor,"1st Floor, North Multi-purpose Rm",Manhattan,GuestWiFi,330925,"(40.77138939, -73.98861167)"
1593,MN,Limited Free,TimeWarner,Gertrude Ederle Rec Center,232 West 60th Street,40.77138939,-73.98861167,987404.3841,220314.9475,Indoor,"1st Floor, South Multi-purpose Rm",Manhattan,GuestWiFi,330926,"(40.77138939, -73.98861167)"
1594,MN,Limited Free,TimeWarner,Gertrude Ederle Rec Center,232 West 60th Street,40.77138939,-73.98861167,987404.3841,220314.9475,Indoor,"1st Floor, North Lobby",Manhattan,GuestWiFi,330927,"(40.77138939, -73.98861167)"
1595,MN,Limited Free,TimeWarner,Gertrude Ederle Rec Center,232 West 60th Street,40.77138939,-73.98861167,987404.3841,220314.9475,Indoor,"2nd Floor, South Lobby",Manhattan,GuestWiFi,330928,"(40.77138939, -73.98861167)"
1596,MN,Limited Free,TimeWarner,Gertrude Ederle Rec Center,232 West 60th Street,40.77138939,-73.98861167,987404.3841,220314.9475,Indoor,"2nd Floor, South Fitness Center",Manhattan,GuestWiFi,330929,"(40.77138939, -73.98861167)"
1597,SI,Limited Free,TimeWarner,Greenbelt Recreation Center,501-615 Brielle Ave,40.59195,-74.13922,945584.4149,154970.486,Outdoor,Parking area and ballfield,Staten Island,GuestWiFi,177792,"(40.59195, -74.13922)"
1598,SI,Limited Free,TimeWarner,Greenbelt Recreation Center,501-615 Brielle Ave,40.59189,-74.13855,945770.4595,154948.3316,Outdoor,Parking area and ballfield,Staten Island,GuestWiFi,177793,"(40.59189, -74.13855)"
1599,SI,Limited Free,TimeWarner,Greenbelt Recreation Center,501-615 Brielle Ave,40.59203,-74.13812,945889.9638,154999.1487,Outdoor,Parking area and ballfield,Staten Island,GuestWiFi,177794,"(40.59203, -74.13812)"
1600,SI,Limited Free,TimeWarner,Greenbelt Recreation Center,501-615 Brielle Ave,40.59203,-74.13812,945889.9638,154999.1487,Indoor,1st Floor,Staten Island,GuestWiFi,179328,"(40.59203, -74.13812)"
1601,SI,Limited Free,TimeWarner,Greenbelt Recreation Center,501-615 Brielle Ave,40.59203,-74.13812,945889.9638,154999.1487,Indoor,2nd Floor,Staten Island,GuestWiFi,179329,"(40.59203, -74.13812)"
1602,MN,Limited Free,TimeWarner,Hamilton Fish Rec Center,128 Pitt Street,40.719933,-73.981457,989390.0809,201568.0772,Indoor,Lobby,Manhattan,GuestWiFi,179392,"(40.719933, -73.981457)"
1603,MN,Limited Free,TimeWarner,Hamilton Fish Rec Center,128 Pitt Street,40.7195,-73.981767,989304.1825,201410.3039,Indoor,CRC Center,Manhattan,GuestWiFi,179395,"(40.7195, -73.981767)"
1604,MN,Limited Free,TimeWarner,Hansborough Recreation Center,35 West 134th Street,40.812913,-73.939203,1001079.289,235449.0675,Indoor,3rd Floor Computer Resource Center,Manhattan,GuestWiFi,177943,"(40.812913, -73.939203)"
1605,MN,Limited Free,TimeWarner,Hansborough Recreation Center,35 West 134th Street,40.812913,-73.939203,1001079.289,235449.0675,Indoor,3rd Floor Basketball Court,Manhattan,GuestWiFi,177944,"(40.812913, -73.939203)"
1606,MN,Limited Free,TimeWarner,Hansborough Recreation Center,35 West 134th Street,40.812913,-73.939203,1001079.289,235449.0675,Indoor,5th Floor Roof Top,Manhattan,GuestWiFi,177945,"(40.812913, -73.939203)"
1607,MN,Limited Free,TimeWarner,Hansborough Recreation Center,35 West 134th Street,40.812913,-73.939203,1001079.289,235449.0675,Indoor,5th Floor Roof Top,Manhattan,GuestWiFi,177946,"(40.812913, -73.939203)"
1608,MN,Limited Free,TimeWarner,Hansborough Recreation Center,35 West 134th Street,40.812913,-73.939203,1001079.289,235449.0675,Indoor,4th Floor Fitness,Manhattan,GuestWiFi,177947,"(40.812913, -73.939203)"
1609,MN,Limited Free,TimeWarner,Hansborough Recreation Center,35 West 134th Street,40.812913,-73.939203,1001079.289,235449.0675,Indoor,2nd Floor Dance Rm,Manhattan,GuestWiFi,177948,"(40.812913, -73.939203)"
1610,MN,Limited Free,TimeWarner,Hansborough Recreation Center,35 West 134th Street,40.812913,-73.939203,1001079.289,235449.0675,Indoor,2nd Floor Game Rm,Manhattan,GuestWiFi,177949,"(40.812913, -73.939203)"
1611,MN,Limited Free,TimeWarner,Hansborough Recreation Center,35 West 134th Street,40.812913,-73.939203,1001079.289,235449.0675,Indoor,Lobby,Manhattan,GuestWiFi,177950,"(40.812913, -73.939203)"
1612,MN,Limited Free,TimeWarner,J. Hood Wright Park,353 FORT WASHINGTON AVE,40.846645,-73.940815,1000624.766,247738.5663,Outdoor,Ballfield,Manhattan,GuestWiFi,216625,"(40.846645, -73.940815)"
1613,MN,Limited Free,TimeWarner,J. Hood Wright Park,336 FORT WASHINGTON AVE,40.846347,-73.940654,1000669.384,247630.0235,Indoor,Recreation Rm,Manhattan,GuestWiFi,263777,"(40.846347, -73.940654)"
1614,MN,Limited Free,TimeWarner,J. Hood Wright Park,336 FORT WASHINGTON AVE,40.846347,-73.940654,1000669.384,247630.0235,Indoor,Gym and Multipurpose Rm,Manhattan,GuestWiFi,263778,"(40.846347, -73.940654)"
1615,MN,Limited Free,TimeWarner,J. Hood Wright Park,336 FORT WASHINGTON AVE,40.846347,-73.940654,1000669.384,247630.0235,Indoor,Computer Resource Rm,Manhattan,GuestWiFi,263779,"(40.846347, -73.940654)"
1616,MN,Limited Free,TimeWarner,J. Hood Wright Rec Center,336 FORT WASHINGTON AVE,40.846889,-73.941333,1000481.391,247827.3682,Outdoor,SW Field and Playground,Manhattan,GuestWiFi,216622,"(40.846889, -73.941333)"
1617,MN,Limited Free,TimeWarner,J. Hood Wright Rec Center,336 FORT WASHINGTON AVE,40.846472,-73.941722,1000373.868,247675.3676,Outdoor,NW Field by Rec Center,Manhattan,GuestWiFi,216623,"(40.846472, -73.941722)"
1618,MN,Limited Free,TimeWarner,J. Hood Wright Rec Center,336 FORT WASHINGTON AVE,40.846458,-73.940536,1000702.003,247670.4873,Outdoor,BB Court and East Entrance,Manhattan,GuestWiFi,216624,"(40.846458, -73.940536)"
1619,MN,Limited Free,TimeWarner,Jackie Robinson Recreation Center,102 BRADHURST AVE,40.82480274,-73.94232444,1000212.388,239780.3437,Indoor,Library,Manhattan,GuestWiFi,200936,"(40.82480274, -73.94232444)"
1620,MN,Limited Free,TimeWarner,Jackie Robinson Recreation Center,102 BRADHURST AVE,40.82480274,-73.94232444,1000212.388,239780.3437,Indoor,Dugout,Manhattan,GuestWiFi,200938,"(40.82480274, -73.94232444)"
1621,MN,Limited Free,TimeWarner,Jackie Robinson Recreation Center,102 BRADHURST AVE,40.82480274,-73.94232444,1000212.388,239780.3437,Indoor,Computer Lab,Manhattan,GuestWiFi,200939,"(40.82480274, -73.94232444)"
1622,MN,Limited Free,TimeWarner,Jackie Robinson Recreation Center,102 BRADHURST AVE,40.82480274,-73.94232444,1000212.388,239780.3437,Indoor,Gymnasium,Manhattan,GuestWiFi,200940,"(40.82480274, -73.94232444)"
1623,MN,Limited Free,TimeWarner,Jackie Robinson Recreation Center,102 BRADHURST AVE,40.82480274,-73.94232444,1000212.388,239780.3437,Indoor,Admin Office,Manhattan,GuestWiFi,200941,"(40.82480274, -73.94232444)"
1624,MN,Limited Free,TimeWarner,Jackie Robinson Recreation Center,102 BRADHURST AVE,40.82480274,-73.94232444,1000212.388,239780.3437,Indoor,Maintenance,Manhattan,GuestWiFi,201034,"(40.82480274, -73.94232444)"
1625,QN,Limited Free,TimeWarner,Juniper Valley Park,6338 78TH ST,40.7188,-73.8854,1016017.413,201175.5265,Outdoor,Juniper Blvd South East,Queens,GuestWiFi,216614,"(40.7188, -73.8854)"
1626,QN,Limited Free,TimeWarner,Juniper Valley Park,6329 77TH PL,40.72026,-73.87777,1018131.725,201710.3079,Outdoor,Playground,Queens,GuestWiFi,216615,"(40.72026, -73.87777)"
1627,QN,Limited Free,TimeWarner,Juniper Valley Park,6329 77TH PL,40.7206,-73.87733,1018253.518,201834.3506,Outdoor,Comfort Station,Queens,GuestWiFi,216616,"(40.7206, -73.87733)"
1628,QN,Limited Free,TimeWarner,Juniper Valley Park,6226 79TH ST,40.72105,-73.87794,1018084.201,201998.0632,Outdoor,Sitting Area,Queens,GuestWiFi,216617,"(40.72105, -73.87794)"
1629,QN,Limited Free,TimeWarner,Juniper Valley Park,6303 74TH ST,40.7192,-73.8853,1016044.942,201321.2949,Outdoor,Juniper Blvd South West,Queens,GuestWiFi,216618,"(40.7192, -73.8853)"
1630,QN,Limited Free,TimeWarner,Juniper Valley Park,6242 71ST ST,40.7205,-73.8849,1016155.2,201795.0699,Outdoor,71st St Ball Field South Area,Queens,GuestWiFi,216619,"(40.7205, -73.8849)"
1631,QN,Limited Free,TimeWarner,Juniper Valley Park,6159 71ST ST,40.7183,-73.8823,1016876.985,200994.5006,Outdoor,71st St Ball Field Center Area,Queens,GuestWiFi,216620,"(40.7183, -73.8823)"
1632,QN,Limited Free,TimeWarner,Juniper Valley Park,6159 71ST ST,40.7197,-73.8771,1018317.733,201506.5429,Outdoor,71st St Ball Field North Area,Queens,GuestWiFi,216621,"(40.7197, -73.8771)"
1633,QN,Limited Free,TimeWarner,London Planetree Playground,8820 95TH AVE,40.685596,-73.852987,1025022.674,189091.7521,Outdoor,Playground,Queens,GuestWiFi,189916,"(40.685596, -73.852987)"
1634,QN,Limited Free,TimeWarner,London Planetree Playground,9412 88TH ST,40.686246,-73.85387,1024777.388,189328.1562,Outdoor,Skate Park,Queens,GuestWiFi,189971,"(40.686246, -73.85387)"
1635,QN,Limited Free,TimeWarner,London Planetree Playground,8807 ATLANTIC AVE,40.68695,-73.853569,1024860.438,189584.783,Outdoor,Handball Court,Queens,GuestWiFi,189972,"(40.68695, -73.853569)"
1636,QN,Limited Free,TimeWarner,London Planetree Playground,8719 ATLANTIC AVE,40.686726,-73.854373,1024637.596,189502.8015,Outdoor,Handball Court,Queens,GuestWiFi,189973,"(40.686726, -73.854373)"
1637,QN,Limited Free,TimeWarner,Lost Battalion Hall Recreation Center,93-29 Queens Blvd,40.731764,-73.865547,1021513.462,205906.5308,Indoor,Sr. Dinning Area,Rego Parks,GuestWiFi,179378,"(40.731764, -73.865547)"
1638,QN,Limited Free,TimeWarner,Lost Battalion Hall Recreation Center,93-29 Queens Blvd,40.732185,-73.865541,1021514.889,206059.9167,Outdoor,Intersection of 62 Ave & 93rd St,Rego Parks,GuestWiFi,179379,"(40.732185, -73.865541)"
1639,QN,Limited Free,TimeWarner,Lost Battalion Hall Recreation Center,93-29 Queens Blvd,40.73206,-73.865179,1021615.286,206014.5296,Outdoor,Intersection of 62 Ave & dead end,Rego Parks,GuestWiFi,179380,"(40.73206, -73.865179)"
1640,QN,Limited Free,TimeWarner,Lost Battalion Hall Recreation Center,93-29 Queens Blvd,40.731764,-73.865547,1021513.462,205906.5308,Indoor,1st Fl Gymnasium,Rego Parks,GuestWiFi,179381,"(40.731764, -73.865547)"
1641,QN,Limited Free,TimeWarner,Lost Battalion Hall Recreation Center,93-29 Queens Blvd,40.731764,-73.865547,1021513.462,205906.5308,Indoor,2nd Fl After School Rm,Rego Parks,GuestWiFi,179382,"(40.731764, -73.865547)"
1642,BK,Limited Free,TimeWarner,McCarren Park,776 Lorimer Street,40.72007,-73.9505,997971.2681,201621.3232,Outdoor,Track & Field,Brooklyn,GuestWiFi,330930,"(40.72007, -73.9505)"
1643,BK,Limited Free,TimeWarner,McCarren Park,776 Lorimer Street,40.71946,-73.9507,997915.954,201399.0503,Outdoor,Track & Field,Brooklyn,GuestWiFi,330931,"(40.71946, -73.9507)"
1644,BK,Limited Free,TimeWarner,McCarren Park,776 Lorimer Street,40.71931,-73.9518,997611.0641,201344.2309,Outdoor,Track & Field,Brooklyn,GuestWiFi,330932,"(40.71931, -73.9518)"
1645,BK,Limited Free,TimeWarner,McCarren Park,776 Lorimer Street,40.72054,-73.952,997555.3786,201792.3271,Outdoor,Track & Field,Brooklyn,GuestWiFi,330933,"(40.72054, -73.952)"
1646,BK,Limited Free,TimeWarner,McCarren Park,776 Lorimer Street,40.72063,-73.9509,997860.2749,201825.286,Outdoor,Track & Field,Brooklyn,GuestWiFi,330934,"(40.72063, -73.9509)"
1647,BK,Limited Free,TimeWarner,McKinley Park,7623 FORT HAMILTON PKWY,40.625004,-74.017875,979288.0296,166982.6956,Outdoor,Fort Hamilton PKWY Between 76th & 77th St,Brooklyn,GuestWiFi,216609,"(40.625004, -74.017875)"
1648,BK,Limited Free,TimeWarner,McKinley Park,7523 FORT HAMILTON PKWY,40.625313,-74.017344,979435.4538,167095.243,Outdoor,Tennis Courts at 76th St. & Hamilton,Brooklyn,GuestWiFi,216610,"(40.625313, -74.017344)"
1649,BK,Limited Free,TimeWarner,McKinley Park,7505 FORT HAMILTON PKWY,40.62588,-74.016509,979667.2815,167301.7714,Outdoor,Basketball Courts at Bay Ridge Pkwy,Brooklyn,GuestWiFi,216611,"(40.62588, -74.016509)"
1650,BK,Limited Free,TimeWarner,McKinley Park,7301 FORT HAMILTON PKWY,40.62638,-74.01579,979866.9008,167483.898,Outdoor,Entrance off 73rd St,Brooklyn,GuestWiFi,216612,"(40.62638, -74.01579)"
1651,BK,Limited Free,TimeWarner,McKinley Park,7415 FORT HAMILTON PKWY,40.626553,-74.016787,979590.1589,167546.9779,Outdoor,Outdoor -Comfort station & Playground area,Brooklyn,GuestWiFi,216613,"(40.626553, -74.016787)"
1652,BK,Limited Free,TimeWarner,Metropolitan Recreation Center / Pool,261 Bedford Ave.,40.715011,-73.960397,995228.6798,199776.7796,Indoor,2nd Fl Aerobics Rm,Brooklyn,GuestWiFi,179390,"(40.715011, -73.960397)"
1653,BK,Limited Free,TimeWarner,Metropolitan Recreation Center / Pool,261 Bedford Ave.,40.715011,-73.960397,995228.6798,199776.7796,Indoor,Lobby area,Brooklyn,GuestWiFi,179391,"(40.715011, -73.960397)"
1687,BK,Limited Free,TimeWarner,Red Hook Park,544 Columbia Street,40.673338,-74.00825,981961.5183,184591.7034,Outdoor,Park,Brooklyn,GuestWiFi,182175,"(40.673338, -74.00825)"
1654,SI,Limited Free,TimeWarner,Midland Beach and Boardwalk,660 Lincoln Ave,40.56844,-74.0908,959023.222,146387.5557,Outdoor,Along Boardwalk and Beach,Staten Island,GuestWiFi,219082,"(40.56844, -74.0908)"
1655,SI,Limited Free,TimeWarner,Midland Beach and Boardwalk,1111 Father Capodanno Blvd,40.56936,-74.08954,959373.6278,146722.3736,Outdoor,Along Boardwalk and Beach,Staten Island,GuestWiFi,219083,"(40.56936, -74.08954)"
1656,SI,Limited Free,TimeWarner,Midland Beach and Boardwalk,1101 FATHER CAPODANNO BLVD,40.570205,-74.088516,959658.4307,147029.9386,Outdoor,Along Boardwalk and Beach,Staten Island,GuestWiFi,219084,"(40.570205, -74.088516)"
1657,SI,Limited Free,TimeWarner,Midland Beach and Boardwalk,1049 Mapleton Ave,40.57126,-74.08733,959988.309,147413.9703,Outdoor,Along Boardwalk and Beach,Staten Island,GuestWiFi,219085,"(40.57126, -74.08733)"
1658,SI,Limited Free,TimeWarner,Midland Beach and Boardwalk,975 FATHER CAPODANNO BLVD,40.572282,-74.08596,960369.2823,147785.9332,Outdoor,Along Boardwalk and Beach,Staten Island,GuestWiFi,219086,"(40.572282, -74.08596)"
1659,SI,Limited Free,TimeWarner,Midland Beach and Boardwalk,901 FATHER CAPODANNO BLVD,40.573317,-74.084369,960811.6443,148162.5794,Outdoor,Along Boardwalk and Beach,Staten Island,GuestWiFi,219087,"(40.573317, -74.084369)"
1660,SI,Limited Free,TimeWarner,Midland Beach and Boardwalk,675 Franklin D Roosevelt Boardwalk,40.576211,-74.079901,962053.8505,149215.7712,Outdoor,Along Boardwalk and Beach,Staten Island,GuestWiFi,219088,"(40.576211, -74.079901)"
1661,SI,Limited Free,TimeWarner,Midland Beach and Boardwalk,795 FATHER CAPODANNO BLVD,40.575042,-74.08166,961564.8111,148790.3262,Outdoor,Along Boardwalk and Beach,Staten Island,GuestWiFi,219089,"(40.575042, -74.08166)"
1662,SI,Limited Free,TimeWarner,Midland Beach and Boardwalk,777 FATHER CAPODANNO BLVD,40.575728,-74.080651,961845.3417,149039.9933,Outdoor,Along Boardwalk and Beach,Staten Island,GuestWiFi,219090,"(40.575728, -74.080651)"
1663,SI,Limited Free,TimeWarner,Midland Beach and Boardwalk,700 FATHER CAPODANNO BLVD,40.576473,-74.079582,962142.554,149311.1434,Outdoor,Along Boardwalk and Beach,Staten Island,GuestWiFi,219091,"(40.576473, -74.079582)"
1664,SI,Limited Free,TimeWarner,Midland Beach and Boardwalk,681 Franklin D Roosevelt Boardwalk,40.57715,-74.07863,962407.2356,149557.5523,Outdoor,Along Boardwalk and Beach,Staten Island,GuestWiFi,239351,"(40.57715, -74.07863)"
1665,SI,Limited Free,TimeWarner,Midland Beach and Boardwalk,688 Franklin D Roosevelt Boardwalk,40.5777,-74.07791,962607.4239,149757.7524,Outdoor,Along Boardwalk and Beach,Staten Island,GuestWiFi,239352,"(40.5777, -74.07791)"
1666,SI,Limited Free,TimeWarner,Midland Beach and Boardwalk,691 Franklin D Roosevelt Boardwalk,40.57847,-74.07679,962918.794,150038.0077,Outdoor,Along Boardwalk and Beach,Staten Island,GuestWiFi,239353,"(40.57847, -74.07679)"
1667,SI,Limited Free,TimeWarner,Midland Beach and Boardwalk,695 Franklin D Roosevelt Boardwalk,40.57969,-74.07637,963035.8515,150482.3818,Outdoor,Along Boardwalk and Beach,Staten Island,GuestWiFi,239354,"(40.57969, -74.07637)"
1668,SI,Limited Free,TimeWarner,Midland Beach and Boardwalk,700 Franklin D Roosevelt Boardwalk,40.58,-74.07583,963185.9512,150595.1923,Outdoor,Along Boardwalk and Beach,Staten Island,GuestWiFi,239355,"(40.58, -74.07583)"
1669,QN,Limited Free,TimeWarner,Overlook Park,Kew Gardens,40.710773,-73.835534,1029845.873,198273.0697,Indoor,1st Fl Conference Rm,Queens,GuestWiFi,179383,"(40.710773, -73.835534)"
1670,QN,Limited Free,TimeWarner,Overlook Park,Kew Gardens,40.709844,-73.835488,1029859.261,197934.6314,Outdoor,Area by comfort station,Queens,GuestWiFi,179384,"(40.709844, -73.835488)"
1671,QN,Limited Free,TimeWarner,Overlook Park,Kew Gardens,40.710773,-73.835534,1029845.873,198273.0697,Outdoor,Area outside HQ building,Queens,GuestWiFi,179385,"(40.710773, -73.835534)"
1672,BK,Limited Free,TimeWarner,Owl's Head Park,80 68th St,40.639278,-74.032091,975343.6766,172184.222,Outdoor,Comfort station - Front Left,Brooklyn,GuestWiFi,318410,"(40.639278, -74.032091)"
1673,BK,Limited Free,TimeWarner,Owl's Head Park,80 68th St,40.639231,-74.031933,975387.5207,172167.0826,Outdoor,Outside comfort station - Front right,Brooklyn,GuestWiFi,318411,"(40.639231, -74.031933)"
1674,BK,Limited Free,TimeWarner,Owl's Head Park,80 68th St,40.639292,-74.031896,975397.7975,172189.3027,Outdoor,Outside comfort station - Back Right,Brooklyn,GuestWiFi,318412,"(40.639292, -74.031896)"
1675,MN,Limited Free,TimeWarner,Pelham Fritz Recreation Center,18 Mount Morris Park West,40.80501,-73.944885,999508.2602,232568.6842,Indoor,Dining Hall,Manhattan,GuestWiFi,177951,"(40.80501, -73.944885)"
1676,MN,Limited Free,TimeWarner,Pelham Fritz Recreation Center,18 Mount Morris Park West,40.80501,-73.944885,999508.2602,232568.6842,Indoor,Computer Resource Rm,Manhattan,GuestWiFi,177952,"(40.80501, -73.944885)"
1677,MN,Limited Free,TimeWarner,Pelham Fritz Recreation Center,18 Mount Morris Park West,40.80501,-73.944885,999508.2602,232568.6842,Indoor,Library,Manhattan,GuestWiFi,177953,"(40.80501, -73.944885)"
1678,MN,Limited Free,TimeWarner,Pelham Fritz Recreation Center,18 Mount Morris Park West,40.80501,-73.944885,999508.2602,232568.6842,Indoor,Backstage area,Manhattan,GuestWiFi,177954,"(40.80501, -73.944885)"
1679,MN,Limited Free,TimeWarner,Pelham Fritz Recreation Center,18 Mount Morris Park West,40.80501,-73.944885,999508.2602,232568.6842,Indoor,North Hallway,Manhattan,GuestWiFi,177955,"(40.80501, -73.944885)"
1680,MN,Limited Free,TimeWarner,Pelham Fritz Recreation Center,18 Mount Morris Park West,40.804732,-73.944988,999479.8088,232467.3809,Indoor,Baseball Diamond Corner,Manhattan,GuestWiFi,177956,"(40.804732, -73.944988)"
1681,MN,Limited Free,TimeWarner,Pelham Fritz Recreation Center,18 Mount Morris Park West,40.804906,-73.944666,999568.9129,232530.8316,Indoor,Amplitheater,Manhattan,GuestWiFi,177957,"(40.804906, -73.944666)"
1682,MN,Limited Free,TimeWarner,Pelham Fritz Recreation Center,18 Mount Morris Park West,40.805214,-73.944645,999574.6557,232643.0502,Indoor,Park Area North,Manhattan,GuestWiFi,177958,"(40.805214, -73.944645)"
1683,MN,Limited Free,TimeWarner,Recreation Center 54,348 EAST 54TH ST,40.750002,-73.95,998103.6422,212526.5691,Indoor,1st Floor Lobby,Manhattan,GuestWiFi,216634,"(40.750002, -73.95)"
1684,MN,Limited Free,TimeWarner,Recreation Center 54,348 EAST 54TH ST,40.750002,-73.95,998103.6422,212526.5691,Indoor,2nd fl multi purpose room,Manhattan,GuestWiFi,216635,"(40.750002, -73.95)"
1685,MN,Limited Free,TimeWarner,Recreation Center 54,348 EAST 54TH ST,40.750002,-73.95,998103.6422,212526.5691,Indoor,3rd floor cardio/basketball court,Manhattan,GuestWiFi,216636,"(40.750002, -73.95)"
1686,BK,Limited Free,TimeWarner,Red Hook Park,115 Bay Street,40.672583,-74.005544,982712.1228,184316.5763,Outdoor,Park,Brooklyn,GuestWiFi,182154,"(40.672583, -74.005544)"
1688,BK,Limited Free,TimeWarner,Red Hook Park,838 Henry Street,40.67303,-74.00485,982904.6441,184479.4198,Outdoor,Park,Brooklyn,GuestWiFi,182177,"(40.67303, -74.00485)"
1689,BK,Limited Free,TimeWarner,Red Hook Park,80 Bay Street,40.672969,-74.006915,982331.8257,184457.2342,Outdoor,Park,Brooklyn,GuestWiFi,182203,"(40.672969, -74.006915)"
1690,BK,Limited Free,TimeWarner,Red Hook Park,155 Bay Street,40.672214,-74.004145,983100.1919,184182.1176,Outdoor,Park,Brooklyn,GuestWiFi,182204,"(40.672214, -74.004145)"
1691,BK,Limited Free,TimeWarner,Red Hook Park,684 Clinton Street,40.671167,-74.003688,983226.9459,183800.66,Outdoor,Park,Brooklyn,GuestWiFi,182205,"(40.671167, -74.003688)"
1692,BK,Limited Free,TimeWarner,Red Hook Recreation Center,155 BAY ST,40.67234,-74.00408,983118.2247,184228.0223,Indoor,Lobby,Brooklyn,GuestWiFi,216637,"(40.67234, -74.00408)"
1693,BK,Limited Free,TimeWarner,Red Hook Recreation Center,155 BAY ST,40.67234,-74.00408,983118.2247,184228.0223,Indoor,Game Room,Brooklyn,GuestWiFi,216638,"(40.67234, -74.00408)"
1694,BK,Limited Free,TimeWarner,Red Hook Recreation Center,155 BAY ST,40.67234,-74.00408,983118.2247,184228.0223,Indoor,Basketball Court,Brooklyn,GuestWiFi,216639,"(40.67234, -74.00408)"
1695,BK,Limited Free,TimeWarner,Red Hook Recreation Center,155 BAY ST,40.67234,-74.00408,983118.2247,184228.0223,Indoor,Weight Room,Brooklyn,GuestWiFi,216640,"(40.67234, -74.00408)"
1696,BK,Limited Free,TimeWarner,Red Hook Recreation Center,155 BAY ST,40.67234,-74.00408,983118.2247,184228.0223,Indoor,Computer Room,Brooklyn,GuestWiFi,216641,"(40.67234, -74.00408)"
1697,QN,Limited Free,TimeWarner,Rockaway Beach Boardwalk,7208 WATER WAY,40.586556,-73.799894,1039829.925,153038.0729,Outdoor,Beach 73 - Comfort Station and Beach,Far Rockaway,GuestWiFi,266422,"(40.586556, -73.799894)"
1698,QN,Limited Free,TimeWarner,Rockaway Beach Boardwalk,7208 WATER WAY,40.586541,-73.799973,1039807.995,153032.5578,Outdoor,Beach 73 - Comfort Station and Beach,Far Rockaway,GuestWiFi,266423,"(40.586541, -73.799973)"
1699,QN,Limited Free,TimeWarner,Rockaway Beach Boardwalk,8600 Shore Front Pkwy,40.584669,-73.811051,1036732.529,152343.7114,Outdoor,Beach 86 - NW Concession Area,Rockaway Beach,GuestWiFi,266424,"(40.584669, -73.811051)"
1700,QN,Limited Free,TimeWarner,Rockaway Beach Boardwalk,8600 Shore Front Pkwy,40.584551,-73.811003,1036745.954,152300.7499,Outdoor,Beach 86 - SW Concession Area and Beach,Rockaway Beach,GuestWiFi,266425,"(40.584551, -73.811003)"
1701,QN,Limited Free,TimeWarner,Rockaway Beach Boardwalk,8600 Shore Front Pkwy,40.584614,-73.810694,1036831.732,152323.8877,Outdoor,Beach 86 - SE Concession Shade Structure and Beach,Rockaway Beach,GuestWiFi,266426,"(40.584614, -73.810694)"
1702,QN,Limited Free,TimeWarner,Rockaway Beach Boardwalk,8600 Shore Front Pkwy,40.584787,-73.81064,1036846.595,152386.9482,Outdoor,Beach 86- SE Concession Shade Structure and Picnic Area,Rockaway Beach,GuestWiFi,266427,"(40.584787, -73.81064)"
1703,QN,Limited Free,TimeWarner,Rockaway Beach Boardwalk,8600 Shore Front Pkwy,40.584485,-73.811217,1036686.565,152276.5764,Outdoor,Beach 86 - Comfort Station and Beach,Rockaway Beach,GuestWiFi,266428,"(40.584485, -73.811217)"
1704,QN,Limited Free,TimeWarner,Rockaway Beach Boardwalk,9620 SHORE FRONT PKWY,40.58305,-73.817686,1034890.819,151749.9649,Outdoor,Beach 97 - NW Rear of Concession,Rockaway Beach,GuestWiFi,266429,"(40.58305, -73.817686)"
1705,QN,Limited Free,TimeWarner,Rockaway Beach Boardwalk,9620 SHORE FRONT PKWY,40.582916,-73.81788,1034837.034,151701.0333,Outdoor,Beach 97 - SW Concession and Beach,Rockaway Beach,GuestWiFi,266430,"(40.582916, -73.81788)"
1706,QN,Limited Free,TimeWarner,Rockaway Beach Boardwalk,9620 SHORE FRONT PKWY,40.582824,-73.817578,1034920.99,151667.6902,Outdoor,Beach 97 - SW Concession and Beach,Rockaway Beach,GuestWiFi,266431,"(40.582824, -73.817578)"
1707,QN,Limited Free,TimeWarner,Rockaway Beach Boardwalk,9614  SHORE FRONT PKWY,40.582957,-73.817185,1035030.051,151716.3728,Outdoor,Beach 97 - SE Concessiont and Beach,Rockaway Beach,GuestWiFi,266432,"(40.582957, -73.817185)"
1708,QN,Limited Free,TimeWarner,Rockaway Beach Boardwalk,9520 SHORE FRONT PKWY,40.583123,-73.8167,1035164.642,151777.1322,Outdoor,Beach 97 - Comfort Station and Beach,Rockaway Beach,GuestWiFi,266433,"(40.583123, -73.8167)"
1709,QN,Limited Free,TimeWarner,Rockaway Beach Boardwalk,10620 SHORE FRONT PKWY,40.580559,-73.826296,1032501.048,150837.573,Outdoor,Beach 108 -NW Rear of Caracus Bar,Rockaway Beach,GuestWiFi,266434,"(40.580559, -73.826296)"
1710,QN,Limited Free,TimeWarner,Rockaway Beach Boardwalk,10620 SHORE FRONT PKWY,40.580467,-73.826272,1032507.781,150804.0685,Outdoor,Beach 108 -SW Caracus Bar and Beach,Rockaway Beach,GuestWiFi,266435,"(40.580467, -73.826272)"
1711,QN,Limited Free,TimeWarner,Rockaway Beach Boardwalk,10620 SHORE FRONT PKWY,40.580555,-73.825958,1032594.94,150836.3021,Outdoor,Beach 108 -SE Caracus Bar and Beach,Rockaway Beach,GuestWiFi,266436,"(40.580555, -73.825958)"
1712,QN,Limited Free,TimeWarner,Rockaway Beach Boardwalk,10620 SHORE FRONT PKWY,40.580704,-73.825969,1032591.776,150890.5805,Outdoor,Beach 108 -NE Caracus Bar and Beach,Rockaway Beach,GuestWiFi,266437,"(40.580704, -73.825969)"
1713,QN,Limited Free,TimeWarner,Rockaway Beach Boardwalk,10620 SHORE FRONT PKWY,40.580352,-73.826621,1032410.92,150761.979,Outdoor,Beach 108 - Comfort Station and Beach,Rockaway Beach,GuestWiFi,266438,"(40.580352, -73.826621)"
1714,QN,Limited Free,TimeWarner,Rockaway Beach Boardwalk,156 Beach 109TH Street,40.57999202,-73.82986,1031511.452,150629.0656,Outdoor,Beach 109 - Street and Beach,Far Rockaway,GuestWiFi,266439,"(40.57999202, -73.82986)"
1715,QN,Limited Free,TimeWarner,Rockaway Beach Boardwalk,11502 Ocean Promenade,40.577846,-73.835761,1029873.741,149844.0898,Outdoor,Beach 116 - Comfort Station and Beach,Far Rockaway,GuestWiFi,266440,"(40.577846, -73.835761)"
1716,QN,Limited Free,TimeWarner,Rockaway Beach Boardwalk,11502 Ocean Promenade,40.577878,-73.835788,1029866.219,149855.7341,Outdoor,Beach 116 - Rear of Comfort Station,Far Rockaway,GuestWiFi,266441,"(40.577878, -73.835788)"
1717,QN,Limited Free,TimeWarner,Rockaway Beach Boardwalk,11502 Ocean Promenade,40.5779,-73.835601,1029918.15,149863.8466,Outdoor,Beach 116 - Comfort Station and Beach,Far Rockaway,GuestWiFi,266442,"(40.5779, -73.835601)"
1718,QN,Limited Free,TimeWarner,Rockaway Beach Boardwalk,11502 Ocean Promenade,40.577871,-73.835664,1029900.67,149853.2486,Outdoor,Beach 116 - Comfort Station and Beach,Far Rockaway,GuestWiFi,266443,"(40.577871, -73.835664)"
1719,QN,Limited Free,TimeWarner,Rockaway Beach Boardwalk,924  SEAGIRT BLVD,40.59648,-73.74499,1055069.079,156693.2375,Outdoor,Playground and BB Court,Far Rockaway,GuestWiFi,270791,"(40.59648, -73.74499)"
1720,QN,Limited Free,TimeWarner,Rockaway Beach Boardwalk,209 Beach 11th St,40.59637,-73.74538,1054960.888,156652.8468,Outdoor,Playground and BB Court,Far Rockaway,GuestWiFi,270792,"(40.59637, -73.74538)"
1721,QN,Limited Free,TimeWarner,Rockaway Beach Boardwalk,11-18 Heyson Rd,40.59632,-73.74578,1054849.857,156634.3078,Outdoor,Parking Lot and BB Court,Far Rockaway,GuestWiFi,270793,"(40.59632, -73.74578)"
1722,QN,Limited Free,TimeWarner,Rockaway Beach Boardwalk,11-18 Heyson Rd,40.5962,-73.74625,1054719.46,156590.2105,Outdoor,Parking Lot and Skate Park,Far Rockaway,GuestWiFi,270794,"(40.5962, -73.74625)"
1723,QN,Limited Free,TimeWarner,Rockaway Beach Boardwalk,207 Beach 13th St,40.59571,-73.74725,1054442.263,156410.889,Outdoor,Parking Lot and Skate Park,Far Rockaway,GuestWiFi,270795,"(40.59571, -73.74725)"
1724,QN,Limited Free,TimeWarner,Rockaway Beach Boardwalk,1312 Seagirt Blvd,40.59559,-73.74762,1054339.635,156366.8737,Outdoor,Parking Lot and Skate Park,Far Rockaway,GuestWiFi,270796,"(40.59559, -73.74762)"
1725,QN,Limited Free,TimeWarner,Roy Wilkins Rec Center,17713 BAISLEY BLVD,40.68717778,-73.76987222,1048072.22,189717.66,Outdoor,Picnic Area,Queens,GuestWiFi,201344,"(40.68717778, -73.76987222)"
1726,QN,Limited Free,TimeWarner,Roy Wilkins Rec Center,17713 BAISLEY BLVD,40.68717778,-73.76987222,1048072.22,189717.66,Outdoor,Picnic Area,Queens,GuestWiFi,201345,"(40.68717778, -73.76987222)"
1727,QN,Limited Free,TimeWarner,Roy Wilkins Rec Center,17713 BAISLEY BLVD,40.68712778,-73.76971389,1048116.179,189699.559,Indoor,Food pantry and Patio,Queens,GuestWiFi,201346,"(40.68712778, -73.76971389)"
1728,QN,Limited Free,TimeWarner,Roy Wilkins Rec Center,17713 BAISLEY BLVD,40.68712778,-73.76971389,1048116.179,189699.559,Indoor,Bunker Rm 1 (AKA Rm B4),Queens,GuestWiFi,201347,"(40.68712778, -73.76971389)"
1729,QN,Limited Free,TimeWarner,Roy Wilkins Rec Center,17713 BAISLEY BLVD,40.68712778,-73.76971389,1048116.179,189699.559,Indoor,Bunker Rm 2 (AKA Rm B3),Queens,GuestWiFi,201348,"(40.68712778, -73.76971389)"
1730,QN,Limited Free,TimeWarner,Roy Wilkins Rec Center,17713 BAISLEY BLVD,40.68712778,-73.76971389,1048116.179,189699.559,Indoor,Bunker Rm 3 (AKA Rm B5),Queens,GuestWiFi,201349,"(40.68712778, -73.76971389)"
1731,QN,Limited Free,TimeWarner,Roy Wilkins Rec Center,17713 BAISLEY BLVD,40.68712778,-73.76971389,1048116.179,189699.559,Indoor,Classroom 1 (AKA RM B2),Queens,GuestWiFi,201350,"(40.68712778, -73.76971389)"
1732,QN,Limited Free,TimeWarner,Roy Wilkins Rec Center,17713 BAISLEY BLVD,40.68712778,-73.76971389,1048116.179,189699.559,Indoor,Classroom 2 (AKA Rm B1),Queens,GuestWiFi,201351,"(40.68712778, -73.76971389)"
1733,QN,Limited Free,TimeWarner,Roy Wilkins Rec Center,17713 BAISLEY BLVD,40.68712778,-73.76971389,1048116.179,189699.559,Indoor,Gym 1,Queens,GuestWiFi,201352,"(40.68712778, -73.76971389)"
1734,QN,Limited Free,TimeWarner,Roy Wilkins Rec Center,17713 BAISLEY BLVD,40.68712778,-73.76971389,1048116.179,189699.559,Indoor,Workout Rm,Queens,GuestWiFi,201353,"(40.68712778, -73.76971389)"
1735,QN,Limited Free,TimeWarner,Roy Wilkins Rec Center,17713 BAISLEY BLVD,40.68712778,-73.76971389,1048116.179,189699.559,Indoor,Family waiting area,Queens,GuestWiFi,201354,"(40.68712778, -73.76971389)"
1736,QN,Limited Free,TimeWarner,Roy Wilkins Rec Center,17713 BAISLEY BLVD,40.68712778,-73.76971389,1048116.179,189699.559,Indoor,Maintenance office - 2nd Fl,Queens,GuestWiFi,201355,"(40.68712778, -73.76971389)"
1737,QN,Limited Free,TimeWarner,Roy Wilkins Rec Center,17713 BAISLEY BLVD,40.68712778,-73.76971389,1048116.179,189699.559,Indoor,Rec Office #2,Queens,GuestWiFi,201356,"(40.68712778, -73.76971389)"
1738,QN,Limited Free,TimeWarner,Roy Wilkins Rec Center,17713 BAISLEY BLVD,40.68712778,-73.76971389,1048116.179,189699.559,Indoor,Rec Office #2,Queens,GuestWiFi,201357,"(40.68712778, -73.76971389)"
1739,QN,Limited Free,TimeWarner,Roy Wilkins Rec Center,17713 BAISLEY BLVD,40.68712778,-73.76971389,1048116.179,189699.559,Indoor,Rehearsal Rm - 2nd Fl,Queens,GuestWiFi,201358,"(40.68712778, -73.76971389)"
1740,QN,Limited Free,TimeWarner,Roy Wilkins Rec Center,17713 BAISLEY BLVD,40.68712778,-73.76971389,1048116.179,189699.559,Indoor,Theater lounge,Queens,GuestWiFi,202347,"(40.68712778, -73.76971389)"
1741,SI,Limited Free,TimeWarner,SI Zoo,597 Broadway,40.626111,-74.114722,952404.5424,167406.3522,Outdoor,Area off Broadway by Entrance,Staten Island,GuestWiFi,186035,"(40.626111, -74.114722)"
1742,SI,Limited Free,TimeWarner,SI Zoo,651 Broadway Wi-Fi#1,40.624722,-74.114167,952557.9439,166900.1019,Outdoor,Area off Broadway and Colonial Court,Staten Island,GuestWiFi,186036,"(40.624722, -74.114167)"
1743,SI,Limited Free,TimeWarner,SI Zoo,651 Broadway Wi-Fi#2,40.624722,-74.114444,952481.0507,166900.202,Outdoor,Area off Broadway and Greenwood Pl,Staten Island,GuestWiFi,186037,"(40.624722, -74.114444)"
1744,SI,Limited Free,TimeWarner,Snug Harbour,914 RICHMOND TER,40.64474,-74.10033,956407.3614,174188.4906,Outdoor,North area off Richmond Terr,Staten Island,GuestWiFi,196241,"(40.64474, -74.10033)"
1745,SI,Limited Free,TimeWarner,Snug Harbour,914 RICHMOND TER,40.64488,-74.10108,956199.2874,174239.7359,Outdoor,North area off Richmond Terr,Staten Island,GuestWiFi,196242,"(40.64488, -74.10108)"
1746,SI,Limited Free,TimeWarner,Snug Harbour,914 RICHMOND TER,40.64512,-74.10166,956038.4331,174327.3604,Outdoor,North area off Richmond Terr,Staten Island,GuestWiFi,196243,"(40.64512, -74.10166)"
1747,SI,Limited Free,TimeWarner,Snug Harbour,914 RICHMOND TER,40.64534,-74.10229,955863.6962,174407.7159,Outdoor,North area off Richmond Terr,Staten Island,GuestWiFi,196244,"(40.64534, -74.10229)"
1748,SI,Limited Free,TimeWarner,Snug Harbour,914 RICHMOND TER,40.64544,-74.10289,955697.2343,174444.3437,Outdoor,North area off Richmond Terr,Staten Island,GuestWiFi,196245,"(40.64544, -74.10289)"
1749,SI,Limited Free,TimeWarner,Snug Harbour,914 RICHMOND TER,40.64547,-74.1034,955555.7181,174455.4402,Outdoor,North area off Richmond Terr,Staten Island,GuestWiFi,196246,"(40.64547, -74.1034)"
1750,SI,Limited Free,TimeWarner,Snug Harbour,150 TYSEN ST,40.641797,-74.101866,955979.8584,173116.7683,Outdoor,Building P - SE towards barn/farm area,Staten Island,GuestWiFi,216598,"(40.641797, -74.101866)"
1751,SI,Limited Free,TimeWarner,Snug Harbour,120 TYSEN ST,40.642017,-74.101905,955969.1284,173196.9329,Outdoor,Building P - NE towards play area,Staten Island,GuestWiFi,216599,"(40.642017, -74.101905)"
1752,SI,Limited Free,TimeWarner,Snug Harbour,914 RICHMOND TER,40.643848,-74.102472,955812.5539,173864.1989,Outdoor,Building G - SW towards social affair area,Staten Island,GuestWiFi,216600,"(40.643848, -74.102472)"
1753,SI,Limited Free,TimeWarner,Snug Harbour,150 TYSEN ST,40.641793,-74.10202,955937.1183,173115.3605,Outdoor,Building P - SW towards meadow,Staten Island,GuestWiFi,216601,"(40.641793, -74.10202)"
1754,SI,Limited Free,TimeWarner,Snug Harbour,120 TYSEN ST,40.641993,-74.102051,955928.5999,173188.236,Outdoor,Building P - NW towards Botanical Gardens,Staten Island,GuestWiFi,216602,"(40.641993, -74.102051)"
1755,SI,Limited Free,TimeWarner,Snug Harbour,914 RICHMOND TER,40.643792,-74.102208,955885.7936,173843.7111,Outdoor,Building G - SW social affair area,Staten Island,GuestWiFi,216603,"(40.643792, -74.102208)"
1756,SI,Limited Free,TimeWarner,Snug Harbour,120 TYSEN ST,40.642125,-74.103169,955618.387,173236.6907,Outdoor,Pathway from Building L to Building P,Staten Island,GuestWiFi,312645,"(40.642125, -74.103169)"
1757,SI,Limited Free,TimeWarner,Snug Harbour,120 TYSEN ST,40.64312332,-74.10219201,955889.9478,173600.0895,Indoor,Building L (Office),Staten Island,GuestWiFi,312647,"(40.64312332, -74.10219201)"
1758,QN,Limited Free,TimeWarner,Sorrentino Recreation Center,18-48 CORNAGA AVE,40.60211,-73.75158,1053233.152,158739.1232,Indoor,Hallway between Art and Game room,Far Rockaway,GuestWiFi,216668,"(40.60211, -73.75158)"
1759,QN,Limited Free,TimeWarner,Sorrentino Recreation Center,18-48 CORNAGA AVE,40.60211,-73.75158,1053233.152,158739.1232,Indoor,Computer resource center,Far Rockaway,GuestWiFi,216669,"(40.60211, -73.75158)"
1760,QN,Limited Free,TimeWarner,Sorrentino Recreation Center,18-48 CORNAGA AVE,40.60211,-73.75158,1053233.152,158739.1232,Indoor,Gym wall,Far Rockaway,GuestWiFi,216670,"(40.60211, -73.75158)"
1761,QN,Limited Free,TimeWarner,Sorrentino Recreation Center,18-48 CORNAGA AVE,40.60211,-73.75158,1053233.152,158739.1232,Indoor,Jeter reading room on 2nd floor,Far Rockaway,GuestWiFi,216671,"(40.60211, -73.75158)"
1762,SI,Limited Free,TimeWarner,Tappen Park,80 CANAL ST,40.626579,-74.076173,963105.4294,167565.1974,Outdoor,North side of Park off Canal St,Staten Island,GuestWiFi,186140,"(40.626579, -74.076173)"
1763,SI,Limited Free,TimeWarner,Tappen Park,613 BAY ST,40.6271,-74.075831,963200.5283,167754.929,Outdoor,West side of Park off Bay St,Staten Island,GuestWiFi,186156,"(40.6271, -74.075831)"
1764,SI,Limited Free,TimeWarner,Tappen Park,95 WATER ST,40.627089,-74.077292,962794.9747,167751.2758,Outdoor,North side of Park off Canal St,Staten Island,GuestWiFi,186159,"(40.627089, -74.077292)"
1765,MN,Limited Free,TimeWarner,Thomas Jefferson Park,2180 1st Avenue,40.793641,-73.936754,1001762.269,228428.0822,Indoor,Lobby,Manhattan,GuestWiFi,177959,"(40.793641, -73.936754)"
1766,MN,Limited Free,TimeWarner,Thomas Jefferson Park,2180 1st Avenue,40.793641,-73.936754,1001762.269,228428.0822,Indoor,Multi Purpose Room,Manhattan,GuestWiFi,177960,"(40.793641, -73.936754)"
1767,MN,Limited Free,TimeWarner,Thomas Jefferson Park,2180 1st Avenue,40.793641,-73.936754,1001762.269,228428.0822,Indoor,GED Room,Manhattan,GuestWiFi,177961,"(40.793641, -73.936754)"
1768,MN,Limited Free,TimeWarner,Thomas Jefferson Park,2180 1st Avenue,40.793641,-73.936754,1001762.269,228428.0822,Indoor,After School Room,Manhattan,GuestWiFi,177962,"(40.793641, -73.936754)"
1769,MN,Limited Free,TimeWarner,Thomas Jefferson Park,2180 1st Avenue,40.793641,-73.936754,1001762.269,228428.0822,Indoor,Computer Resource Room,Manhattan,GuestWiFi,177963,"(40.793641, -73.936754)"
1770,MN,Limited Free,TimeWarner,Thomas Jefferson Park,2180 1st Avenue,40.793641,-73.936754,1001762.269,228428.0822,Indoor,Fitness Room,Manhattan,GuestWiFi,177964,"(40.793641, -73.936754)"
1771,MN,Limited Free,TimeWarner,Thomas Jefferson Park,2180 1st Avenue,40.793305,-73.936759,1001760.973,228305.6648,Outdoor,South Ball Field,Manhattan,GuestWiFi,177965,"(40.793305, -73.936759)"
1772,MN,Limited Free,TimeWarner,Thomas Jefferson Park,2180 1st Avenue,40.793772,-73.936242,1001904.003,228475.9128,Outdoor,Noth Soccer Field,Manhattan,GuestWiFi,177966,"(40.793772, -73.936242)"
1773,SI,Limited Free,TimeWarner,Tompkinsville Park,192 Bay St,40.637291,-74.076761,962945.6286,171468.0072,Outdoor,Confort station and seating area,Staten Island,GuestWiFi,177791,"(40.637291, -74.076761)"
1774,MN,Limited Free,TimeWarner,Tony Dapolito Recreation Center,3 Clarkson Street,40.729696,-74.005633,982688.7728,205124.5462,Outdoor,Roof top covering JJ Walker Park,Manhattan,GuestWiFi,179396,"(40.729696, -74.005633)"
1775,MN,Limited Free,TimeWarner,Tony Dapolito Recreation Center,3 Clarkson Street,40.729566,-74.005493,982727.5719,205077.1808,Indoor,Lobby area,Manhattan,GuestWiFi,179397,"(40.729566, -74.005493)"
1776,MN,Limited Free,TimeWarner,Tony Dapolito Recreation Center,3 Clarkson Street,40.729566,-74.005493,982727.5719,205077.1808,Indoor,Basketball court,Manhattan,GuestWiFi,179398,"(40.729566, -74.005493)"
1777,MN,Limited Free,TimeWarner,Tony Dapolito Recreation Center,3 Clarkson Street,40.729566,-74.005493,982727.5719,205077.1808,Indoor,Afterschool Rm,Manhattan,GuestWiFi,179399,"(40.729566, -74.005493)"
1778,MN,Limited Free,TimeWarner,Tony Dapolito Recreation Center,3 Clarkson Street,40.729566,-74.005493,982727.5719,205077.1808,Indoor,CRC Rm,Manhattan,GuestWiFi,179400,"(40.729566, -74.005493)"
1779,QN,Limited Free,TimeWarner,Windmuller Park (Lawrence Virgilio Playground),5201 39TH DR,40.74746,-73.910589,1009024.302,211609.1267,Outdoor,Southside of Comfort Station,Queens,GuestWiFi,179375,"(40.74746, -73.910589)"
1780,QN,Limited Free,TimeWarner,Windmuller Park (Lawrence Virgilio Playground),5201 39TH DR.,40.747516,-73.910579,1009027.053,211629.5322,Outdoor,North side of Comfort Station,Queens,GuestWiFi,179376,"(40.747516, -73.910579)"
1781,QN,Limited Free,TimeWarner,Windmuller Park (Lawrence Virgilio Playground),5201 39TH DR,40.746227,-73.909453,1009339.533,211160.2286,Outdoor,Front of Public School 011,Queens,GuestWiFi,179377,"(40.746227, -73.909453)"
1782,QN,Limited Free,TimeWarner,Windmuller Park (Lawrence Virgilio Playground),56-20 Woodside Ave,40.74689,-73.9089,1009492.512,211401.9398,Outdoor,Woodside Ave & 55th St,Woodside,GuestWiFi,224990,"(40.74689, -73.9089)"
1783,QN,Limited Free,TimeWarner,Windmuller Park (Lawrence Virgilio Playground),56-20 Woodside Ave,40.7474,-73.9095,1009326.069,211587.5765,Outdoor,Woodside Ave &  54th St,Woodside,GuestWiFi,224991,"(40.7474, -73.9095)"
1784,QN,Limited Free,TimeWarner,Windmuller Park (Lawrence Virgilio Playground),56-20 Woodside Ave,40.7478,-73.9101,1009159.669,211733.1383,Outdoor,Woodside Ave &  39th Rd,Woodside,GuestWiFi,224992,"(40.7478, -73.9101)"
1785,SI,Limited Free,TimeWarner,Wolfes Pond Park,420 CORNELIA AVE,40.519237,-74.188231,931915.6785,128504.8858,Outdoor,South parking lot Entrance,Staten Island,GuestWiFi,191585,"(40.519237, -74.188231)"
1786,SI,Limited Free,TimeWarner,Wolfes Pond Park,420 CORNELIA AVE,40.518167,-74.189765,931488.3329,128115.981,Outdoor,Back of comfort station and picnic area,Staten Island,GuestWiFi,191586,"(40.518167, -74.189765)"
1787,SI,Limited Free,TimeWarner,Wolfes Pond Park,420 CORNELIA AVE,40.517283,-74.190996,931145.3677,127794.6641,Outdoor,South parking lot beach side,Staten Island,GuestWiFi,191587,"(40.517283, -74.190996)"
1788,SI,Limited Free,TimeWarner,Wolfes Pond Park,420 CORNELIA AVE,40.517045,-74.190323,931332.3004,127707.5481,Outdoor,South parking lot beach side,Staten Island,GuestWiFi,191588,"(40.517045, -74.190323)"
1789,SI,Limited Free,TimeWarner,Wolfes Pond Park,420 CORNELIA AVE,40.517148,-74.189823,931471.4021,127744.7718,Outdoor,Park entrance and parking lot,Staten Island,GuestWiFi,201100,"(40.517148, -74.189823)"
1818,MN,Free,CBS Outdoor LLC,Public Pay Telephone,2401  2 AVENUE,40.8015772,-73.93437076,1002420,231320,Payphone,Outdoor Installation,New York,NYC Free WiFi,,"(40.8015772, -73.93437076)"
1819,QU,Free,CBS Outdoor LLC,Public Pay Telephone,35-01  JUNCTION BOULEVARD,40.7530633,-73.87164154,1019813,213663.9999,Payphone,Outdoor Installation,Queens,NYC Free WiFi,,"(40.7530633, -73.87164154)"
1820,SI,Free,CBS Outdoor LLC,Public Pay Telephone,3901  RICHMOND AVENUE,40.54297614,-74.16390237,938695.9999,137140,Payphone,Outdoor Installation,Staten Island,NYC Free WiFi,,"(40.54297614, -74.16390237)"
1821,MN,Free,CBS Outdoor LLC,Public Pay Telephone,410  WEST BROADWAY,40.72478975,-74.00174617,983766,203336.9999,Payphone,Outdoor Installation,New York,NYC Free WiFi,,"(40.72478975, -74.00174617)"
1822,MN,Free,CBS Outdoor LLC,Public Pay Telephone,402  WEST BROADWAY,40.72427372,-74.0021827,983644.9999,203148.9999,Payphone,Outdoor Installation,New York,NYC Free WiFi,,"(40.72427372, -74.0021827)"
1823,QU,Free,CBS Outdoor LLC,Public Pay Telephone,133-01  41 ROAD,40.75664492,-73.83102388,1031064,214987.9999,Payphone,Outdoor Installation,Queens,NYC Free WiFi,,"(40.75664492, -73.83102388)"
1824,QU,Free,CBS Outdoor LLC,Public Pay Telephone,133-45  41 ROAD,40.75697327,-73.8303264,1031257,215108,Payphone,Outdoor Installation,Queens,NYC Free WiFi,,"(40.75697327, -73.8303264)"
1825,QU,Free,CBS Outdoor LLC,Public Pay Telephone,86-15  JUSTICE AVENUE,40.73784126,-73.87700423,1018335,208116.0002,Payphone,Outdoor Installation,Queens,NYC Free WiFi,,"(40.73784126, -73.87700423)"
1826,MN,Free,CBS Outdoor LLC,Public Pay Telephone,66  EAST 13 STREET,40.73388551,-73.99074475,986815.0001,206651.0001,Payphone,Outdoor Installation,New York,NYC Free WiFi,,"(40.73388551, -73.99074475)"
1827,MN,Free,CBS Outdoor LLC,Public Pay Telephone,857  3 AVENUE,40.75697627,-73.9699109,992586,215065,Payphone,Outdoor Installation,New York,NYC Free WiFi,,"(40.75697627, -73.9699109)"
